OBJECTID,ARRONDISSEMENT,NBR_PLA,X,Y,ID_STA,JURIDICTION,EMPLACEMENT,LOCATION,HEURES,HOURS,BOROUGH,NBR_PLA_I,Note_FR,Note_EN,Longitude,Latitude
1,LaSalle,150,292122,5032097.01861536,1,Municipale,"55, av. Dupras","55, av. Dupras",23h à 7h,11 p.m to 7 a.m,LaSalle,150,,,-73.66202325,45.42869228
2,Le Plateau-Mont-Royal,90,299335,5043043.01538533,2,Municipale,"3815, av. Calixa-Lavallée","3815, av. Calixa-Lavallée",22h à 7h,10 p.m to 7 a.m,Le Plateau-Mont-Royal,90,,,-73.56996486,45.52728302
3,Le Plateau-Mont-Royal,70,299138,5043732.02190475,3,Municipale,"4375, rue Cartier","4375, rue Cartier",22h à 7h,10 p.m to 7 a.m,Le Plateau-Mont-Royal,70,,,-73.5724947,45.53348133
4,Mercier - Hochelaga-Maisonneuve,485,300900,5047006.01798932,4,Municipale,"3000, rue Viau","3000, rue Viau",20h à 8h,8 p.m to 8 a.m,Mercier - Hochelaga-Maisonneuve,485,,,-73.54996124,45.56295403
5,Outremont,21,295683,5042541.0169204,5,Municipale,"Opposé du 940, av. Outremont","In face of 940, av. Outremont",21h à 7h,9 p.m to 7 a.m,Outremont,21,,,-73.61670853,45.52272763
6,Outremont,9,296066,5042596.02223083,6,Municipale,"Nord du 779, av. de l'Épée","North of 779, av. de l'Épée",21h à 7h,9 p.m to 7 a.m,Outremont,9,,,-73.61180673,45.52322744
7,Outremont,9,295917,5042529.01576176,7,Municipale,"Sud du 832, av. Bloomfield","South of 832, av. Bloomfield",21h à 7h,9 p.m to 7 a.m,Outremont,9,,,-73.61371288,45.52262267
8,Outremont,13,296348,5042413.01456255,8,Municipale,Sud de l'avenue de l'Épée,South of avenue de l'Épée,21h à 7h,9 p.m to 7 a.m,Outremont,13,,,-73.60819366,45.52158413
9,Outremont,15,296314,5042382.02157036,9,Municipale,"Nord du 620, av. de l'Épée","North of 620, av. de l'Épée",21h à 7h,9 p.m to 7 a.m,Outremont,15,,,-73.60862835,45.52130485
10,Outremont,10,296282,5042299.01355644,10,Municipale,"Sud du 628, av. Bloomfield","South of 628, av. Bloomfield",21h à 7h,9 p.m to 7 a.m,Outremont,10,,,-73.60903653,45.52055751
11,Outremont,18,296183,5042105.01482703,11,Municipale,"Ouest du 1335, av. Bernard","West of 1335, av. Bernard",21h à 7h,9 p.m to 7 a.m,Outremont,18,,,-73.61030037,45.5188106
12,Outremont,19,297242,5041977.02247014,12,Municipale,"Ouest du 451, av. Edouard-Charles","West of 451, av. Edouard-Charles",21h à 7h,9 p.m to 7 a.m,Outremont,19,,,-73.59674295,45.51767118
13,Outremont,10,297156,5042026.01720029,13,Municipale,"Sud du 5126, av. Durocher","South of 5126, av. Durocher",21h à 7h,9 p.m to 7 a.m,Outremont,10,,,-73.59784463,45.51811117
14,Saint-Léonard,40,298223,5050187.01509541,14,Municipale,Côté sud à l'ouest du Boul. Langelier,"South side, West of Boul. Langelier",18h à 7h,6 p.m to 7 a.m,Saint-Léonard,40,,,-73.5842968,45.59155749
15,Saint-Léonard,84,297474,5049141.01411032,15,Municipale,Côté nord à l'ouest de la rue Du Cap,"North side, West of rue Du Cap",18h à 7h,6 p.m to 7 a.m,Saint-Léonard,84,,,-73.59388064,45.58213771
16,Saint-Léonard,32,298232,5048974.01798785,16,Municipale,Rue De Lisieux,Rue De Lisieux,18h à 7h,6 p.m to 7 a.m,Saint-Léonard,32,,,-73.58416514,45.58064265
17,Saint-Léonard,50,298268,5049103.02044226,17,Municipale,Boul. Lacordaire et rue Jean-Talon,Boul. Lacordaire and rue Jean-Talon,18h à 7h,6 p.m to 7 a.m,Saint-Léonard,50,,,-73.58370542,45.58180377
18,Saint-Léonard,100,297318,5049643.02257621,18,Municipale,Boul. Lacordaire entre Des Galets et Robert,Boul. Lacordaire between Des Galets and Robert,18h à 7h,6 p.m to 7 a.m,Saint-Léonard,100,,,-73.59588739,45.58665328
19,Saint-Léonard,49,297553,5049464.01529414,19,Municipale,Par boul. Lacordaire ou par la rue Collerette,By boul. Lacordaire or rue Collerette,18h à 7h,6 p.m to 7 a.m,Saint-Léonard,49,,,-73.59287322,45.58504507
20,Saint-Léonard,31,296640,5050129.01949628,20,Municipale,Entre les boul. Lacordaire et Viau,Between boul. Lacordaire and Viau,18h à 7h,6 p.m to 7 a.m,Saint-Léonard,31,,,-73.60458456,45.59101882
21,Saint-Léonard,16,296083,5049305.0199441,21,Municipale,Côté est au sud du boul. Lavoisier,"East side, North of boul. Lavoisier",18h à 7h,6 p.m to 7 a.m,Saint-Léonard,12,,,-73.61170865,45.58359748
22,Saint-Léonard,9,298323,5049963.02347037,22,Municipale,Entre les rues de la Salette et Louis-Vanier,Between rue de la Salette and Louis-Vanier,18h à 7h,6 p.m to 7 a.m,Saint-Léonard,9,,,-73.58301204,45.58954281
23,Saint-Léonard,91,298243,5049911.0184496,23,Municipale,Coin boul. Métropolitain et rue Louis-Vanier,Corner boul. Métroplitain and rue Louis-Vanier,18h à 7h,6 p.m to 7 a.m,Saint-Léonard,91,,,-73.58403663,45.58907415
24,Le Sud-Ouest,735,296781,5033939.01644914,24,Stationnement de Montréal,"Parc Angrignon, sur le boul. des Trinitaires au nord du boul. De La Vérendrye à l'angle de la rue Lacroix","Parc Angrignon, boul. des Trinitaires, North of boul. De La Vérendrye, at the corner of rue Lacroix",18h à 7h,6 p.m to 7 a.m,Le Sud-Ouest,735,,,-73.60251243,45.44533649
25,Rosemont - La Petite-Patrie,31,296871,5044018.01951609,25,Stationnement de Montréal,Rue Saint-André entre la rue Beaubien et la rue Bellechasse,Rue Saint-André between rue Beaubien and rue Bellechasse,21h à 7h,9 p.m to 7 a.m,Rosemont - La Petite-Patrie,31,Sauf places réservées,Except reserved spaces,-73.60152485,45.53603275
26,Rosemont - La Petite-Patrie,23,296785,5044126.01994288,26,Stationnement de Montréal,Rue Beaubien entre la rue Saint-André et la rue Boyer,Rue Beaubien between rue Saint-André and rue Boyer,21h à 7h,9 p.m to 7 a.m,Rosemont - La Petite-Patrie,23,Sauf places réservées,Except reserved spaces,-73.60262777,45.53700359
27,Rosemont - La Petite-Patrie,27,298943,5045468.01950485,27,Stationnement de Montréal,8e Avenue entre la rue Dandurand et la rue Masson,8e Avenue between rue Dandurand and rue Masson,21h à 7h,9 p.m to 7 a.m,Rosemont - La Petite-Patrie,27,,,-73.57501214,45.54910087
28,Rosemont - La Petite-Patrie,100,296600,5044226.01959725,28,Stationnement de Montréal,Rue Boyer entre la rue Beaubien et la rue Saint-Zotique,Rue Boyer between rue Beaubien and rue Saint-Zotique,21h à 7h,9 p.m to 7 a.m,Rosemont - La Petite-Patrie,100,,,-73.6049981,45.53790128
29,Rosemont - La Petite-Patrie,20,295923,5044319.01857574,29,Stationnement de Montréal,Rue Saint-Vallier entre la rue Jean-Talon et la rue Bélanger,Rue Saint-Vallier between rue Jean-Talon and rue Bélanger,21h à 7h,9 p.m to 7 a.m,Rosemont - La Petite-Patrie,20,,,-73.61366851,45.53872983
30,Ville-Marie,61,299418,5040876.01617462,30,Stationnement de Montréal,De Maisonneuve entre Bleury et Jeanne-Mance,De Maisonneuve between Bleury and Jeanne-Mance,21h à 7h,9 p.m to 7 a.m,Ville-Marie,61,,,-73.5688785,45.50778413
31,Ville-Marie,121,296908,5039858.01789303,31,Stationnement de Montréal,Remembrance sur le Mont-Royal,Remembrance on Mount Royal,21h à 7h,9 p.m to 7 a.m,Ville-Marie,121,,,-73.600984,45.49859986
32,Ville-Marie,435,297426,5040202.02110447,32,Stationnement de Montréal,Remembrance sur le Mont-Royal (Maison Smith),Remembrance on Mount Royal (Smith House),21h à 7h,9 p.m to 7 a.m,Ville-Marie,435,,,-73.59436121,45.50170098
33,Saint-Léonard,134,297347,5048196.02287712,33,Municipale,Coin boul. Métropolitain et rue Colbert,Corner boul. Métroplitain and rue Colbert,18h à 7h,6 p.m to 7 a.m,Saint-Léonard,134,,,-73.59549379,45.57363305
34,Saint-Léonard,16,297200,5050581.02313451,34,Municipale,Côté sud entre les boul. Lacordaire et Langelier,South side between boul. Lacordaire and Langelier,18h à 7h,6 p.m to 7 a.m,Saint-Léonard,16,,,-73.59741422,45.59509238
35,Rosemont - La Petite-Patrie,19,296976,5043948.02275833,35,Stationnement de Montréal,Entre la rue Beaubien Est et la rue Bellechasse,between rue Beaubien Est and rue Bellechasse,21h à 7h,9 p.m to 7 a.m,Rosemont - La Petite-Patrie,19,,,-73.60017919,45.53540405
36,Rosemont - La Petite-Patrie,15,297150,5043470.01660972,36,Stationnement de Montréal,Boulevard Rosemont entre la rue Saint-Denis et la rue Saint-Vallier,Boulevard Rosemont between rue Saint-Denis and rue Saint-Vallier,21h à 7h,9 p.m to 7 a.m,Rosemont - La Petite-Patrie,15,Côté ouest seulement. Section horaire,West side only. Hourly spaces,-73.59794397,45.53110477
37,LaSalle,130,294688,5031275.01925628,37,Municipale,"707, 75e Avenue","707, 75e Avenue",23h à 7h,11 p.m to 7 a.m,LaSalle,130,Section horaire,Hourly spaces,-73.62921364,45.4213373
38,Outremont,7,296080,5042616.01416093,38,Municipale,"Nord du 780, av. Querbes","North of 780, av. Querbes",21h à 7h,9 p.m to 7 a.m,Outremont,7,,,-73.61162787,45.5234075
39,Rosemont - La Petite-Patrie,300,300503,5046378.01735965,39,Municipale,"4101, rue Sherbrooke Est (P2)","4581,  rue Sherbrooke (P2)",18h à 7h,6 p.m to 7 a.m,Rosemont - La Petite-Patrie,350,Des travaux sont prévus au cours de l'année 2019 dans le  stationnement de l'Insectarium qui sera fermé. Espace réservé à l'entrepreneur qui doit y installer ses roulottes et périmètre de chantier. Date de fermeture pas encore connue.,,-73.55504135,45.55730074
40,Saint-Léonard,45,297596,5049373.01650876,40,Municipale,Coin rue Jarry et boul. Lacordaire,Corner rue Jarry  and boul. Lacordaire,18h à 7h,6 p.m to 7 a.m,Saint-Léonard,45,,,-73.59232082,45.58422667
41,Saint-Léonard,32,298270,5049948.02202207,41,Municipale,Entre la rue Jarry et le boul. Métropolitain,Between rue Jarry and boul. Metropolitain,18h à 7h,6 p.m to 7 a.m,Saint-Léonard,32,,,-73.58369122,45.58940734
42,Le Plateau-Mont-Royal,43,296933,5043058.01683363,42,Stationnement de Montréal,Rue Saint-Dominique entre la rue Bernard et la rue Saint-Viateur,Rue Saint-Dominique between rue Bernard  and rue Saint-Viateur,21h à 7h,9 p.m to 7 a.m,Le Plateau-Mont-Royal,43,Sauf places réservées,Except reserved spaces,-73.60071559,45.52739502
43,Ville-Marie,114,297450,5040309.0214347,43,Stationnement de Montréal,Remembrance sur le Mont-Royal (Centre de la Montagne),Remembrance on Mount Royal (Centre de la Montagne),21h à 7h,9 p.m to 7 a.m,Ville-Marie,114,,,-73.59405571,45.50266406
44,Le Plateau-Mont-Royal,113,299665,5042596.02223083,44,Stationnement de Montréal,Rue Sherbrooke entre la rue Calixa-Lavallée et le Parc Lafontaine,Rue Sherbrooke between rue Calixa-Lavallée  and Parc Lafontaine,21h à 7h,9 p.m to 7 a.m,Le Plateau-Mont-Royal,113,Section horaire,Hourly spaces,-73.56573538,45.52326325
45,Ville-Marie,36,299910,5039651.01790843,45,Stationnement de Montréal,Rue Notre-Dame entre la rue De l'Inspecteur et la rue De la Cathédrale,Rue Notre-Dame between rue De l'Inspecteur and rue De la Cathédrale,21h à 7h,9 p.m to 7 a.m,Ville-Marie,36,Côté ouest seulement.  Section horaire,West side only. Hourly spaces,-73.56256973,45.49676468
46,Ville-Marie,24,299750,5039751.01756279,46,Stationnement de Montréal,Mansfield côté ouest entre Saint-Antoine et Saint-Jacques,Mansfield (West site) between Saint-Antoine and Saint-Jacques,21h à 7h,9 p.m to 7 a.m,Ville-Marie,24,,,-73.56461798,45.49766338
47,Rosemont - La Petite-Patrie,45,296053,5044554.02126383,47,Stationnement de Montréal,Rue Saint-André entre la rue Jean-Talon et la rue Bélanger,Rue Saint-André  between rue Jean-Talon  and rue Bélanger,21h à 7h,9 p.m to 7 a.m,Rosemont - La Petite-Patrie,45,,,-73.61200811,45.54084608
48,Outremont,10,297177,5042059.02038654,48,Municipale,"Sud du 5123, av. Durocher","South of 5123, av. Durocher",21h à 7h,9 p.m to 7 a.m,Outremont,10,,,-73.59757634,45.51840834
49,Outremont,21,297104,5041966.02140805,49,Municipale,"Sud du 142, av. Querbes","South of 142, av. Querbes",21h à 7h,9 p.m to 7 a.m,Outremont,21,,,-73.59850928,45.51757069
50,Saint-Léonard,47,299175,5049536.02224598,50,Municipale,Rue Liénart et rue Ladauversière,rue Liénart  and rue Ladauversière,18h à 7h,6 p.m to 7 a.m,Saint-Léonard,47,,,-73.57208786,45.58570796
51,Saint-Léonard,18,297620,5047993.02327873,51,Municipale,Boul. Provencher entre Buies et Colbert,Boul. Provencher between Buies and Colbert,18h à 7h,6 p.m to 7 a.m,Saint-Léonard,18,,,-73.59199298,45.57180927
52,Saint-Léonard,619,297150,5049466.01548725,52,Municipale,Entre les rue Des Galets et le boul. Robert,Between rue Des Galets and boul. Robert,18h à 7h,6 p.m to 7 a.m,Saint-Léonard,619,,,-73.59803775,45.58505875
53,Saint-Léonard,12,296671,5048795.02070675,53,Municipale,Côté sud à l'est du boul. Provencher,"South side, East of boul. Provencher",18h à 7h,6 p.m to 7 a.m,Saint-Léonard,12,,,-73.60416505,45.57901547
54,Saint-Léonard,12,297875,5050241.02030929,54,Municipale,Côté sud entre les boul. Lacordaire et Langelier,South side between boul. Lacordaire and Langelier,18h à 7h,6 p.m to 7 a.m,Saint-Léonard,12,,,-73.58875763,45.59204002
55,Villeray - Saint-Michel - Parc-Extension,134,296524,5047245.02106363,55,Stationnement de Montréal,14e Avenue entre rue Jarry et boul. Crémazie,14e Avenue between rue Jarry and boul. Crémazie,21h à 7h,9 p.m to 7 a.m,Villeray - Saint-Michel - Parc-Extension,134,,,-73.6060223,45.56506636
56,Le Sud-Ouest,23,298102,5037469.01724943,56,Stationnement de Montréal,"Place Saint-Henri, entre la rue Saint-Jacques et la rue Notre-Dame Ouest","Place Saint-Henri, between rue Saint-Jacques and rue Notre-Dame Ouest",18h à 7h,6 p.m to 7 a.m,Le Sud-Ouest,23,Section horaire,Hourly spaces,-73.58567367,45.47711506
57,Rosemont - La Petite-Patrie,17,298917,5045405.01342199,57,Stationnement de Montréal,6e Avenue entre la rue Dandurand et la rue Masson,6e Avenue between rue Dandurand and rue Masson,21h à 7h,9 p.m to 7 a.m,Rosemont - La Petite-Patrie,17,Côté sud seulement.  Section horaire,South side only. Hourly spaces,-73.57534449,45.54853367
58,Ahunstic-Cartierville,22,292433,5046689.30741283,58,Stationnement de Montréal,Rue Fleury près de la rue Chambord,Rue Fleury near rue Chambord,21h à 7h,9 p.m to 7 a.m,Ahunstic-Cartierville,22,Section horaire,Hourly spaces,-73.65839023,45.56000529
59,Rosemont - La Petite-Patrie,350,300255.514390465,5046869.04476539,59,Municipale,"4581, rue Sherbrooke Est (P2)","4581,  rue Sherbrooke (P2)",18h à 7h,6 p.m to 7 a.m,Rosemont - La Petite-Patrie,350,,,-73.55821431,45.56171753
60,Le Sud-Ouest,221,297239.945446361,5036536.71724148,60,Municipale,"Complexe Gadbois, accès rue Notre-Dame Ouest","Complexe Gadbois, access on rue Notre-Dame Ouest",22h à 7h,10 p.m to 7 a.m,Le Sud-Ouest,221,,,-73.59668385,45.46871699
61,Lachine,11,287917,5033177.06288712,61,Municipale,Parc Summerlea - Boul Saint-Joseph (entre 52e avenue et 54e avenue),Summerlea Park - St-Joseph Bouleveard (between 52e avenue and 54e avenue),21 h à 7 h,9 p.m to 7 a.m,Lachine,11,,,-73.71578956,45.43832215
62,Lachine,80,289663,5032556.42296808,62,Municipale,Parc Saint-Louis - Boulevard Saint-Joseph (entre 32e avenue et 34 e avenue),St-Louis Park - St-Joseph Boulevard (between 32th Avenue and 34th Avenue),21 h à 7 h,9 p.m to 7 a.m,Lachine,80,,,-73.69344853,45.43277731
63,Lachine,18,289827,5032702.60708127,63,Municipale,Entre la rue Notre-Dame et le boulevard Saint-Joseph,Between Notre-Dame Street and St-Joseph Boulevard,21 h à 7 h,9 p.m to 7 a.m,Lachine,18,,,-73.69135977,45.43409633
64,Lachine,65,289884,5032614.14854114,64,Municipale,La maison du brasseur,La maison du brasseur,21 h à 7 h,9 p.m to 7 a.m,Lachine,65,,,-73.69062615,45.43330155
65,Lachine,21,290046,5032684.30531435,65,Municipale,Boulevard Saint-Joseph (entre 27e avenue et 28e avenue),St-Joseph Boulevard (between 27th Avenue and 28th Avenue),21 h à 7 h,9 p.m to 7 a.m,Lachine,21,,,-73.68856225,45.43393631
66,Lachine,26,290244,5032688.49571891,66,Municipale,Parc des Saules,Des Saules Park,21 h à 7 h,9 p.m to 7 a.m,Lachine,26,,,-73.68602844,45.43397817
67,Lachine,32,290405,5032573.36460369,67,Municipale,Club de Canoë de Course,Club de Canoë de Course,21 h à 7 h,9 p.m to 7 a.m,Lachine,32,,,-73.68397362,45.4329454
68,Lachine,19,290655,5032648.46185388,68,Municipale,Mairie - Boulevard Saint-Joseph (entre 18e avenue et 19e avenue),City Hall - St-Joseph Boulevard (between 18th Avenue and 19th Avenue),21 h à 7 h,9 p.m to 7 a.m,Lachine,19,,,-73.68077474,45.4336263
69,Lachine,48,290687,5032612.01833548,69,Municipale,Boulevard Saint-Joseph (entre 17e avenue et 18e avenue),Saint-Joseph Boulevard (between 17th avenue et 18th avenue),21 h à 7 h,9 p.m to 7 a.m,Lachine,48,,,-73.6803734,45.43329903
70,Lachine,47,291173,5032428.49061698,70,Municipale,Boulevard Saint-Joseph/12e avenue,Saint-Joseph Boulevard/12th avenue,21 h à 7 h,9 p.m to 7 a.m,Lachine,47,,,-73.67415101,45.43165718
71,Lachine,142,291312,5032078.29680788,71,Municipale,Parc René-Lévesque,René-Lévesque Park,21 h à 7 h,9 p.m to 7 a.m,Lachine,142,,,-73.67237172,45.42850868
72,Lachine,25,291789,5032184.52706377,72,Municipale,Musée Lachine,Lachine Museum,21 h à 7 h,9 p.m to 7 a.m,Lachine,25,,,-73.66627008,45.42947364
73,Lachine,94,291723,5033130.33837615,73,Municipale,Rue Victoria (entre 6e avenue et 1ère avenue),Victoria Road (between 6th Avenue and 1st Avenue),21 h à 7 h,9 p.m to 7 a.m,Lachine,94,,,-73.6671379,45.43798328
74,Lachine,60,291516,5032899.47608779,74,Municipale,Rue Notre-Dame (entre 6e avenue et 7e avenue),Notre-Dame Road (between 6th Avenue and 7th Avenue),21 h à 7 h,9 p.m to 7 a.m,Lachine,60,,,-73.6697867,45.43590198
75,Lachine,143,291393,5033051.4007552,75,Municipale,Rue Victoria/Rue William McDonald (entre 6e et 10e avenue),Victoria Road/William McDonald Road (between 6th Avenue and 10th Avenue),21 h à 7 h,9 p.m to 7 a.m,Lachine,143,,,-73.67136358,45.43726668
76,Lachine,110,290986,5032945.550536,77,Municipale,Rue Victoria/William-MacDonald (entre 15e avenue et 10e avenue),Victoria/William-MacDonald Road (between 15th Avenue et 10th Avenue),21 h à 7 h,9 p.m to 7 a.m,Lachine,110,,,-73.67655672,45.43630627
77,Lachine,85,290833,5032904.0865329,78,Municipale,Rue Victoria/William-MacDonald (entre 17e avenue et 15e avenue),Victoria/William-MacDonald Road (between 17th avenue et 15th avenue),21 h à 7 h,9 p.m to 7 a.m,Lachine,85,,,-73.67851608,45.43593015
78,Lachine,55,291403,5032711.26791743,79,Municipale,Entre Rue Saint-Louis et rue Notre-Dame (entre 9e avenue et 8e avenue),Between St-Louis Road and Notre-Dame Road (between 9th Avenue and 10th Avenue),21 h à 7 h,9 p.m to 7 a.m,Lachine,54,,,-73.67122625,45.43420621
79,Lachine,63,291258,5032726.70940821,80,Municipale,Entre Rue Saint-Louis et rue Notre-Dame (entre 11e avenue et 10e avenue),Between St-Louis Road and Notre-Dame Road (between 11th Avenue and 10th Avenue),21 h à 7 h,9 p.m to 7 a.m,Lachine,63,,,-73.67307391,45.43434236
80,Lachine,28,290967.173051897,5032733.52006574,81,Municipale,Poste de Police de quartier (entre 15e avenue et 14e avenue),Police Station (between 15th and 14th avenue),21 h à 7 h,9 p.m to 7 a.m,Lachine,28,,,-73.67679783,45.43439794
81,Lachine,52,291101,5032846.11093571,82,Municipale,Rue Notre-Dame (entre 13e avenue et 12e avenue),Notre-Dame Road (between 13th Avenue and 12th Avenue),21 h à 7 h,9 p.m to 7 a.m,Lachine,52,,,-73.67507847,45.43541374
82,Lachine,20,291180,5032838.18017004,83,Municipale,Rue Notre-Dame (entre 11e avenue et 12e avenue),Notre-Dame Road (between 11th Avenueand 12th Avenue),21 h à 7 h,9 p.m to 7 a.m,Lachine,20,,,-73.67407659,45.43534391
83,Lachine,51,290568,5033368.36135583,84,Municipale,Aréna Pierre Pete Morin,Pierre Pete Morin,21 h à 7 h,9 p.m to 7 a.m,Lachine,51,,,-73.68190646,45.44010255
