identifiant,modele,type,atelier,url_wiki,region,localite,adresse,code_postal,latitude,longitude
Machine-outil 000001,Speedy 300,DÃ©coupe laser,Ãchofab,https://wiki.fablabs.quebec/index.php/Machine-outil_000001,MontrÃ©al - 06,MontrÃ©al,55 rue de Louvain Ouest,H2N 1A4,45.544575,-73.655436
Machine-outil 000002,DittoPro,Imprimante 3D,Le Square Banque Nationale,https://wiki.fablabs.quebec/index.php/Machine-outil_000002,MontrÃ©al - 06,MontrÃ©al,"475, boulevard De Maisonneuve Est",H2L 5C4,45.515389,-73.562244
Machine-outil 000003,SignMax SMX4896,CNC,Ãchofab,https://wiki.fablabs.quebec/index.php/Machine-outil_000003,MontrÃ©al - 06,MontrÃ©al,55 rue de Louvain Ouest,H2N 1A4,45.544575,-73.655436
Machine-outil 000004,DittoPro,Imprimante 3D,Ãchofab,https://wiki.fablabs.quebec/index.php/Machine-outil_000004,MontrÃ©al - 06,MontrÃ©al,55 rue de Louvain Ouest,H2N 1A4,45.544575,-73.655436
Machine-outil 000005,DittoPro,Imprimante 3D,Ãchofab,https://wiki.fablabs.quebec/index.php/Machine-outil_000005,MontrÃ©al - 06,MontrÃ©al,55 rue de Louvain Ouest,H2N 1A4,45.544575,-73.655436
Machine-outil 000006,CAMM-1 GS-24,DÃ©coupe vinyle,Ãchofab,https://wiki.fablabs.quebec/index.php/Machine-outil_000006,MontrÃ©al - 06,MontrÃ©al,55 rue de Louvain Ouest,H2N 1A4,45.544575,-73.655436
Machine-outil 000008,Form 2,Imprimante 3D,Fab Lab au MusÃ©e de l'ingÃ©niositÃ© J. Armand Bombardier,https://wiki.fablabs.quebec/index.php/Machine-outil_000008,Estrie - 05,Valcourt,1001 avenue J.-A. Bombardier,J0L2E0,45.494617,-72.309642
Machine-outil 000009,Roland monoFab SRM-20,CNC,Fab Lab au MusÃ©e de l'ingÃ©niositÃ© J. Armand Bombardier,https://wiki.fablabs.quebec/index.php/Machine-outil_000009,Estrie - 05,Valcourt,1001 avenue J.-A. Bombardier,J0L2E0,45.494617,-72.309642
Machine-outil 000010,LULZBOT TAZ 6,Imprimante 3D,FabLAB Matane,https://wiki.fablabs.quebec/index.php/Machine-outil_000010,Bas-Saint-Laurent - 01,Matane,"616, ave. Saint-RÃ©dempteur",G4W 1L1,48.840789,-67.497267
Machine-outil 000011,Speedy 300,DÃ©coupe laser,Fab Lab du Centre dâÃ©ducation des adultes Le Moyne-DâIberville de Longueuil,https://wiki.fablabs.quebec/index.php/Machine-outil_000011,MontÃ©rÃ©gie - 16,Longueuil,560 Le Moyne Ouest,J4H 1X5,45.530119,-73.504406
Machine-outil 000012,Ultimaker 3,Imprimante 3D,Ãchofab,https://wiki.fablabs.quebec/index.php/Machine-outil_000012,MontrÃ©al - 06,MontrÃ©al,55 rue de Louvain Ouest,H2N 1A4,45.544575,-73.655436
Machine-outil 000013,CAMM-1 GS-24,DÃ©coupe vinyle,Fab Lab du Centre dâÃ©ducation des adultes Le Moyne-DâIberville de Longueuil,https://wiki.fablabs.quebec/index.php/Machine-outil_000013,MontÃ©rÃ©gie - 16,Longueuil,560 Le Moyne Ouest,J4H 1X5,45.530119,-73.504406
Machine-outil 000014,XL-580 â Futura,Brodeuse numÃ©rique,Fab Lab du Centre dâÃ©ducation des adultes Le Moyne-DâIberville de Longueuil,https://wiki.fablabs.quebec/index.php/Machine-outil_000014,MontÃ©rÃ©gie - 16,Longueuil,560 Le Moyne Ouest,J4H 1X5,45.530119,-73.504406
Machine-outil 000015,DittoPro,Imprimante 3D,Fab Lab du Centre dâÃ©ducation des adultes Le Moyne-DâIberville de Longueuil,https://wiki.fablabs.quebec/index.php/Machine-outil_000015,MontÃ©rÃ©gie - 16,Longueuil,560 Le Moyne Ouest,J4H 1X5,45.530119,-73.504406
Machine-outil 000016,Atom 2.0,Imprimante 3D,BennyFab,https://wiki.fablabs.quebec/index.php/Machine-outil_000016,MontrÃ©al - 06,MontrÃ©al,6400 Monkland,H4B 1H3,45.473369,-73.624514
Machine-outil 000017,Ultimaker 3,Imprimante 3D,BennyFab,https://wiki.fablabs.quebec/index.php/Machine-outil_000017,MontrÃ©al - 06,MontrÃ©al,6400 Monkland,H4B 1H3,45.473369,-73.624514
Machine-outil 000018,DittoPro,Imprimante 3D,BennyFab,https://wiki.fablabs.quebec/index.php/Machine-outil_000018,MontrÃ©al - 06,MontrÃ©al,6400 Monkland,H4B 1H3,45.473369,-73.624514
Machine-outil 000019,DittoPro,Imprimante 3D,Le Square Banque Nationale,https://wiki.fablabs.quebec/index.php/Machine-outil_000019,MontrÃ©al - 06,MontrÃ©al,"475, boulevard De Maisonneuve Est",H2L 5C4,45.515389,-73.562244
Machine-outil 000020,INNOV-IS XV8500D,,Fab Lab Brossard,https://wiki.fablabs.quebec/index.php/Machine-outil_000020,MontÃ©rÃ©gie - 16,Brossard,7855 Avenue San Francisco,J4X 2A4,45.4549,-73.468108
Machine-outil 000021,Desktop,CNC,Fab Lab Brossard,https://wiki.fablabs.quebec/index.php/Machine-outil_000021,MontÃ©rÃ©gie - 16,Brossard,7855 Avenue San Francisco,J4X 2A4,45.4549,-73.468108
Machine-outil 000022,Speedy 300,DÃ©coupe laser,Fab Lab Brossard,https://wiki.fablabs.quebec/index.php/Machine-outil_000022,MontÃ©rÃ©gie - 16,Brossard,7855 Avenue San Francisco,J4X 2A4,45.4549,-73.468108
Machine-outil 000023,ScanNCut2 CM650W,DÃ©coupe papier carton,Fab Lab Brossard,https://wiki.fablabs.quebec/index.php/Machine-outil_000023,MontÃ©rÃ©gie - 16,Brossard,7855 Avenue San Francisco,J4X 2A4,45.4549,-73.468108
Machine-outil 000024,CAMM-1 GS-24,DÃ©coupe vinyle,Fab Lab Brossard,https://wiki.fablabs.quebec/index.php/Machine-outil_000024,MontÃ©rÃ©gie - 16,Brossard,7855 Avenue San Francisco,J4X 2A4,45.4549,-73.468108
Machine-outil 000025,DittoPro,Imprimante 3D,Fab Lab Brossard,https://wiki.fablabs.quebec/index.php/Machine-outil_000025,MontÃ©rÃ©gie - 16,Brossard,7855 Avenue San Francisco,J4X 2A4,45.4549,-73.468108
Machine-outil 000026,Form 2,Imprimante 3D,Fab Lab Brossard,https://wiki.fablabs.quebec/index.php/Machine-outil_000026,MontÃ©rÃ©gie - 16,Brossard,7855 Avenue San Francisco,J4X 2A4,45.4549,-73.468108
Machine-outil 000027,DittoPro,Imprimante 3D,LCC Fab Lab,https://wiki.fablabs.quebec/index.php/Machine-outil_000027,MontrÃ©al - 06,MontrÃ©al,4090 Avenue Royal,H4A 2M5,45.471008,-73.623481
Machine-outil 000028,S5,Imprimante 3D,LCC Fab Lab,https://wiki.fablabs.quebec/index.php/Machine-outil_000028,MontrÃ©al - 06,MontrÃ©al,4090 Avenue Royal,H4A 2M5,45.471008,-73.623481
Machine-outil 000029,Sindoh - 3DWox 1,Imprimante 3D,LCC Fab Lab,https://wiki.fablabs.quebec/index.php/Machine-outil_000029,MontrÃ©al - 06,MontrÃ©al,4090 Avenue Royal,H4A 2M5,45.471008,-73.623481
Machine-outil 000031,Ultimaker go,Imprimante 3D,LCC Fab Lab,https://wiki.fablabs.quebec/index.php/Machine-outil_000031,MontrÃ©al - 06,MontrÃ©al,4090 Avenue Royal,H4A 2M5,45.471008,-73.623481
Machine-outil 000032,Pinnacle 27 Ezload,Laminateur,Fab Lab Brossard,https://wiki.fablabs.quebec/index.php/Machine-outil_000032,MontÃ©rÃ©gie - 16,Brossard,7855 Avenue San Francisco,J4X 2A4,45.4549,-73.468108
Machine-outil 000033,DK16,Presse Ã  chaleur,Fab Lab Brossard,https://wiki.fablabs.quebec/index.php/Machine-outil_000033,MontÃ©rÃ©gie - 16,Brossard,7855 Avenue San Francisco,J4X 2A4,45.4549,-73.468108
Machine-outil 000034,Brother PE770,Brodeuse numÃ©rique,LCC Fab Lab,https://wiki.fablabs.quebec/index.php/Machine-outil_000034,MontrÃ©al - 06,MontrÃ©al,4090 Avenue Royal,H4A 2M5,45.471008,-73.623481
Machine-outil 000035,Helios 60,Thermorelieur,Fab Lab Brossard,https://wiki.fablabs.quebec/index.php/Machine-outil_000035,MontÃ©rÃ©gie - 16,Brossard,7855 Avenue San Francisco,J4X 2A4,45.4549,-73.468108
Machine-outil 000036,FLEX2000,Presse Ã  macarons,Fab Lab Brossard,https://wiki.fablabs.quebec/index.php/Machine-outil_000036,MontÃ©rÃ©gie - 16,Brossard,7855 Avenue San Francisco,J4X 2A4,45.4549,-73.468108
Machine-outil 000038,Ãchorap,Imprimante 3D,Ãchofab,https://wiki.fablabs.quebec/index.php/Machine-outil_000038,MontrÃ©al - 06,MontrÃ©al,55 rue de Louvain Ouest,H2N 1A4,45.544575,-73.655436
Machine-outil 000039,SignMax SMZ2436,CNC,Ãchofab,https://wiki.fablabs.quebec/index.php/Machine-outil_000039,MontrÃ©al - 06,MontrÃ©al,55 rue de Louvain Ouest,H2N 1A4,45.544575,-73.655436
Machine-outil 000040,CAMM-1 GS-24,DÃ©coupe vinyle,Polyfab Normand Brais,https://wiki.fablabs.quebec/index.php/Machine-outil_000040,MontrÃ©al - 06,MontrÃ©al,"2900, boulevard Ãdouard-Montpetit",H3T 1J4,45.502917,-73.614847
Machine-outil 000041,Speedy 300,DÃ©coupe laser,Polyfab Normand Brais,https://wiki.fablabs.quebec/index.php/Machine-outil_000041,MontrÃ©al - 06,MontrÃ©al,"2900, boulevard Ãdouard-Montpetit",H3T 1J4,45.502917,-73.614847
Machine-outil 000042,Roland MDX40A,CNC,Polyfab Normand Brais,https://wiki.fablabs.quebec/index.php/Machine-outil_000042,MontrÃ©al - 06,MontrÃ©al,"2900, boulevard Ãdouard-Montpetit",H3T 1J4,45.502917,-73.614847
Machine-outil 000044,Speedy 300,DÃ©coupe laser,Fab Lab de l'Ã©cole Marie-Rivier,https://wiki.fablabs.quebec/index.php/Machine-outil_000044,Centre-du-QuÃ©bec - 17,Drummondville,265 rue St-FÃ©lix,J2C 5M1,45.897122,-72.501722
Machine-outil 000045,DittoPro,Imprimante 3D,Fab Lab de l'Ã©cole Marie-Rivier,https://wiki.fablabs.quebec/index.php/Machine-outil_000045,Centre-du-QuÃ©bec - 17,Drummondville,265 rue St-FÃ©lix,J2C 5M1,45.897122,-72.501722
Machine-outil 000046,DittoPro,Imprimante 3D,Fab Lab de l'Ã©cole Marie-Rivier,https://wiki.fablabs.quebec/index.php/Machine-outil_000046,Centre-du-QuÃ©bec - 17,Drummondville,265 rue St-FÃ©lix,J2C 5M1,45.897122,-72.501722
Machine-outil 000047,DittoPro,Imprimante 3D,Fab Lab de l'Ã©cole Marie-Rivier,https://wiki.fablabs.quebec/index.php/Machine-outil_000047,Centre-du-QuÃ©bec - 17,Drummondville,265 rue St-FÃ©lix,J2C 5M1,45.897122,-72.501722
Machine-outil 000048,Nomad 883 Pro,Micro-fraiseuse,Fab Lab de l'Ã©cole Marie-Rivier,https://wiki.fablabs.quebec/index.php/Machine-outil_000048,Centre-du-QuÃ©bec - 17,Drummondville,265 rue St-FÃ©lix,J2C 5M1,45.897122,-72.501722
Machine-outil 000049,Speedy 300,DÃ©coupe laser,LCC Fab Lab,https://wiki.fablabs.quebec/index.php/Machine-outil_000049,MontrÃ©al - 06,MontrÃ©al,4090 Avenue Royal,H4A 2M5,45.471008,-73.623481
Machine-outil 000050,Speedy 300,DÃ©coupe laser,Ãchofab,https://wiki.fablabs.quebec/index.php/Machine-outil_000050,MontrÃ©al - 06,MontrÃ©al,55 rue de Louvain Ouest,H2N 1A4,45.544575,-73.655436
Machine-outil 000051,Inventables - Carvey,CNC,LCC Fab Lab,https://wiki.fablabs.quebec/index.php/Machine-outil_000051,MontrÃ©al - 06,MontrÃ©al,4090 Avenue Royal,H4A 2M5,45.471008,-73.623481
Machine-outil 000052,Silhouette - Cameo 3,DÃ©coupe vinyle,LCC Fab Lab,https://wiki.fablabs.quebec/index.php/Machine-outil_000052,MontrÃ©al - 06,MontrÃ©al,4090 Avenue Royal,H4A 2M5,45.471008,-73.623481
Machine-outil 000053,Shaper - Origin,CNC,LCC Fab Lab,https://wiki.fablabs.quebec/index.php/Machine-outil_000053,MontrÃ©al - 06,MontrÃ©al,4090 Avenue Royal,H4A 2M5,45.471008,-73.623481
Machine-outil 000054,Creality Ender 3,Imprimante 3D,Fab Lab Brossard,https://wiki.fablabs.quebec/index.php/Machine-outil_000054,MontÃ©rÃ©gie - 16,Brossard,7855 Avenue San Francisco,J4X 2A4,45.4549,-73.468108
Machine-outil 000055,CAMM-1 GS-24,DÃ©coupe vinyle,BennyFab,https://wiki.fablabs.quebec/index.php/Machine-outil_000055,MontrÃ©al - 06,MontrÃ©al,6400 Monkland,H4B 1H3,45.473369,-73.624514
Machine-outil 000056,"Stahl MAXX20 Digital Clam 16""x20""",Presse Ã  chaleur,BennyFab,https://wiki.fablabs.quebec/index.php/Machine-outil_000056,MontrÃ©al - 06,MontrÃ©al,6400 Monkland,H4B 1H3,45.473369,-73.624514
Machine-outil 000057,DittoPro,Imprimante 3D,Fab Lab du Centre dâÃ©ducation des adultes Le Moyne-DâIberville de Longueuil,https://wiki.fablabs.quebec/index.php/Machine-outil_000057,MontÃ©rÃ©gie - 16,Longueuil,560 Le Moyne Ouest,J4H 1X5,45.530119,-73.504406
Machine-outil 000058,DittoPro,Imprimante 3D,Fab Lab du Centre dâÃ©ducation des adultes Le Moyne-DâIberville de Longueuil,https://wiki.fablabs.quebec/index.php/Machine-outil_000058,MontÃ©rÃ©gie - 16,Longueuil,560 Le Moyne Ouest,J4H 1X5,45.530119,-73.504406
Machine-outil 000059,,DÃ©coupe vinyle,Fab Lab de l'Ã©cole Marie-Rivier,https://wiki.fablabs.quebec/index.php/Machine-outil_000059,Centre-du-QuÃ©bec - 17,Drummondville,265 rue St-FÃ©lix,J2C 5M1,45.897122,-72.501722
Machine-outil 000060,Prusa i3 MK3,Imprimante 3D,Ãchofab,https://wiki.fablabs.quebec/index.php/Machine-outil_000060,MontrÃ©al - 06,MontrÃ©al,55 rue de Louvain Ouest,H2N 1A4,45.544575,-73.655436
Machine-outil 000061,Shapeoko xxl,CNC,LCC Fab Lab,https://wiki.fablabs.quebec/index.php/Machine-outil_000061,MontrÃ©al - 06,MontrÃ©al,4090 Avenue Royal,H4A 2M5,45.471008,-73.623481
Machine-outil 000062,Brother LB6810,,Ãchofab,https://wiki.fablabs.quebec/index.php/Machine-outil_000062,MontrÃ©al - 06,MontrÃ©al,55 rue de Louvain Ouest,H2N 1A4,45.544575,-73.655436
Machine-outil 000063,Digital Knight,,Ãchofab,https://wiki.fablabs.quebec/index.php/Machine-outil_000063,MontrÃ©al - 06,MontrÃ©al,55 rue de Louvain Ouest,H2N 1A4,45.544575,-73.655436
Machine-outil 000064,Prusa i3 MK3,Imprimante 3D,Ãchofab,https://wiki.fablabs.quebec/index.php/Machine-outil_000064,MontrÃ©al - 06,MontrÃ©al,55 rue de Louvain Ouest,H2N 1A4,45.544575,-73.655436
Machine-outil 000065,Prusa i3 MK3,Imprimante 3D,Ãchofab,https://wiki.fablabs.quebec/index.php/Machine-outil_000065,MontrÃ©al - 06,MontrÃ©al,55 rue de Louvain Ouest,H2N 1A4,45.544575,-73.655436
Machine-outil 000066,Prusa i3 MK3,Imprimante 3D,Ãchofab,https://wiki.fablabs.quebec/index.php/Machine-outil_000066,MontrÃ©al - 06,MontrÃ©al,55 rue de Louvain Ouest,H2N 1A4,45.544575,-73.655436
Machine-outil 000067,Prusa i3 MK3,Imprimante 3D,Ãchofab,https://wiki.fablabs.quebec/index.php/Machine-outil_000067,MontrÃ©al - 06,MontrÃ©al,55 rue de Louvain Ouest,H2N 1A4,45.544575,-73.655436
Machine-outil 000068,Nomad 883 Pro,Micro-fraiseuse,InterFAB,https://wiki.fablabs.quebec/index.php/Machine-outil_000068,MontrÃ©al - 06,MontrÃ©al,6767 chemin de la CÃ´te-des-Neiges,H3S 2T6,45.499797,-73.630444
Machine-outil 000069,Janome Skyline S9,Brodeuse numÃ©rique,InterFAB,https://wiki.fablabs.quebec/index.php/Machine-outil_000069,MontrÃ©al - 06,MontrÃ©al,6767 chemin de la CÃ´te-des-Neiges,H3S 2T6,45.499797,-73.630444
Machine-outil 000070,"Stahl MAXX20 Digital Clam 16""x20""",Presse Ã  chaleur,InterFAB,https://wiki.fablabs.quebec/index.php/Machine-outil_000070,MontrÃ©al - 06,MontrÃ©al,6767 chemin de la CÃ´te-des-Neiges,H3S 2T6,45.499797,-73.630444
Machine-outil 000071,GBC Ultima35 EZ load,Laminateur,InterFAB,https://wiki.fablabs.quebec/index.php/Machine-outil_000071,MontrÃ©al - 06,MontrÃ©al,6767 chemin de la CÃ´te-des-Neiges,H3S 2T6,45.499797,-73.630444
Machine-outil 000072,Ultimaker 3,Imprimante 3D,InterFAB,https://wiki.fablabs.quebec/index.php/Machine-outil_000072,MontrÃ©al - 06,MontrÃ©al,6767 chemin de la CÃ´te-des-Neiges,H3S 2T6,45.499797,-73.630444
Machine-outil 000073,Button Maker,Presse Ã  macarons,InterFAB,https://wiki.fablabs.quebec/index.php/Machine-outil_000073,MontrÃ©al - 06,MontrÃ©al,6767 chemin de la CÃ´te-des-Neiges,H3S 2T6,45.499797,-73.630444
Machine-outil 000074,Husqvarna Viking Designer Topaz 50,,Fab Lab Fabbulle,https://wiki.fablabs.quebec/index.php/Machine-outil_000074,Bas-Saint-Laurent - 01,RiviÃ¨re-du-Loup,"333, rue Saint-Pierre",G5R 3V3,47.826706,-69.540653
Machine-outil 000075,Speedy 300,DÃ©coupe laser,Fab Lab Fabbulle,https://wiki.fablabs.quebec/index.php/Machine-outil_000075,Bas-Saint-Laurent - 01,RiviÃ¨re-du-Loup,"333, rue Saint-Pierre",G5R 3V3,47.826706,-69.540653
Machine-outil 000076,Mayku Formbox,Thermoformeuse,Fab Lab Fabbulle,https://wiki.fablabs.quebec/index.php/Machine-outil_000076,Bas-Saint-Laurent - 01,RiviÃ¨re-du-Loup,"333, rue Saint-Pierre",G5R 3V3,47.826706,-69.540653
Machine-outil 000077,Ultimaker 2+ Ext,Imprimante 3D,Fab Lab Fabbulle,https://wiki.fablabs.quebec/index.php/Machine-outil_000077,Bas-Saint-Laurent - 01,RiviÃ¨re-du-Loup,"333, rue Saint-Pierre",G5R 3V3,47.826706,-69.540653
Machine-outil 000078,MUVe 3D SLA-DLP,Imprimante 3D,Fab Lab Fabbulle,https://wiki.fablabs.quebec/index.php/Machine-outil_000078,Bas-Saint-Laurent - 01,RiviÃ¨re-du-Loup,"333, rue Saint-Pierre",G5R 3V3,47.826706,-69.540653
Machine-outil 000079,Brother DB2-B715,Machine Ã  coudre,Fab Lab Fabbulle,https://wiki.fablabs.quebec/index.php/Machine-outil_000079,Bas-Saint-Laurent - 01,RiviÃ¨re-du-Loup,"333, rue Saint-Pierre",G5R 3V3,47.826706,-69.540653
Machine-outil 000080,Singer C240,Machine Ã  coudre,Fab Lab Fabbulle,https://wiki.fablabs.quebec/index.php/Machine-outil_000080,Bas-Saint-Laurent - 01,RiviÃ¨re-du-Loup,"333, rue Saint-Pierre",G5R 3V3,47.826706,-69.540653
Machine-outil 000081,Brother MA4-B551,Surjeteuse,Fab Lab Fabbulle,https://wiki.fablabs.quebec/index.php/Machine-outil_000081,Bas-Saint-Laurent - 01,RiviÃ¨re-du-Loup,"333, rue Saint-Pierre",G5R 3V3,47.826706,-69.540653
Machine-outil 000082,Glowforge pro,DÃ©coupe laser,Fablab des CÃ©geps,https://wiki.fablabs.quebec/index.php/Machine-outil_000082,Outaouais - 07,Gatineau (Outaouais),333 boulevard de la CitÃ© des Jeunes,J8Y 6M4,45.460086,-75.767275
Machine-outil 000083,Prusa i3 MK3,Imprimante 3D,Fablab des CÃ©geps,https://wiki.fablabs.quebec/index.php/Machine-outil_000083,Outaouais - 07,Gatineau (Outaouais),333 boulevard de la CitÃ© des Jeunes,J8Y 6M4,45.460086,-75.767275
Machine-outil 000084,Singer Simple 3232,Machine Ã  coudre,Fablab des CÃ©geps,https://wiki.fablabs.quebec/index.php/Machine-outil_000084,Outaouais - 07,Gatineau (Outaouais),333 boulevard de la CitÃ© des Jeunes,J8Y 6M4,45.460086,-75.767275
Machine-outil 000085,Brother NQ1600E,Brodeuse numÃ©rique,Fablab des CÃ©geps,https://wiki.fablabs.quebec/index.php/Machine-outil_000085,Outaouais - 07,Gatineau (Outaouais),333 boulevard de la CitÃ© des Jeunes,J8Y 6M4,45.460086,-75.767275
Machine-outil 000086,CAMM-1 GS-24,DÃ©coupe vinyle,Fablab des CÃ©geps,https://wiki.fablabs.quebec/index.php/Machine-outil_000086,Outaouais - 07,Gatineau (Outaouais),333 boulevard de la CitÃ© des Jeunes,J8Y 6M4,45.460086,-75.767275
Machine-outil 000087,The MAXX Stahls,Presse Ã  chaleur,Fablab des CÃ©geps,https://wiki.fablabs.quebec/index.php/Machine-outil_000087,Outaouais - 07,Gatineau (Outaouais),333 boulevard de la CitÃ© des Jeunes,J8Y 6M4,45.460086,-75.767275
Machine-outil 000088,Ultimaker 2+ Ext,Imprimante 3D,Fab Lab de l'Ã©cole Marie-Rivier,https://wiki.fablabs.quebec/index.php/Machine-outil_000088,Centre-du-QuÃ©bec - 17,Drummondville,265 rue St-FÃ©lix,J2C 5M1,45.897122,-72.501722
Machine-outil 000089,Ultimaker 2+ Ext,Imprimante 3D,Fab Lab de l'Ã©cole Marie-Rivier,https://wiki.fablabs.quebec/index.php/Machine-outil_000089,Centre-du-QuÃ©bec - 17,Drummondville,265 rue St-FÃ©lix,J2C 5M1,45.897122,-72.501722
Machine-outil 000090,,DÃ©coupe vinyle,Fab Lab de l'Ã©cole Marie-Rivier,https://wiki.fablabs.quebec/index.php/Machine-outil_000090,Centre-du-QuÃ©bec - 17,Drummondville,265 rue St-FÃ©lix,J2C 5M1,45.897122,-72.501722
Machine-outil 000091,Mayku Formbox,Thermoformeuse,Fab Lab de l'Ã©cole Marie-Rivier,https://wiki.fablabs.quebec/index.php/Machine-outil_000091,Centre-du-QuÃ©bec - 17,Drummondville,265 rue St-FÃ©lix,J2C 5M1,45.897122,-72.501722
Machine-outil 000092,Singer,Machine Ã  coudre,Fab Lab de l'Ã©cole Marie-Rivier,https://wiki.fablabs.quebec/index.php/Machine-outil_000092,Centre-du-QuÃ©bec - 17,Drummondville,265 rue St-FÃ©lix,J2C 5M1,45.897122,-72.501722
Machine-outil 000093,Singer,Machine Ã  coudre,Fab Lab de l'Ã©cole Marie-Rivier,https://wiki.fablabs.quebec/index.php/Machine-outil_000093,Centre-du-QuÃ©bec - 17,Drummondville,265 rue St-FÃ©lix,J2C 5M1,45.897122,-72.501722
Machine-outil 000094,Singer,Machine Ã  coudre,Fab Lab de l'Ã©cole Marie-Rivier,https://wiki.fablabs.quebec/index.php/Machine-outil_000094,Centre-du-QuÃ©bec - 17,Drummondville,265 rue St-FÃ©lix,J2C 5M1,45.897122,-72.501722
Machine-outil 000097,Epson Stylus C88/+/(c11 C617121),Imprimante Ã  sublimation,Fablab de Montmagny l'Islet,https://wiki.fablabs.quebec/index.php/Machine-outil_000097,ChaudiÃ¨re-Appalache - 12,Montmagny,138 Rue Saint Jean Baptiste,G5V 2K3,46.982633,-70.555917
Machine-outil 000098,Shapeoko xl,CNC,Fab Lab Fabbulle,https://wiki.fablabs.quebec/index.php/Machine-outil_000098,Bas-Saint-Laurent - 01,RiviÃ¨re-du-Loup,"333, rue Saint-Pierre",G5R 3V3,47.826706,-69.540653
Machine-outil 000099,Speedy 300,DÃ©coupe laser,Fab Lab au MusÃ©e de l'ingÃ©niositÃ© J. Armand Bombardier,https://wiki.fablabs.quebec/index.php/Machine-outil_000099,Estrie - 05,Valcourt,1001 avenue J.-A. Bombardier,J0L2E0,45.494617,-72.309642
Machine-outil 000100,Brother 3534DT,Surjeteuse,Fablab des CÃ©geps,https://wiki.fablabs.quebec/index.php/Machine-outil_000100,Outaouais - 07,Gatineau (Outaouais),333 boulevard de la CitÃ© des Jeunes,J8Y 6M4,45.460086,-75.767275
Machine-outil 000101,NextEngine,NumÃ©riseur 3D,Fablab des CÃ©geps,https://wiki.fablabs.quebec/index.php/Machine-outil_000101,Outaouais - 07,Gatineau (Outaouais),333 boulevard de la CitÃ© des Jeunes,J8Y 6M4,45.460086,-75.767275
Machine-outil 000102,DittoPro,Imprimante 3D,Fab Lab au MusÃ©e de l'ingÃ©niositÃ© J. Armand Bombardier,https://wiki.fablabs.quebec/index.php/Machine-outil_000102,Estrie - 05,Valcourt,1001 avenue J.-A. Bombardier,J0L2E0,45.494617,-72.309642
Machine-outil 000103,DittoPro,Imprimante 3D,Fab Lab au MusÃ©e de l'ingÃ©niositÃ© J. Armand Bombardier,https://wiki.fablabs.quebec/index.php/Machine-outil_000103,Estrie - 05,Valcourt,1001 avenue J.-A. Bombardier,J0L2E0,45.494617,-72.309642
Machine-outil 000104,CAMM-1 GS-24,DÃ©coupe vinyle,Fab Lab au MusÃ©e de l'ingÃ©niositÃ© J. Armand Bombardier,https://wiki.fablabs.quebec/index.php/Machine-outil_000104,Estrie - 05,Valcourt,1001 avenue J.-A. Bombardier,J0L2E0,45.494617,-72.309642
Machine-outil 000105,ULIO 3D,Imprimante 3D,Fabrique Ahuntsic,https://wiki.fablabs.quebec/index.php/Machine-outil_000105,MontrÃ©al - 06,MontrÃ©al,"9155, rue Saint-Hubert",H2M 1Y8,45.552078,-73.642742
Machine-outil 000106,Makerbot Replicator +,Imprimante 3D,Fablab des CÃ©geps,https://wiki.fablabs.quebec/index.php/Machine-outil_000106,Outaouais - 07,Gatineau (Outaouais),333 boulevard de la CitÃ© des Jeunes,J8Y 6M4,45.460086,-75.767275
Machine-outil 000107,FormLab 2,Imprimante 3D,Fablab des CÃ©geps,https://wiki.fablabs.quebec/index.php/Machine-outil_000107,Outaouais - 07,Gatineau (Outaouais),333 boulevard de la CitÃ© des Jeunes,J8Y 6M4,45.460086,-75.767275
Machine-outil 000108,Speedy 300,DÃ©coupe laser,Fab Lab CSMB - Ã©cole secondaire DalbÃ©-Viau,https://wiki.fablabs.quebec/index.php/Machine-outil_000108,MontrÃ©al - 06,Lachine,740 Esther Blondin,H8S 4C4,45.442272,-73.680128
Machine-outil 000109,Axiom AutoRoute 4,CNC,Fab Lab CSMB - Ã©cole secondaire DalbÃ©-Viau,https://wiki.fablabs.quebec/index.php/Machine-outil_000109,MontrÃ©al - 06,Lachine,740 Esther Blondin,H8S 4C4,45.442272,-73.680128
Machine-outil 000110,ULIO 3D,Imprimante 3D,Fab Lab CSMB - Ã©cole secondaire DalbÃ©-Viau,https://wiki.fablabs.quebec/index.php/Machine-outil_000110,MontrÃ©al - 06,Lachine,740 Esther Blondin,H8S 4C4,45.442272,-73.680128
Machine-outil 000111,ULIO 3D,Imprimante 3D,Fab Lab CSMB - Ã©cole secondaire DalbÃ©-Viau,https://wiki.fablabs.quebec/index.php/Machine-outil_000111,MontrÃ©al - 06,Lachine,740 Esther Blondin,H8S 4C4,45.442272,-73.680128
Machine-outil 000113,Speedy 300,DÃ©coupe laser,Fab Lab CSMB - Ã©cole secondaire Pierre-Laporte,https://wiki.fablabs.quebec/index.php/Machine-outil_000113,MontrÃ©al - 06,Ville Mont-Royal,1101 Chemin Rockland,H3P 2X8,45.517261,-73.628925
Machine-outil 000114,DittoPro,Imprimante 3D,Fab Lab CSMB - Ã©cole secondaire Pierre-Laporte,https://wiki.fablabs.quebec/index.php/Machine-outil_000114,MontrÃ©al - 06,Ville Mont-Royal,1101 Chemin Rockland,H3P 2X8,45.517261,-73.628925
Machine-outil 000120,Speedy 300,DÃ©coupe laser,Fab Lab CSMB - Ã©cole secondaire Mgr Richard,https://wiki.fablabs.quebec/index.php/Machine-outil_000120,MontrÃ©al - 06,Verdun,3000 Boulevard GaÃ©tan Laberge,H4G 3C1,45.470256,-73.561831
Machine-outil 000121,Makerbot Replicator +,Imprimante 3D,Fablab des CÃ©geps,https://wiki.fablabs.quebec/index.php/Machine-outil_000121,Outaouais - 07,Gatineau (Outaouais),333 boulevard de la CitÃ© des Jeunes,J8Y 6M4,45.460086,-75.767275
Machine-outil 000122,Speedy 300,DÃ©coupe laser,Fab Lab CSMB - Ã©cole secondaire Cavelier-de LaSalle,https://wiki.fablabs.quebec/index.php/Machine-outil_000122,MontrÃ©al - 06,LaSalle,9199 Rue Centrale,H8R 2J9,45.417253,-73.640672
Machine-outil 000123,Speedy 300,DÃ©coupe laser,Fab Lab CSMB - Ã©cole secondaire CollÃ¨ge Saint-Louis,https://wiki.fablabs.quebec/index.php/Machine-outil_000123,MontrÃ©al - 06,Lachine,275 36e Avenue,H8T 2A4,45.43675,-73.696939
Machine-outil 000124,Speedy 100,DÃ©coupe laser,Fab Lab CSMB - Ã©cole secondaire SAS,https://wiki.fablabs.quebec/index.php/Machine-outil_000124,MontrÃ©al - 06,Outremont,500 Boulevard Dollard,H2V 3G2,45.516583,-73.611039
Machine-outil 000125,Speedy 300,DÃ©coupe laser,Fab Lab CSMB - Ã©cole secondaire Saint-Laurent,https://wiki.fablabs.quebec/index.php/Machine-outil_000125,MontrÃ©al - 06,Saint-Laurent,2395 Boulevard Thimens,H4R 1T4,45.506439,-73.703192
Machine-outil 000126,Axiom AutoRoute 4,CNC,Fab Lab CSMB - Ã©cole secondaire Cavelier-de LaSalle,https://wiki.fablabs.quebec/index.php/Machine-outil_000126,MontrÃ©al - 06,LaSalle,9199 Rue Centrale,H8R 2J9,45.417253,-73.640672
Machine-outil 000127,Graphtec ce6000-40,DÃ©coupe vinyle,Fab Lab CSMB - Ã©cole secondaire Cavelier-de LaSalle,https://wiki.fablabs.quebec/index.php/Machine-outil_000127,MontrÃ©al - 06,LaSalle,9199 Rue Centrale,H8R 2J9,45.417253,-73.640672
Machine-outil 000128,DittoPro,Imprimante 3D,Fab Lab CSMB - Ã©cole secondaire Cavelier-de LaSalle,https://wiki.fablabs.quebec/index.php/Machine-outil_000128,MontrÃ©al - 06,LaSalle,9199 Rue Centrale,H8R 2J9,45.417253,-73.640672
Machine-outil 000129,DittoPro,Imprimante 3D,Fab Lab CSMB - Ã©cole secondaire Cavelier-de LaSalle,https://wiki.fablabs.quebec/index.php/Machine-outil_000129,MontrÃ©al - 06,LaSalle,9199 Rue Centrale,H8R 2J9,45.417253,-73.640672
Machine-outil 000130,DittoPro,Imprimante 3D,Fab Lab CSMB - Ã©cole secondaire Cavelier-de LaSalle,https://wiki.fablabs.quebec/index.php/Machine-outil_000130,MontrÃ©al - 06,LaSalle,9199 Rue Centrale,H8R 2J9,45.417253,-73.640672
Machine-outil 000131,DittoPro,Imprimante 3D,Fab Lab CSMB - Ã©cole secondaire Cavelier-de LaSalle,https://wiki.fablabs.quebec/index.php/Machine-outil_000131,MontrÃ©al - 06,LaSalle,9199 Rue Centrale,H8R 2J9,45.417253,-73.640672
Machine-outil 000132,Memory Craft 350e,Brodeuse numÃ©rique,Fab Lab CSMB - Ã©cole secondaire Cavelier-de LaSalle,https://wiki.fablabs.quebec/index.php/Machine-outil_000132,MontrÃ©al - 06,LaSalle,9199 Rue Centrale,H8R 2J9,45.417253,-73.640672
Machine-outil 000133,Roland monoFab SRM-20,CNC,Fab Lab CSMB - Ã©cole secondaire DalbÃ©-Viau,https://wiki.fablabs.quebec/index.php/Machine-outil_000133,MontrÃ©al - 06,Lachine,740 Esther Blondin,H8S 4C4,45.442272,-73.680128
Machine-outil 000134,Ultimaker 2+,Imprimante 3D,Fab Lab CSMB - Ã©cole secondaire DalbÃ©-Viau,https://wiki.fablabs.quebec/index.php/Machine-outil_000134,MontrÃ©al - 06,Lachine,740 Esther Blondin,H8S 4C4,45.442272,-73.680128
Machine-outil 000135,Ultimaker S3,Imprimante 3D,Fab Lab CSMB - Ã©cole secondaire DalbÃ©-Viau,https://wiki.fablabs.quebec/index.php/Machine-outil_000135,MontrÃ©al - 06,Lachine,740 Esther Blondin,H8S 4C4,45.442272,-73.680128
Machine-outil 000136,Memory Craft 350e,Brodeuse numÃ©rique,Fab Lab CSMB - Ã©cole secondaire CollÃ¨ge Saint-Louis,https://wiki.fablabs.quebec/index.php/Machine-outil_000136,MontrÃ©al - 06,Lachine,275 36e Avenue,H8T 2A4,45.43675,-73.696939
Machine-outil 000137,DittoPro,Imprimante 3D,Fab Lab CSMB - Ã©cole secondaire CollÃ¨ge Saint-Louis,https://wiki.fablabs.quebec/index.php/Machine-outil_000137,MontrÃ©al - 06,Lachine,275 36e Avenue,H8T 2A4,45.43675,-73.696939
Machine-outil 000138,DittoPro,Imprimante 3D,Fab Lab CSMB - Ã©cole secondaire CollÃ¨ge Saint-Louis,https://wiki.fablabs.quebec/index.php/Machine-outil_000138,MontrÃ©al - 06,Lachine,275 36e Avenue,H8T 2A4,45.43675,-73.696939
Machine-outil 000139,DittoPro,Imprimante 3D,Fab Lab CSMB - Ã©cole secondaire CollÃ¨ge Saint-Louis,https://wiki.fablabs.quebec/index.php/Machine-outil_000139,MontrÃ©al - 06,Lachine,275 36e Avenue,H8T 2A4,45.43675,-73.696939
Machine-outil 000140,DittoPro,Imprimante 3D,Fab Lab CSMB - Ã©cole secondaire CollÃ¨ge Saint-Louis,https://wiki.fablabs.quebec/index.php/Machine-outil_000140,MontrÃ©al - 06,Lachine,275 36e Avenue,H8T 2A4,45.43675,-73.696939
Machine-outil 000141,DittoPro,Imprimante 3D,Fab Lab CSMB - Ã©cole secondaire CollÃ¨ge Saint-Louis,https://wiki.fablabs.quebec/index.php/Machine-outil_000141,MontrÃ©al - 06,Lachine,275 36e Avenue,H8T 2A4,45.43675,-73.696939
Machine-outil 000142,Graphtec ce6000-40,DÃ©coupe vinyle,Fab Lab CSMB - Ã©cole secondaire CollÃ¨ge Saint-Louis,https://wiki.fablabs.quebec/index.php/Machine-outil_000142,MontrÃ©al - 06,Lachine,275 36e Avenue,H8T 2A4,45.43675,-73.696939
Machine-outil 000143,Ultimaker 2+,Imprimante 3D,Fab Lab CSMB - Ã©cole secondaire CollÃ¨ge Saint-Louis,https://wiki.fablabs.quebec/index.php/Machine-outil_000143,MontrÃ©al - 06,Lachine,275 36e Avenue,H8T 2A4,45.43675,-73.696939
Machine-outil 000144,Axiom AutoRoute 4,CNC,Fab Lab CSMB - Ã©cole secondaire CollÃ¨ge Saint-Louis,https://wiki.fablabs.quebec/index.php/Machine-outil_000144,MontrÃ©al - 06,Lachine,275 36e Avenue,H8T 2A4,45.43675,-73.696939
Machine-outil 000145,Ultimaker 3,Imprimante 3D,Fab Lab CSMB - Ã©cole secondaire Cavelier-de LaSalle,https://wiki.fablabs.quebec/index.php/Machine-outil_000145,MontrÃ©al - 06,LaSalle,9199 Rue Centrale,H8R 2J9,45.417253,-73.640672
Machine-outil 000146,Speedy 300,DÃ©coupe laser,Fab Lab CSMB - Ã©cole secondaire des Sources,https://wiki.fablabs.quebec/index.php/Machine-outil_000146,MontrÃ©al - 06,Dollard-des-Ormeaux,2900 Rue Lake,H9B 2P1,45.490644,-73.812092
Machine-outil 000147,Memory Craft 350e,Brodeuse numÃ©rique,Fab Lab CSMB - Ã©cole secondaire des Sources,https://wiki.fablabs.quebec/index.php/Machine-outil_000147,MontrÃ©al - 06,Dollard-des-Ormeaux,2900 Rue Lake,H9B 2P1,45.490644,-73.812092
Machine-outil 000148,DittoPro,Imprimante 3D,Fab Lab CSMB - Ã©cole secondaire des Sources,https://wiki.fablabs.quebec/index.php/Machine-outil_000148,MontrÃ©al - 06,Dollard-des-Ormeaux,2900 Rue Lake,H9B 2P1,45.490644,-73.812092
Machine-outil 000149,DittoPro,Imprimante 3D,Fab Lab CSMB - Ã©cole secondaire des Sources,https://wiki.fablabs.quebec/index.php/Machine-outil_000149,MontrÃ©al - 06,Dollard-des-Ormeaux,2900 Rue Lake,H9B 2P1,45.490644,-73.812092
Machine-outil 000150,DittoPro,Imprimante 3D,Fab Lab CSMB - Ã©cole secondaire des Sources,https://wiki.fablabs.quebec/index.php/Machine-outil_000150,MontrÃ©al - 06,Dollard-des-Ormeaux,2900 Rue Lake,H9B 2P1,45.490644,-73.812092
Machine-outil 000151,DittoPro,Imprimante 3D,Fab Lab CSMB - Ã©cole secondaire des Sources,https://wiki.fablabs.quebec/index.php/Machine-outil_000151,MontrÃ©al - 06,Dollard-des-Ormeaux,2900 Rue Lake,H9B 2P1,45.490644,-73.812092
Machine-outil 000152,DittoPro,Imprimante 3D,Fab Lab CSMB - Ã©cole secondaire des Sources,https://wiki.fablabs.quebec/index.php/Machine-outil_000152,MontrÃ©al - 06,Dollard-des-Ormeaux,2900 Rue Lake,H9B 2P1,45.490644,-73.812092
Machine-outil 000153,Ultimaker 2+,Imprimante 3D,Fab Lab CSMB - Ã©cole secondaire des Sources,https://wiki.fablabs.quebec/index.php/Machine-outil_000153,MontrÃ©al - 06,Dollard-des-Ormeaux,2900 Rue Lake,H9B 2P1,45.490644,-73.812092
Machine-outil 000154,Graphtec ce6000-40,DÃ©coupe vinyle,Fab Lab CSMB - Ã©cole secondaire des Sources,https://wiki.fablabs.quebec/index.php/Machine-outil_000154,MontrÃ©al - 06,Dollard-des-Ormeaux,2900 Rue Lake,H9B 2P1,45.490644,-73.812092
Machine-outil 000155,DittoPro,Imprimante 3D,Fab Lab CSMB - Ã©cole secondaire DalbÃ©-Viau,https://wiki.fablabs.quebec/index.php/Machine-outil_000155,MontrÃ©al - 06,Lachine,740 Esther Blondin,H8S 4C4,45.442272,-73.680128
Machine-outil 000156,DittoPro,Imprimante 3D,Fab Lab CSMB - Ã©cole secondaire DalbÃ©-Viau,https://wiki.fablabs.quebec/index.php/Machine-outil_000156,MontrÃ©al - 06,Lachine,740 Esther Blondin,H8S 4C4,45.442272,-73.680128
Machine-outil 000157,DittoPro,Imprimante 3D,Fab Lab CSMB - Ã©cole secondaire DalbÃ©-Viau,https://wiki.fablabs.quebec/index.php/Machine-outil_000157,MontrÃ©al - 06,Lachine,740 Esther Blondin,H8S 4C4,45.442272,-73.680128
Machine-outil 000158,DittoPro,Imprimante 3D,Fab Lab CSMB - Ã©cole secondaire DalbÃ©-Viau,https://wiki.fablabs.quebec/index.php/Machine-outil_000158,MontrÃ©al - 06,Lachine,740 Esther Blondin,H8S 4C4,45.442272,-73.680128
Machine-outil 000159,DittoPro,Imprimante 3D,Fab Lab CSMB - Ã©cole secondaire DalbÃ©-Viau,https://wiki.fablabs.quebec/index.php/Machine-outil_000159,MontrÃ©al - 06,Lachine,740 Esther Blondin,H8S 4C4,45.442272,-73.680128
Machine-outil 000161,Glowforge pro,DÃ©coupe laser,FabLab Abitibi-Ouest,https://wiki.fablabs.quebec/index.php/Machine-outil_000161,Abitibi-TÃ©miscamingue - 08,La Sarre,295 rue Principale,J9Z 1Z1,48.804614,-79.205306
Machine-outil 000162,Ultimaker 3,Imprimante 3D,FabricathÃ¨que de Pierrefonds,https://wiki.fablabs.quebec/index.php/Machine-outil_000162,MontrÃ©al - 06,Pierrefonds,"13555, boulevard de Pierrefonds",H9A 1A6,45.496028,-73.847519
Machine-outil 000163,DittoPro,Imprimante 3D,FabricathÃ¨que de Pierrefonds,https://wiki.fablabs.quebec/index.php/Machine-outil_000163,MontrÃ©al - 06,Pierrefonds,"13555, boulevard de Pierrefonds",H9A 1A6,45.496028,-73.847519
Machine-outil 000164,Speedy 100,DÃ©coupe laser,FabricathÃ¨que de Pierrefonds,https://wiki.fablabs.quebec/index.php/Machine-outil_000164,MontrÃ©al - 06,Pierrefonds,"13555, boulevard de Pierrefonds",H9A 1A6,45.496028,-73.847519
Machine-outil 000165,CAMM-1 GS-24,DÃ©coupe vinyle,FabricathÃ¨que de Pierrefonds,https://wiki.fablabs.quebec/index.php/Machine-outil_000165,MontrÃ©al - 06,Pierrefonds,"13555, boulevard de Pierrefonds",H9A 1A6,45.496028,-73.847519
Machine-outil 000166,Digital Knight,,FabricathÃ¨que de Pierrefonds,https://wiki.fablabs.quebec/index.php/Machine-outil_000166,MontrÃ©al - 06,Pierrefonds,"13555, boulevard de Pierrefonds",H9A 1A6,45.496028,-73.847519
Machine-outil 000167,DK16,Presse Ã  chaleur,FabricathÃ¨que de Pierrefonds,https://wiki.fablabs.quebec/index.php/Machine-outil_000167,MontrÃ©al - 06,Pierrefonds,"13555, boulevard de Pierrefonds",H9A 1A6,45.496028,-73.847519
Machine-outil 000168,Ultimaker S3,Imprimante 3D,Fab Lab Brossard,https://wiki.fablabs.quebec/index.php/Machine-outil_000168,MontÃ©rÃ©gie - 16,Brossard,7855 Avenue San Francisco,J4X 2A4,45.4549,-73.468108
Machine-outil 000169,Superland3,Presse Ã  chaleur,FabLAB Matane,https://wiki.fablabs.quebec/index.php/Machine-outil_000169,Bas-Saint-Laurent - 01,Matane,"616, ave. Saint-RÃ©dempteur",G4W 1L1,48.840789,-67.497267
Machine-outil 000170,420900,Presse Ã  macarons,FabLAB Matane,https://wiki.fablabs.quebec/index.php/Machine-outil_000170,Bas-Saint-Laurent - 01,Matane,"616, ave. Saint-RÃ©dempteur",G4W 1L1,48.840789,-67.497267
Machine-outil 000171,DittoPro,Imprimante 3D,Fabrique Ahuntsic,https://wiki.fablabs.quebec/index.php/Machine-outil_000171,MontrÃ©al - 06,MontrÃ©al,"9155, rue Saint-Hubert",H2M 1Y8,45.552078,-73.642742
Machine-outil 000172,Prusa i3 MK3,Imprimante 3D,FabLAB Matane,https://wiki.fablabs.quebec/index.php/Machine-outil_000172,Bas-Saint-Laurent - 01,Matane,"616, ave. Saint-RÃ©dempteur",G4W 1L1,48.840789,-67.497267
Machine-outil 000173,Prusa i3 MK3,Imprimante 3D,FabLAB Matane,https://wiki.fablabs.quebec/index.php/Machine-outil_000173,Bas-Saint-Laurent - 01,Matane,"616, ave. Saint-RÃ©dempteur",G4W 1L1,48.840789,-67.497267
Machine-outil 000174,Prusa i3 MK3,Imprimante 3D,Fabrique Ahuntsic,https://wiki.fablabs.quebec/index.php/Machine-outil_000174,MontrÃ©al - 06,MontrÃ©al,"9155, rue Saint-Hubert",H2M 1Y8,45.552078,-73.642742
Machine-outil 000175,Prusa i3 MK3,Imprimante 3D,Fabrique Ahuntsic,https://wiki.fablabs.quebec/index.php/Machine-outil_000175,MontrÃ©al - 06,MontrÃ©al,"9155, rue Saint-Hubert",H2M 1Y8,45.552078,-73.642742
Machine-outil 000176,Prusa i3 MK3,Imprimante 3D,Fabrique Ahuntsic,https://wiki.fablabs.quebec/index.php/Machine-outil_000176,MontrÃ©al - 06,MontrÃ©al,"9155, rue Saint-Hubert",H2M 1Y8,45.552078,-73.642742
Machine-outil 000177,SL1,Imprimante 3D,FabLAB Matane,https://wiki.fablabs.quebec/index.php/Machine-outil_000177,Bas-Saint-Laurent - 01,Matane,"616, ave. Saint-RÃ©dempteur",G4W 1L1,48.840789,-67.497267
Machine-outil 000178,BI V2.5,Imprimante 3D,EspaceLab,https://wiki.fablabs.quebec/index.php/Machine-outil_000178,Capitale-Nationale - 03,QuÃ©bec (Ste-Foy),"3643 avenue des Compagnons,",G1X 3Z6,46.769864,-71.318333
Machine-outil 000179,Printrbot,Imprimante 3D,EspaceLab,https://wiki.fablabs.quebec/index.php/Machine-outil_000179,Capitale-Nationale - 03,QuÃ©bec (Ste-Foy),"3643 avenue des Compagnons,",G1X 3Z6,46.769864,-71.318333
Machine-outil 000180,Silhouette - Cameo 2,DÃ©coupe vinyle,EspaceLab,https://wiki.fablabs.quebec/index.php/Machine-outil_000180,Capitale-Nationale - 03,QuÃ©bec (Ste-Foy),"3643 avenue des Compagnons,",G1X 3Z6,46.769864,-71.318333
Machine-outil 000181,Singer Stylist 513,Machine Ã  coudre,EspaceLab,https://wiki.fablabs.quebec/index.php/Machine-outil_000181,Capitale-Nationale - 03,QuÃ©bec (Ste-Foy),"3643 avenue des Compagnons,",G1X 3Z6,46.769864,-71.318333
Machine-outil 000182,X-Carve,CNC,EspaceLab,https://wiki.fablabs.quebec/index.php/Machine-outil_000182,Capitale-Nationale - 03,QuÃ©bec (Ste-Foy),"3643 avenue des Compagnons,",G1X 3Z6,46.769864,-71.318333
Machine-outil 000183,Ultimaker 3,Imprimante 3D,FabLab Onaki,https://wiki.fablabs.quebec/index.php/Machine-outil_000183,Outaouais - 07,Gatineau,85 B Promenade du Portage.,J8Y 3X1,45.425283,-75.718864
Machine-outil 000184,Ultimaker 3,Imprimante 3D,FabLab Onaki,https://wiki.fablabs.quebec/index.php/Machine-outil_000184,Outaouais - 07,Gatineau,85 B Promenade du Portage.,J8Y 3X1,45.425283,-75.718864
Machine-outil 000185,Ultimaker 3,Imprimante 3D,FabLab Onaki,https://wiki.fablabs.quebec/index.php/Machine-outil_000185,Outaouais - 07,Gatineau,85 B Promenade du Portage.,J8Y 3X1,45.425283,-75.718864
Machine-outil 000186,Creality CR-10 S5,Imprimante 3D,FabLab Onaki,https://wiki.fablabs.quebec/index.php/Machine-outil_000186,Outaouais - 07,Gatineau,85 B Promenade du Portage.,J8Y 3X1,45.425283,-75.718864
Machine-outil 000187,Creality CR-10 S5,Imprimante 3D,FabLab Onaki,https://wiki.fablabs.quebec/index.php/Machine-outil_000187,Outaouais - 07,Gatineau,85 B Promenade du Portage.,J8Y 3X1,45.425283,-75.718864
Machine-outil 000188,Formlabs,Imprimante 3D,FabLab Onaki,https://wiki.fablabs.quebec/index.php/Machine-outil_000188,Outaouais - 07,Gatineau,85 B Promenade du Portage.,J8Y 3X1,45.425283,-75.718864
Machine-outil 000189,Silhouette - Cameo 3,DÃ©coupe vinyle,FabLab Onaki,https://wiki.fablabs.quebec/index.php/Machine-outil_000189,Outaouais - 07,Gatineau,85 B Promenade du Portage.,J8Y 3X1,45.425283,-75.718864
Machine-outil 000190,CanCam B1-44M,CNC,FabLab Onaki,https://wiki.fablabs.quebec/index.php/Machine-outil_000190,Outaouais - 07,Gatineau,85 B Promenade du Portage.,J8Y 3X1,45.425283,-75.718864
Machine-outil 000191,CanCam D23-LT,CNC,FabLab Onaki,https://wiki.fablabs.quebec/index.php/Machine-outil_000191,Outaouais - 07,Gatineau,85 B Promenade du Portage.,J8Y 3X1,45.425283,-75.718864
Machine-outil 000192,Speedy 300,DÃ©coupe laser,FabLab Onaki,https://wiki.fablabs.quebec/index.php/Machine-outil_000192,Outaouais - 07,Gatineau,85 B Promenade du Portage.,J8Y 3X1,45.425283,-75.718864
Machine-outil 000193,Creator Pro,Imprimante 3D,District 3 (Concordia University),https://wiki.fablabs.quebec/index.php/Machine-outil_000193,MontrÃ©al - 06,MontrÃ©al,1250 rue Guy,H3H 2L3,45.494683,-73.577658
Machine-outil 000194,Omio CNC,CNC,District 3 (Concordia University),https://wiki.fablabs.quebec/index.php/Machine-outil_000194,MontrÃ©al - 06,MontrÃ©al,1250 rue Guy,H3H 2L3,45.494683,-73.577658
Machine-outil 000195,SpÃ©cifier,DÃ©coupe laser,District 3 (Concordia University),https://wiki.fablabs.quebec/index.php/Machine-outil_000195,MontrÃ©al - 06,MontrÃ©al,1250 rue Guy,H3H 2L3,45.494683,-73.577658
Machine-outil 000196,Shopbot Buddy,CNC,Fab Lab au MusÃ©e de l'ingÃ©niositÃ© J. Armand Bombardier,https://wiki.fablabs.quebec/index.php/Machine-outil_000196,Estrie - 05,Valcourt,1001 avenue J.-A. Bombardier,J0L2E0,45.494617,-72.309642
Machine-outil 000197,Ultimaker 2,Imprimante 3D,Fab Lab au MusÃ©e de l'ingÃ©niositÃ© J. Armand Bombardier,https://wiki.fablabs.quebec/index.php/Machine-outil_000197,Estrie - 05,Valcourt,1001 avenue J.-A. Bombardier,J0L2E0,45.494617,-72.309642
Machine-outil 000198,Walking Foot Omega,Machine Ã  coudre,Fab Lab au MusÃ©e de l'ingÃ©niositÃ© J. Armand Bombardier,https://wiki.fablabs.quebec/index.php/Machine-outil_000198,Estrie - 05,Valcourt,1001 avenue J.-A. Bombardier,J0L2E0,45.494617,-72.309642
Machine-outil 000199,Speedy 100,DÃ©coupe laser,Fab Lab du PEC,https://wiki.fablabs.quebec/index.php/Machine-outil_000199,MontrÃ©al - 06,MontrÃ©al,1691 boulevard Pie-IX,H1V 2C3,45.566875,-73.591433
Machine-outil 000200,DittoPro,Imprimante 3D,Fab Lab du PEC,https://wiki.fablabs.quebec/index.php/Machine-outil_000200,MontrÃ©al - 06,MontrÃ©al,1691 boulevard Pie-IX,H1V 2C3,45.566875,-73.591433
Machine-outil 000201,Form 1+,Imprimante 3D,Fab Lab du PEC,https://wiki.fablabs.quebec/index.php/Machine-outil_000201,MontrÃ©al - 06,MontrÃ©al,1691 boulevard Pie-IX,H1V 2C3,45.566875,-73.591433
Machine-outil 000202,Roland MDX-40A,Micro-fraiseuse,Fab Lab du PEC,https://wiki.fablabs.quebec/index.php/Machine-outil_000202,MontrÃ©al - 06,MontrÃ©al,1691 boulevard Pie-IX,H1V 2C3,45.566875,-73.591433
Machine-outil 000203,CAMM-1 GS-24,DÃ©coupe vinyle,Fab Lab du PEC,https://wiki.fablabs.quebec/index.php/Machine-outil_000203,MontrÃ©al - 06,MontrÃ©al,1691 boulevard Pie-IX,H1V 2C3,45.566875,-73.591433
Machine-outil 000204,Janome Memory Craft 350E,Brodeuse numÃ©rique,Fab Lab du PEC,https://wiki.fablabs.quebec/index.php/Machine-outil_000204,MontrÃ©al - 06,MontrÃ©al,1691 boulevard Pie-IX,H1V 2C3,45.566875,-73.591433
Machine-outil 000205,KNK Maxx Air,DÃ©coupe vinyle,LCC Fab Lab,https://wiki.fablabs.quebec/index.php/Machine-outil_000205,MontrÃ©al - 06,MontrÃ©al,4090 Avenue Royal,H4A 2M5,45.471008,-73.623481
Machine-outil 000206,Speedy 300,DÃ©coupe laser,L'ArchiTech - Fablab du CollÃ¨ge de MontrÃ©al,https://wiki.fablabs.quebec/index.php/Machine-outil_000206,MontrÃ©al - 06,MontrÃ©al,1931 rue Sherbrooke Ouest,H3H 1E3,45.493694,-73.584531
Machine-outil 000207,DittoPro,Imprimante 3D,L'ArchiTech - Fablab du CollÃ¨ge de MontrÃ©al,https://wiki.fablabs.quebec/index.php/Machine-outil_000207,MontrÃ©al - 06,MontrÃ©al,1931 rue Sherbrooke Ouest,H3H 1E3,45.493694,-73.584531
Machine-outil 000208,DittoPro,Imprimante 3D,L'ArchiTech - Fablab du CollÃ¨ge de MontrÃ©al,https://wiki.fablabs.quebec/index.php/Machine-outil_000208,MontrÃ©al - 06,MontrÃ©al,1931 rue Sherbrooke Ouest,H3H 1E3,45.493694,-73.584531
Machine-outil 000209,DittoPro,Imprimante 3D,L'ArchiTech - Fablab du CollÃ¨ge de MontrÃ©al,https://wiki.fablabs.quebec/index.php/Machine-outil_000209,MontrÃ©al - 06,MontrÃ©al,1931 rue Sherbrooke Ouest,H3H 1E3,45.493694,-73.584531
Machine-outil 000210,GCC Expert II,DÃ©coupe vinyle,L'ArchiTech - Fablab du CollÃ¨ge de MontrÃ©al,https://wiki.fablabs.quebec/index.php/Machine-outil_000210,MontrÃ©al - 06,MontrÃ©al,1931 rue Sherbrooke Ouest,H3H 1E3,45.493694,-73.584531
Machine-outil 000211,Sindoh - 3DWox 1,Imprimante 3D,L'ArchiTech - Fablab du CollÃ¨ge de MontrÃ©al,https://wiki.fablabs.quebec/index.php/Machine-outil_000211,MontrÃ©al - 06,MontrÃ©al,1931 rue Sherbrooke Ouest,H3H 1E3,45.493694,-73.584531
Machine-outil 000212,Wanhao Duplicator i3,Imprimante 3D,Polyfab Normand Brais,https://wiki.fablabs.quebec/index.php/Machine-outil_000212,MontrÃ©al - 06,MontrÃ©al,"2900, boulevard Ãdouard-Montpetit",H3T 1J4,45.502917,-73.614847
Machine-outil 000213,Flashforge Creator Pro,Imprimante 3D,Polyfab Normand Brais,https://wiki.fablabs.quebec/index.php/Machine-outil_000213,MontrÃ©al - 06,MontrÃ©al,"2900, boulevard Ãdouard-Montpetit",H3T 1J4,45.502917,-73.614847
Machine-outil 000214,Tormach PCNC 1100,Micro-fraiseuse,Polyfab Normand Brais,https://wiki.fablabs.quebec/index.php/Machine-outil_000214,MontrÃ©al - 06,MontrÃ©al,"2900, boulevard Ãdouard-Montpetit",H3T 1J4,45.502917,-73.614847
Machine-outil 000215,Tormach 15L Slant-PRO,Tour CNC,Polyfab Normand Brais,https://wiki.fablabs.quebec/index.php/Machine-outil_000215,MontrÃ©al - 06,MontrÃ©al,"2900, boulevard Ãdouard-Montpetit",H3T 1J4,45.502917,-73.614847
Machine-outil 000217,460Z,Imprimante 3D,FabLab EAUL (UniversitÃ© Laval),https://wiki.fablabs.quebec/index.php/Machine-outil_000217,Capitale-Nationale - 03,QuÃ©bec,"1, cÃ´te de la Fabrique",G1R 3V6,46.813881,-71.206953
Machine-outil 000218,Ultimaker 2,Imprimante 3D,FabLab EAUL (UniversitÃ© Laval),https://wiki.fablabs.quebec/index.php/Machine-outil_000218,Capitale-Nationale - 03,QuÃ©bec,"1, cÃ´te de la Fabrique",G1R 3V6,46.813881,-71.206953
Machine-outil 000219,Speedy 300,DÃ©coupe laser,FabLab EAUL (UniversitÃ© Laval),https://wiki.fablabs.quebec/index.php/Machine-outil_000219,Capitale-Nationale - 03,QuÃ©bec,"1, cÃ´te de la Fabrique",G1R 3V6,46.813881,-71.206953
Machine-outil 000220,K2CNC,CNC,FabLab EAUL (UniversitÃ© Laval),https://wiki.fablabs.quebec/index.php/Machine-outil_000220,Capitale-Nationale - 03,QuÃ©bec,"1, cÃ´te de la Fabrique",G1R 3V6,46.813881,-71.206953
Machine-outil 000221,Janome HD5000,Machine Ã  coudre,Fablab de Montmagny l'Islet,https://wiki.fablabs.quebec/index.php/Machine-outil_000221,ChaudiÃ¨re-Appalache - 12,Montmagny,138 Rue Saint Jean Baptiste,G5V 2K3,46.982633,-70.555917
Machine-outil 000222,Makerbot Replicator +,Imprimante 3D,Fablab de Montmagny l'Islet,https://wiki.fablabs.quebec/index.php/Machine-outil_000222,ChaudiÃ¨re-Appalache - 12,Montmagny,138 Rue Saint Jean Baptiste,G5V 2K3,46.982633,-70.555917
Machine-outil 000223,DittoPro,Imprimante 3D,Fab Lab CSMB - Ã©cole secondaire Pierre-Laporte,https://wiki.fablabs.quebec/index.php/Machine-outil_000223,MontrÃ©al - 06,Ville Mont-Royal,1101 Chemin Rockland,H3P 2X8,45.517261,-73.628925
Machine-outil 000224,DittoPro,Imprimante 3D,Fab Lab CSMB - Ã©cole secondaire Pierre-Laporte,https://wiki.fablabs.quebec/index.php/Machine-outil_000224,MontrÃ©al - 06,Ville Mont-Royal,1101 Chemin Rockland,H3P 2X8,45.517261,-73.628925
Machine-outil 000225,DittoPro,Imprimante 3D,Fab Lab CSMB - Ã©cole secondaire Pierre-Laporte,https://wiki.fablabs.quebec/index.php/Machine-outil_000225,MontrÃ©al - 06,Ville Mont-Royal,1101 Chemin Rockland,H3P 2X8,45.517261,-73.628925
Machine-outil 000226,Graphtec ce6000-40,DÃ©coupe vinyle,Fab Lab CSMB - Ã©cole secondaire Pierre-Laporte,https://wiki.fablabs.quebec/index.php/Machine-outil_000226,MontrÃ©al - 06,Ville Mont-Royal,1101 Chemin Rockland,H3P 2X8,45.517261,-73.628925
Machine-outil 000227,Memory Craft 350e,Brodeuse numÃ©rique,Fab Lab CSMB - Ã©cole secondaire Mgr Richard,https://wiki.fablabs.quebec/index.php/Machine-outil_000227,MontrÃ©al - 06,Verdun,3000 Boulevard GaÃ©tan Laberge,H4G 3C1,45.470256,-73.561831
Machine-outil 000228,Graphtec ce6000-40,DÃ©coupe vinyle,Fab Lab CSMB - Ã©cole secondaire Mgr Richard,https://wiki.fablabs.quebec/index.php/Machine-outil_000228,MontrÃ©al - 06,Verdun,3000 Boulevard GaÃ©tan Laberge,H4G 3C1,45.470256,-73.561831
Machine-outil 000229,Axiom AutoRoute 4,CNC,Fab Lab CSMB - Ã©cole secondaire Mgr Richard,https://wiki.fablabs.quebec/index.php/Machine-outil_000229,MontrÃ©al - 06,Verdun,3000 Boulevard GaÃ©tan Laberge,H4G 3C1,45.470256,-73.561831
Machine-outil 000230,Sindoh - 3DWox 1,Imprimante 3D,L'ArchiTech - Fablab du CollÃ¨ge de MontrÃ©al,https://wiki.fablabs.quebec/index.php/Machine-outil_000230,MontrÃ©al - 06,MontrÃ©al,1931 rue Sherbrooke Ouest,H3H 1E3,45.493694,-73.584531
Machine-outil 000231,DittoPro,Imprimante 3D,Fab Lab CSMB - Ã©cole secondaire Mgr Richard,https://wiki.fablabs.quebec/index.php/Machine-outil_000231,MontrÃ©al - 06,Verdun,3000 Boulevard GaÃ©tan Laberge,H4G 3C1,45.470256,-73.561831
Machine-outil 000232,Makerbot Replicator +,Imprimante 3D,Studio de crÃ©ation (UniversitÃ© de Sherbrooke),https://wiki.fablabs.quebec/index.php/Machine-outil_000232,Estrie - 05,Sherbrooke,"2500, boul. de l'UniversitÃ©",J1k 2R1,45.403272,-71.889039
Machine-outil 000233,Universal VLS 6.60,DÃ©coupe laser,Studio de crÃ©ation (UniversitÃ© de Sherbrooke),https://wiki.fablabs.quebec/index.php/Machine-outil_000233,Estrie - 05,Sherbrooke,"2500, boul. de l'UniversitÃ©",J1k 2R1,45.403272,-71.889039
Machine-outil 000234,Markforged Ony Pro,Imprimante 3D,Studio de crÃ©ation (UniversitÃ© de Sherbrooke),https://wiki.fablabs.quebec/index.php/Machine-outil_000234,Estrie - 05,Sherbrooke,"2500, boul. de l'UniversitÃ©",J1k 2R1,45.403272,-71.889039
Machine-outil 000235,Ultimaker 3,Imprimante 3D,Studio de crÃ©ation (UniversitÃ© de Sherbrooke),https://wiki.fablabs.quebec/index.php/Machine-outil_000235,Estrie - 05,Sherbrooke,"2500, boul. de l'UniversitÃ©",J1k 2R1,45.403272,-71.889039
Machine-outil 000236,CAMM-1 GS-24,DÃ©coupe vinyle,Studio de crÃ©ation (UniversitÃ© de Sherbrooke),https://wiki.fablabs.quebec/index.php/Machine-outil_000236,Estrie - 05,Sherbrooke,"2500, boul. de l'UniversitÃ©",J1k 2R1,45.403272,-71.889039
Machine-outil 000237,Singer 4411,Machine Ã  coudre,Studio de crÃ©ation (UniversitÃ© de Sherbrooke),https://wiki.fablabs.quebec/index.php/Machine-outil_000237,Estrie - 05,Sherbrooke,"2500, boul. de l'UniversitÃ©",J1k 2R1,45.403272,-71.889039
Machine-outil 000238,,Presse Ã  chaleur,Studio de crÃ©ation (UniversitÃ© de Sherbrooke),https://wiki.fablabs.quebec/index.php/Machine-outil_000238,Estrie - 05,Sherbrooke,"2500, boul. de l'UniversitÃ©",J1k 2R1,45.403272,-71.889039
Machine-outil 000239,Haas TM-2P,CNC,Studio de crÃ©ation (UniversitÃ© de Sherbrooke),https://wiki.fablabs.quebec/index.php/Machine-outil_000239,Estrie - 05,Sherbrooke,"2500, boul. de l'UniversitÃ©",J1k 2R1,45.403272,-71.889039
Machine-outil 000240,Hypermill K-30VS,,Studio de crÃ©ation (UniversitÃ© de Sherbrooke),https://wiki.fablabs.quebec/index.php/Machine-outil_000240,Estrie - 05,Sherbrooke,"2500, boul. de l'UniversitÃ©",J1k 2R1,45.403272,-71.889039
Machine-outil 000241,Baoji BJ-1630A,Tour CNC,Studio de crÃ©ation (UniversitÃ© de Sherbrooke),https://wiki.fablabs.quebec/index.php/Machine-outil_000241,Estrie - 05,Sherbrooke,"2500, boul. de l'UniversitÃ©",J1k 2R1,45.403272,-71.889039
Machine-outil 000242,Xena 1740-F,Tour CNC,Studio de crÃ©ation (UniversitÃ© de Sherbrooke),https://wiki.fablabs.quebec/index.php/Machine-outil_000242,Estrie - 05,Sherbrooke,"2500, boul. de l'UniversitÃ©",J1k 2R1,45.403272,-71.889039
Machine-outil 000243,Inventables - Carvey,CNC,L'ArchiTech - Fablab du CollÃ¨ge de MontrÃ©al,https://wiki.fablabs.quebec/index.php/Machine-outil_000243,MontrÃ©al - 06,MontrÃ©al,1931 rue Sherbrooke Ouest,H3H 1E3,45.493694,-73.584531
Machine-outil 000244,CAMM-1 GS-24,DÃ©coupe vinyle,FabLAB Matane,https://wiki.fablabs.quebec/index.php/Machine-outil_000244,Bas-Saint-Laurent - 01,Matane,"616, ave. Saint-RÃ©dempteur",G4W 1L1,48.840789,-67.497267
Machine-outil 000245,Speedy 300,DÃ©coupe laser,FabLAB Matane,https://wiki.fablabs.quebec/index.php/Machine-outil_000245,Bas-Saint-Laurent - 01,Matane,"616, ave. Saint-RÃ©dempteur",G4W 1L1,48.840789,-67.497267
Machine-outil 000246,Brother Innov-is XJ1 Stellaire,Brodeuse numÃ©rique,FabLAB Matane,https://wiki.fablabs.quebec/index.php/Machine-outil_000246,Bas-Saint-Laurent - 01,Matane,"616, ave. Saint-RÃ©dempteur",G4W 1L1,48.840789,-67.497267
Machine-outil 000247,Speedy 100,DÃ©coupe laser,InterFAB,https://wiki.fablabs.quebec/index.php/Machine-outil_000247,MontrÃ©al - 06,MontrÃ©al,6767 chemin de la CÃ´te-des-Neiges,H3S 2T6,45.499797,-73.630444
Machine-outil 000248,Form 3,Imprimante laser 3D,InterFAB,https://wiki.fablabs.quebec/index.php/Machine-outil_000248,MontrÃ©al - 06,MontrÃ©al,6767 chemin de la CÃ´te-des-Neiges,H3S 2T6,45.499797,-73.630444
Machine-outil 000249,Brother entrepreneur 10 aiguilles PR1055X,Brodeuse numÃ©rique,Ãchofab,https://wiki.fablabs.quebec/index.php/Machine-outil_000249,MontrÃ©al - 06,MontrÃ©al,55 rue de Louvain Ouest,H2N 1A4,45.544575,-73.655436
Machine-outil 000250,3D Potterbot Super 9,Imprimante 3D cÃ©ramique,Ãchofab,https://wiki.fablabs.quebec/index.php/Machine-outil_000250,MontrÃ©al - 06,MontrÃ©al,55 rue de Louvain Ouest,H2N 1A4,45.544575,-73.655436
Machine-outil 000251,Brother KH970 avec cÃ´teleur KR850,Machine Ã  tricoter,Ãchofab,https://wiki.fablabs.quebec/index.php/Machine-outil_000251,MontrÃ©al - 06,MontrÃ©al,55 rue de Louvain Ouest,H2N 1A4,45.544575,-73.655436
Machine-outil 000252,Brother KH860 Ã  cartes perforÃ©es avec cÃ´teleur KR850,Machine Ã  tricoter,Ãchofab,https://wiki.fablabs.quebec/index.php/Machine-outil_000252,MontrÃ©al - 06,MontrÃ©al,55 rue de Louvain Ouest,H2N 1A4,45.544575,-73.655436
Machine-outil 000253,Foodini,Imprimante 3D,Ãchofab,https://wiki.fablabs.quebec/index.php/Machine-outil_000253,MontrÃ©al - 06,MontrÃ©al,55 rue de Louvain Ouest,H2N 1A4,45.544575,-73.655436
Machine-outil 000254,Roland MDX15,Micro-fraiseuse,Ãchofab,https://wiki.fablabs.quebec/index.php/Machine-outil_000254,MontrÃ©al - 06,MontrÃ©al,55 rue de Louvain Ouest,H2N 1A4,45.544575,-73.655436
Machine-outil 000255,Brother KH270 jauge volumineuse avec cÃ´teleur KR850,Machine Ã  tricoter,Ãchofab,https://wiki.fablabs.quebec/index.php/Machine-outil_000255,MontrÃ©al - 06,MontrÃ©al,55 rue de Louvain Ouest,H2N 1A4,45.544575,-73.655436
Machine-outil 000256,Centroform EZFORM SV 1217-110V,Thermoformeuse,Ãchofab,https://wiki.fablabs.quebec/index.php/Machine-outil_000256,MontrÃ©al - 06,MontrÃ©al,55 rue de Louvain Ouest,H2N 1A4,45.544575,-73.655436
Machine-outil 000257,Digital Knight 14Ã16,Presse Ã  chaleur,Ãchofab,https://wiki.fablabs.quebec/index.php/Machine-outil_000257,MontrÃ©al - 06,MontrÃ©al,55 rue de Louvain Ouest,H2N 1A4,45.544575,-73.655436
Machine-outil 000258,Cricut Maker,DÃ©coupe vinyle,Ãchofab,https://wiki.fablabs.quebec/index.php/Machine-outil_000258,MontrÃ©al - 06,MontrÃ©al,55 rue de Louvain Ouest,H2N 1A4,45.544575,-73.655436
Machine-outil 000259,Sense2 3D,NumÃ©riseur 3D,Ãchofab,https://wiki.fablabs.quebec/index.php/Machine-outil_000259,MontrÃ©al - 06,MontrÃ©al,55 rue de Louvain Ouest,H2N 1A4,45.544575,-73.655436
Machine-outil 000260,Prusa I3 MK2,Imprimante 3D,Ãchofab,https://wiki.fablabs.quebec/index.php/Machine-outil_000260,MontrÃ©al - 06,MontrÃ©al,55 rue de Louvain Ouest,H2N 1A4,45.544575,-73.655436
Machine-outil 000261,Matter and Form 3D Scanner V2,NumÃ©riseur 3D,Fab Lab au MusÃ©e de l'ingÃ©niositÃ© J. Armand Bombardier,https://wiki.fablabs.quebec/index.php/Machine-outil_000261,Estrie - 05,Valcourt,1001 avenue J.-A. Bombardier,J0L2E0,45.494617,-72.309642
Machine-outil 000262,Occipital Structure Sensor Mark ii,NumÃ©riseur 3D,Fab Lab Brossard,https://wiki.fablabs.quebec/index.php/Machine-outil_000262,MontÃ©rÃ©gie - 16,Brossard,7855 Avenue San Francisco,J4X 2A4,45.4549,-73.468108
Machine-outil 000263,NextEngine,NumÃ©riseur 3D,Fab Lab Brossard,https://wiki.fablabs.quebec/index.php/Machine-outil_000263,MontÃ©rÃ©gie - 16,Brossard,7855 Avenue San Francisco,J4X 2A4,45.4549,-73.468108
Machine-outil 000264,EinScan-Pro Handheld Scanner,NumÃ©riseur 3D,Polyfab Normand Brais,https://wiki.fablabs.quebec/index.php/Machine-outil_000264,MontrÃ©al - 06,MontrÃ©al,"2900, boulevard Ãdouard-Montpetit",H3T 1J4,45.502917,-73.614847
Machine-outil 000265,Matter and Form 3D Scanner V2,NumÃ©riseur 3D,Fab Lab de l'Ã©cole Marie-Rivier,https://wiki.fablabs.quebec/index.php/Machine-outil_000265,Centre-du-QuÃ©bec - 17,Drummondville,265 rue St-FÃ©lix,J2C 5M1,45.897122,-72.501722
Machine-outil 000266,Cameo 4,DÃ©coupe vinyle,FabLab Onaki,https://wiki.fablabs.quebec/index.php/Machine-outil_000266,Outaouais - 07,Gatineau,85 B Promenade du Portage.,J8Y 3X1,45.425283,-75.718864
Machine-outil 000267,BigRep Studio,Imprimante 3D,Ãchofab,https://wiki.fablabs.quebec/index.php/Machine-outil_000267,MontrÃ©al - 06,MontrÃ©al,55 rue de Louvain Ouest,H2N 1A4,45.544575,-73.655436
Machine-outil 000268,Form 1,Imprimante 3D,Les Laboratoires de LA CHAMBRE BLANCHE,https://wiki.fablabs.quebec/index.php/Machine-outil_000268,Capitale-Nationale - 03,QuÃ©bec,185 rue Christophe-Colomb Est,G1K 3S6,46.810753,-71.228125
Machine-outil 000269,3D Touch,Imprimante 3D,Les Laboratoires de LA CHAMBRE BLANCHE,https://wiki.fablabs.quebec/index.php/Machine-outil_000269,Capitale-Nationale - 03,QuÃ©bec,185 rue Christophe-Colomb Est,G1K 3S6,46.810753,-71.228125
Machine-outil 000270,BI V2.5,Imprimante 3D,Les Laboratoires de LA CHAMBRE BLANCHE,https://wiki.fablabs.quebec/index.php/Machine-outil_000270,Capitale-Nationale - 03,QuÃ©bec,185 rue Christophe-Colomb Est,G1K 3S6,46.810753,-71.228125
Machine-outil 000271,Felix 3.0,Imprimante 3D,Les Laboratoires de LA CHAMBRE BLANCHE,https://wiki.fablabs.quebec/index.php/Machine-outil_000271,Capitale-Nationale - 03,QuÃ©bec,185 rue Christophe-Colomb Est,G1K 3S6,46.810753,-71.228125
Machine-outil 000272,Felix 3.0,Imprimante 3D,Les Laboratoires de LA CHAMBRE BLANCHE,https://wiki.fablabs.quebec/index.php/Machine-outil_000272,Capitale-Nationale - 03,QuÃ©bec,185 rue Christophe-Colomb Est,G1K 3S6,46.810753,-71.228125
Machine-outil 000273,Felix 3.0,Imprimante 3D,Les Laboratoires de LA CHAMBRE BLANCHE,https://wiki.fablabs.quebec/index.php/Machine-outil_000273,Capitale-Nationale - 03,QuÃ©bec,185 rue Christophe-Colomb Est,G1K 3S6,46.810753,-71.228125
Machine-outil 000274,Epilog Zing,DÃ©coupe laser,Les Laboratoires de LA CHAMBRE BLANCHE,https://wiki.fablabs.quebec/index.php/Machine-outil_000274,Capitale-Nationale - 03,QuÃ©bec,185 rue Christophe-Colomb Est,G1K 3S6,46.810753,-71.228125
Machine-outil 000275,Shopbot Buddy,CNC,Les Laboratoires de LA CHAMBRE BLANCHE,https://wiki.fablabs.quebec/index.php/Machine-outil_000275,Capitale-Nationale - 03,QuÃ©bec,185 rue Christophe-Colomb Est,G1K 3S6,46.810753,-71.228125
Machine-outil 000276,Roland CM-300,DÃ©coupe vinyle,Les Laboratoires de LA CHAMBRE BLANCHE,https://wiki.fablabs.quebec/index.php/Machine-outil_000276,Capitale-Nationale - 03,QuÃ©bec,185 rue Christophe-Colomb Est,G1K 3S6,46.810753,-71.228125
Machine-outil 000277,Prusa i3 MK3,Imprimante 3D,FabLAB Matane,https://wiki.fablabs.quebec/index.php/Machine-outil_000277,Bas-Saint-Laurent - 01,Matane,"616, ave. Saint-RÃ©dempteur",G4W 1L1,48.840789,-67.497267
Machine-outil 000279,Prusa i3 MK3,Imprimante 3D,FabLAB Matane,https://wiki.fablabs.quebec/index.php/Machine-outil_000279,Bas-Saint-Laurent - 01,Matane,"616, ave. Saint-RÃ©dempteur",G4W 1L1,48.840789,-67.497267
Machine-outil 000280,EinScan SE,NumÃ©riseur 3D,FabLAB Matane,https://wiki.fablabs.quebec/index.php/Machine-outil_000280,Bas-Saint-Laurent - 01,Matane,"616, ave. Saint-RÃ©dempteur",G4W 1L1,48.840789,-67.497267
Machine-outil 000281,Brother 4234DT,Machine Ã  coudre,FabLAB Matane,https://wiki.fablabs.quebec/index.php/Machine-outil_000281,Bas-Saint-Laurent - 01,Matane,"616, ave. Saint-RÃ©dempteur",G4W 1L1,48.840789,-67.497267
Machine-outil 000282,Roland MDX-50,CNC,FabLAB Matane,https://wiki.fablabs.quebec/index.php/Machine-outil_000282,Bas-Saint-Laurent - 01,Matane,"616, ave. Saint-RÃ©dempteur",G4W 1L1,48.840789,-67.497267
Machine-outil 000283,CAMM-1 GS-24,DÃ©coupe vinyle,MÃ©dialab de la bibliothÃ¨que d'Amos,https://wiki.fablabs.quebec/index.php/Machine-outil_000283,Abitibi-TÃ©miscamingue - 08,Amos,"222, 1e avenue est",J9T1H3,48.571853,-78.116086
Machine-outil 000284,Ultimaker 2+ Ext,Imprimante 3D,MÃ©dialab de la bibliothÃ¨que d'Amos,https://wiki.fablabs.quebec/index.php/Machine-outil_000284,Abitibi-TÃ©miscamingue - 08,Amos,"222, 1e avenue est",J9T1H3,48.571853,-78.116086
Machine-outil 000285,Matter and Form 3D Scanner V2,NumÃ©riseur 3D,MÃ©dialab de la bibliothÃ¨que d'Amos,https://wiki.fablabs.quebec/index.php/Machine-outil_000285,Abitibi-TÃ©miscamingue - 08,Amos,"222, 1e avenue est",J9T1H3,48.571853,-78.116086
Machine-outil 000286,,Presse Ã  macarons,MÃ©dialab de la bibliothÃ¨que d'Amos,https://wiki.fablabs.quebec/index.php/Machine-outil_000286,Abitibi-TÃ©miscamingue - 08,Amos,"222, 1e avenue est",J9T1H3,48.571853,-78.116086
Machine-outil 000287,,Thermoformeuse,Fab Lab Fabbulle,https://wiki.fablabs.quebec/index.php/Machine-outil_000287,Bas-Saint-Laurent - 01,RiviÃ¨re-du-Loup,"333, rue Saint-Pierre",G5R 3V3,47.826706,-69.540653
Machine-outil 000288,Centroform EZFORM LV 1827,Thermoformeuse,Fab Lab Fabbulle,https://wiki.fablabs.quebec/index.php/Machine-outil_000288,Bas-Saint-Laurent - 01,RiviÃ¨re-du-Loup,"333, rue Saint-Pierre",G5R 3V3,47.826706,-69.540653
Machine-outil 000289,DittoPro,Imprimante 3D,Fab Lab Fabbulle,https://wiki.fablabs.quebec/index.php/Machine-outil_000289,Bas-Saint-Laurent - 01,RiviÃ¨re-du-Loup,"333, rue Saint-Pierre",G5R 3V3,47.826706,-69.540653
Machine-outil 000290,DittoPro,Imprimante 3D,Fab Lab Fabbulle,https://wiki.fablabs.quebec/index.php/Machine-outil_000290,Bas-Saint-Laurent - 01,RiviÃ¨re-du-Loup,"333, rue Saint-Pierre",G5R 3V3,47.826706,-69.540653
Machine-outil 000291,Prusa i3 MK3,Imprimante 3D,Fab Lab Fabbulle,https://wiki.fablabs.quebec/index.php/Machine-outil_000291,Bas-Saint-Laurent - 01,RiviÃ¨re-du-Loup,"333, rue Saint-Pierre",G5R 3V3,47.826706,-69.540653
Machine-outil 000293,Ender-5 Pro,Imprimante 3D,FabLab Abitibi-Ouest,https://wiki.fablabs.quebec/index.php/Machine-outil_000293,Abitibi-TÃ©miscamingue - 08,La Sarre,295 rue Principale,J9Z 1Z1,48.804614,-79.205306
Machine-outil 000294,Ender-3 Pro,Imprimante 3D,FabLab Abitibi-Ouest,https://wiki.fablabs.quebec/index.php/Machine-outil_000294,Abitibi-TÃ©miscamingue - 08,La Sarre,295 rue Principale,J9Z 1Z1,48.804614,-79.205306
Machine-outil 000295,X-Carve,CNC,FabLab Abitibi-Ouest,https://wiki.fablabs.quebec/index.php/Machine-outil_000295,Abitibi-TÃ©miscamingue - 08,La Sarre,295 rue Principale,J9Z 1Z1,48.804614,-79.205306
Machine-outil 000296,X-Carve,CNC,FabLab Abitibi-Ouest,https://wiki.fablabs.quebec/index.php/Machine-outil_000296,Abitibi-TÃ©miscamingue - 08,La Sarre,295 rue Principale,J9Z 1Z1,48.804614,-79.205306
Machine-outil 000297,Cricut Maker,DÃ©coupe vinyle,FabLab Abitibi-Ouest,https://wiki.fablabs.quebec/index.php/Machine-outil_000297,Abitibi-TÃ©miscamingue - 08,La Sarre,295 rue Principale,J9Z 1Z1,48.804614,-79.205306
Machine-outil 000298,ULIO 3D,Imprimante 3D,Fabrique Ahuntsic,https://wiki.fablabs.quebec/index.php/Machine-outil_000298,MontrÃ©al - 06,MontrÃ©al,"9155, rue Saint-Hubert",H2M 1Y8,45.552078,-73.642742
Machine-outil 000299,ULIO 3D,Imprimante 3D,Fabrique Ahuntsic,https://wiki.fablabs.quebec/index.php/Machine-outil_000299,MontrÃ©al - 06,MontrÃ©al,"9155, rue Saint-Hubert",H2M 1Y8,45.552078,-73.642742
Machine-outil 000300,ULIO 3D,Imprimante 3D,Fabrique Ahuntsic,https://wiki.fablabs.quebec/index.php/Machine-outil_000300,MontrÃ©al - 06,MontrÃ©al,"9155, rue Saint-Hubert",H2M 1Y8,45.552078,-73.642742
Machine-outil 000301,ULIO 3D,Imprimante 3D,Fabrique Ahuntsic,https://wiki.fablabs.quebec/index.php/Machine-outil_000301,MontrÃ©al - 06,MontrÃ©al,"9155, rue Saint-Hubert",H2M 1Y8,45.552078,-73.642742
Machine-outil 000302,ULIO 3D,Imprimante 3D,Fabrique Ahuntsic,https://wiki.fablabs.quebec/index.php/Machine-outil_000302,MontrÃ©al - 06,MontrÃ©al,"9155, rue Saint-Hubert",H2M 1Y8,45.552078,-73.642742
Machine-outil 000303,Creality CR-10 S5,Imprimante 3D,Fabrique Ahuntsic,https://wiki.fablabs.quebec/index.php/Machine-outil_000303,MontrÃ©al - 06,MontrÃ©al,"9155, rue Saint-Hubert",H2M 1Y8,45.552078,-73.642742
Machine-outil 000304,Universal VLS 6.60,DÃ©coupe laser,Fabrique Ahuntsic,https://wiki.fablabs.quebec/index.php/Machine-outil_000304,MontrÃ©al - 06,MontrÃ©al,"9155, rue Saint-Hubert",H2M 1Y8,45.552078,-73.642742
Machine-outil 000305,Eva Lite Artec3D,NumÃ©riseur 3D,Ãchofab,https://wiki.fablabs.quebec/index.php/Machine-outil_000305,MontrÃ©al - 06,MontrÃ©al,55 rue de Louvain Ouest,H2N 1A4,45.544575,-73.655436
Machine-outil 000306,BantamTools Desktop CNC,Micro-fraiseuse,Ãchofab,https://wiki.fablabs.quebec/index.php/Machine-outil_000306,MontrÃ©al - 06,MontrÃ©al,55 rue de Louvain Ouest,H2N 1A4,45.544575,-73.655436
Machine-outil 000307,Form 3B,Imprimante 3D,Ãchofab,https://wiki.fablabs.quebec/index.php/Machine-outil_000307,MontrÃ©al - 06,MontrÃ©al,55 rue de Louvain Ouest,H2N 1A4,45.544575,-73.655436
Machine-outil 000308,CAMM-1 GS-24,DÃ©coupe vinyle,Ãchofab,https://wiki.fablabs.quebec/index.php/Machine-outil_000308,MontrÃ©al - 06,MontrÃ©al,55 rue de Louvain Ouest,H2N 1A4,45.544575,-73.655436
Machine-outil 000309,CAMM-1 GS-24,DÃ©coupe vinyle,Ãchofab,https://wiki.fablabs.quebec/index.php/Machine-outil_000309,MontrÃ©al - 06,MontrÃ©al,55 rue de Louvain Ouest,H2N 1A4,45.544575,-73.655436
Machine-outil 000310,Formech 450DT,Thermoformeuse,FabLAB Matane,https://wiki.fablabs.quebec/index.php/Machine-outil_000310,Bas-Saint-Laurent - 01,Matane,"616, ave. Saint-RÃ©dempteur",G4W 1L1,48.840789,-67.497267
