ï»¿id,nom_req,domaine_intervention,site_internet,no_civique,rue,municipalite,province,code_postal,telephone_1,telephone_2,telecopieur
1535,Agence VIP,ÃvÃ©nements,,3995,Rue Ouellet,JonquiÃ¨re,QuÃ©bec,G7X3H9,(418)547-1540,,
144,Aide-parents plus inc.,Action communautaire,www.aideparentsplus.ca,3842,Boulevard Harvey,JonquiÃ¨re,QuÃ©bec,G7X2Z4,(418)547-4792,,(418)547-3049
145,AÃ®nÃ©s et les aÃ®nÃ©es de JonquiÃ¨re inc. (Les),Action communautaire,www.centrecommunautairejonquiere.ca,3245,Rue des PensÃ©es,JonquiÃ¨re,QuÃ©bec,G7S5T6,(418)548-6444,,(418)548-4484
149,Alliance autochtone local 37 Chicoutimi,Action communautaire,,1420,Rue Pilote,Chicoutimi,QuÃ©bec,G7H1J4,,,
2018,Alliance chorale rÃ©gionale la Gaillarde,Loisir,,2603,Rue des Garrots,JonquiÃ¨re,QuÃ©bec,G7X0L8,(418)695-0435,,
2603,Ambassade borÃ©ale,Action communautaire,https://bienvenue-au-saguenay.ca/,240,Rue BossÃ©,Chicoutimi,QuÃ©bec,G7J1L9,(581)306-4013,(418)376-3884,
58,Archers de JonquiÃ¨re (Les),Sport,www.archersdejonquiere.com,3953,Chemin de l'Ãglise,Lac KÃ©nogami,QuÃ©bec,G7X0H9,,,
737,AREQ (CSQ) Association des retraitÃ©es et retraitÃ©s de l'Ã©ducation et des autres services publics du QuÃ©bec - AREQ Chicoutimi-Valin,Loisir,chicoutimi-valin.areq.lacsq.org,895,BÃ©gin,Chicoutimi,QuÃ©bec,G7H4P1,(418)549-8523,,
1083,AREQ (CSQ) Association des retraitÃ©es et retraitÃ©s de l'Ã©ducation et des autres services publics du QuÃ©bec - AREQ De-La-JonquiÃ¨re (C),Loisir,delajonquiere.areq.lacsq.org,192,Chemin 11 Lac Brochet,Falardeau,QuÃ©bec,G0V1C0,(418)673-4378,(581)306-1122,
1084,"AREQ (CSQ), Association des retraitÃ©es et retraitÃ©s de l'Ã©ducation et des autres services publics du QuÃ©bec - AREQ Le Fjord (B)",Loisir,areq.qc.net,2522,Avenue du Parc,La Baie,QuÃ©bec,G7B1T8,,,
2568,Art Nomade,Art et culture,www.artnomadeperformance.ca,114,Rue BossÃ©,Saguenay,QC,G7J1L4,(418)944-5242,(418)720-3842,
260,Association "Loisirs Plus" pour personnes handicapÃ©es physiques,Loisir,,797,1re Rue,La Baie,QuÃ©bec,G7B2H4,,,
399,Association canadienne pour la santÃ© mentale section Saguenay,Action communautaire,www.acsmsaguenay.ca,371,Rue Racine Est,Chicoutimi,QuÃ©bec,G7H1S8,(418)549-0765,,(418)549-7568
1143,Association de la fibromyalgie (fibrosite) du Saguenay-Lac-St-Jean,Action communautaire,https://fibromyalgiesaglac.wordpress.com/,257,"rue Saint-Armand, bureau 304",Chicoutimi,QuÃ©bec,G7G1S4,(418)602-3552,,
2038,Association de pÃªche blanche de Lac-KÃ©nogami,Loisir,,4074,Rue ChÃ¢teauguay,JonquiÃ¨re,QuÃ©bec,G8A1l4,(581)490-9007,(418)720-9641,
1113,Association de soutien et d'informations face Ã  la douleur (A.S.I.D.),Action communautaire,www.asid.qc.ca,2208,Rue Roussel,Chicoutimi,QuÃ©bec,G7G1W7,(418)549-0707,,(418)549-0707
226,Association des arthritiques du Saguenay-Lac-Saint-Jean,Action communautaire,,110,Rue du Vallon,Canton Tremblay,QuÃ©bec,G7H5B2,(418)549-2002,,(418)549-2522
747,Association des cordes du Saguenay-Lac-St-Jean,Art et culture,https://rassemblementdescordes.wordpress.com/,202,Rue Jacques-Cartier Est,Chicoutimi,QuÃ©bec,G7H6R8,(418)698-3505,,(418)698-3521
4,Association des judokas de JonquiÃ¨re,Sport,https://clubjudokasjonquiere.ca/,3507,Boulevard Saint-FranÃ§ois,JonquiÃ¨re,QuÃ©bec,G7X2W5,(418)547-9549 ext.1,,(418)698-3951
1914,Association des locataires de HLM de Chicoutimi,Action communautaire,Aucun,72,Rue Smith Ouest,Chicoutimi,QuÃ©bec,G7J4H5,(418)545-1111,,
241,Association des parents d'adolescents de Chicoutimi (A.P.A.C.),Action communautaire,,508,Rue Saint-Augustin,Chicoutimi,QuÃ©bec,G7J2J9,,,
242,Association des parents d'ados du Fjord (L'),Action communautaire,www.parentsadosdufjord.com/,482,Rue Albert,La Baie,QuÃ©bec,G7B3L4,(418)544-4135,,
246,Association des personnes aphasiques du Saguenay,Action communautaire,,138,Rue Price Ouest,Chicoutimi,QuÃ©bec,G7J1G8,(418)543-0398,,
2143,Association des personnes handicapÃ©es visuelles de la rÃ©gion 02 inc. - APHV-02 secteur Chicoutimi,Loisir,http://aphv02.com/,200,Rue Colbert,Chicoutimi,QuÃ©bec,G7G1L5,(581)222-0142,(148)973-3162,
247,Association des personnes handicapÃ©es visuelles de la rÃ©gion 02 inc. - APHV-02 secteur JonquiÃ¨re,Loisir,www.aphv02.qc.ca,3841,St-Germain,Jonquiere,QuÃ©bec,G7x2V7,(418)695-2503,,
1246,"Association des personnes stomisÃ©es Saguenay-Lac-St-Jean, rÃ©gion 02 inc.",Action communautaire,www.aqps.org,305,Rue Saint-Vallier,Chicoutimi,QuÃ©bec,G7H5H6,(418)549-2501,,
2473,Association des Universitaires du TroisiÃ¨me Ãge de l'UQAC,Loisir,cesam.uqac.ca,555,Boulevard de l'UniversitÃ© Est,Chicoutimi,QuÃ©bec,G7H2B1,,,
5,Association du base-ball mineur de Chicoutimi inc.,Sport,Association du Baseball Mineur de Chicoutimi (page Facebook),,Rue Racine,Chicoutimi,QuÃ©bec,G7H5B5,(418)698-3252,,
2499,Association du hockey mineur de Saguenay,Sport,www.ahms.club,643,Rue BÃ©gin,Chicoutimi,QuÃ©bec,G7H4N7,(418)698-3000 ext.4672,(418)698-3000 ext.4670,
113,Association fÃ©minine d'Ã©ducation et d'action sociale (AFEAS) rÃ©gion de Saguenay Lac-Saint-Jean - AFÃAS locale Lac KÃ©nogami,Loisir,,4269,Chemin de lÃ®le,Lac KÃ©nogami,QuÃ©bec,g7x0h9,(418)695-5508,,
115,Association fÃ©minine d'Ã©ducation et d'action sociale (AFEAS) rÃ©gion de Saguenay Lac-Saint-Jean - AFÃAS locale SacrÃ©-Coeur,Loisir,,555,Rue Sainte-Marthe,Chicoutimi,QuÃ©bec,G7J4Z8,(418)543-3768,,
116,Association fÃ©minine d'Ã©ducation et d'action sociale (AFEAS) rÃ©gion de Saguenay Lac-Saint-Jean - AFÃAS locale St-Antoine,Loisir,afeas.qc.ca,826,Chemin de la RÃ©serve,Chicoutimi,QuÃ©bec,G7J3P4,,,
120,Association fÃ©minine d'Ã©ducation et d'action sociale (AFEAS) rÃ©gion de Saguenay Lac-Saint-Jean - AFÃAS locale St-Ãdouard,Loisir,,1331,deuxiÃ¨me Avenue,La Baie,QuÃ©bec,G7B1M6,(418)306-2887,,
123,Association fÃ©minine d'Ã©ducation et d'action sociale (AFEAS) rÃ©gion de Saguenay Lac-Saint-Jean - AFÃAS locale St-Georges,Loisir,,3155,Rue Saint-Dominique,JonquiÃ¨re,QuÃ©bec,G7Y1A8,(418)547-8646,,
124,Association fÃ©minine d'Ã©ducation et d'action sociale (AFEAS) rÃ©gion de Saguenay Lac-Saint-Jean - AFÃAS locale St-Jacques,Loisir,afeas.qc.ca,1152,Rue Gabriel-Druillettes,Chicoutimi,QuÃ©bec,G7J0G3,(581)433-0168,,
125,Association fÃ©minine d'Ã©ducation et d'action sociale (AFEAS) rÃ©gion de Saguenay Lac-Saint-Jean - AFÃAS locale St-Jean-Eudes,Loisir,www.afeas02,5877,portage des roches nord,laterriÃ¨re,quebec,g7n1z6,(418)678-9727,,
130,Association fÃ©minine d'Ã©ducation et d'action sociale (AFEAS) rÃ©gion de Saguenay Lac-Saint-Jean - AFÃAS locale St-Paul,Loisir,,684,Boulevard Barrette,Chicoutimi,QuÃ©bec,G7J4C5,(418)549-6539,,
121,Association fÃ©minine d'Ã©ducation et d'action sociale (AFEAS) rÃ©gion de Saguenay Lac-Saint-Jean - AFÃAS locale Ste-Famille,Loisir,,3937,Rue des Flandres,JonquiÃ¨re,QuÃ©bec,G7X3X7,,,
122,Association fÃ©minine d'Ã©ducation et d'action sociale (AFEAS) rÃ©gion de Saguenay Lac-Saint-Jean - AFÃAS locale Ste-ThÃ©rÃ¨se,Loisir,,2991,Rue Sorel,JonquiÃ¨re,QuÃ©bec,G7X7V3,(418)548-0755,,
1477,Association Moto-Tourisme de JonquiÃ¨re,Loisir,www.amtjonquiere.org,752,Rue De Tracy,Chicoutimi,QuÃ©bec,G7H2N5,(418)818-8555,,
243,Association Panda Saguenay Lac-St-Jean,Action communautaire,pandaslsj.org,1936,Rue Davis,JonquiÃ¨re,QuÃ©bec,G7S3B6,(418)579-3140 ext.237,(188)837-55076,
267,Association pour la promotion des droits des personnes handicapÃ©es de JonquiÃ¨re,Action communautaire,www.apdph.com,2435,Rue Saint-Jean-Baptiste,JonquiÃ¨re,QuÃ©bec,G7X7W6,(418)548-5832,,(418)548-5291
268,Association pour la protection du lac KÃ©nogami inc.,Plein air,www.aplk.ca,5251,Chemin du Quai,Lac KÃ©nogami,QuÃ©bec,G7X7V6,,,
270,Association pour le dÃ©veloppement de la personne handicapÃ©e intellectuelle du Saguenay (A.D.H.I.S.),Action communautaire,www.adhis.ca,1450,Boulevard du Saguenay Est,Chicoutimi,QuÃ©bec,G7H1H1,(418)543-0093,,
272,Association professionnelle des Ã©crivains de la Sagamie,Art et culture,http://litteraturesagamie.com/apes,165,Rue Racine Est,Chicoutimi,QuÃ©bec,G7H5B8,(418)698-3000 ext.4650,,
370,Association quÃ©bÃ©coise de dÃ©fense des droits des personnes retraitÃ©es et prÃ©retraitÃ©es (A.Q.D.R.),Action communautaire,www.aqdrjonquiere.org,3507,Boulevard Saint-FranÃ§ois SUITE 102,JonquiÃ¨re,QuÃ©bec,G7X2W5,(418)698-3345 ext.5,,(418)698-3879
273,Association quÃ©bÃ©coise de la dysphasie rÃ©gion Saguenay-Lac-Saint-Jean,Action communautaire,www.dysphasiesaglac.org  (site en construction pour le moment),,Place Centre-Ville,JonquiÃ¨re,QuÃ©bec,G7X7V8,(418)548-0529,,
366,Association quÃ©bÃ©coise pour la dÃ©fense des retraitÃ©s et prÃ©-retraitÃ©s (section Chicoutimi),Action communautaire,http://www.aqdrchicoutimi.com,700,Rue BÃ©gin,Chicoutimi,QuÃ©bec,G7H7Y6,(418)543-8347,,(418)543-4378
277,Association RÃ©gionale de Loisirs pour Personnes HandicapÃ©es Saguenay-Lac-Saint-Jean (ARLPH),Action communautaire,www.lavilla.ca/arlph/,138,Rue Price Ouest,Chicoutimi,QuÃ©bec,G7J1G8,(418)545-4132,,(418)545-7271
873,Association rÃ©gionale pour les personnes Ã©pileptiques (RÃ©gion 02) / ARPE-02,Action communautaire,www.arpe02.com,110,Rue Racine Est,Chicoutimi,QuÃ©bec,G7H5C2,(418)549-9888,,(418)549-3547
279,Association renaissance des personnes traumatisÃ©es crÃ¢niennes du Saguenay-Lac-Saint-Jean,Action communautaire,www.associationrenaissance.net,2123,rue DeschÃªnes,JonquiÃ¨re,QuÃ©bec,G7S5E3,(418)548-9366,(185)554-89366,
1862,Association Saguenay Ã  cheval,Plein air,-,6235,Boul. Grande-Baie-Sud,La Baie,QuÃ©bec,G7B3P6,(418)697-1965,,
2147,Association sportive Mars-Moulin inc.,Plein air,https://zecmarsmoulin.reseauzec.com/fr,6166,Rue Notre-Dame,LaterriÃ¨re,QuÃ©bec,G7N1A1,(418)678-3438,,
2420,Association yoga du Fjord,Loisir,AUCUN,1205,Rue P.-O.-Gagnon,La Baie,QuÃ©bec,G7B4J5,,,
281,Atelier de musique de JonquiÃ¨re inc.,Art et culture,www.atelierdemusique.qc.ca,1910,Rue du Centre,JonquiÃ¨re,QuÃ©bec,G7S2X3,(418)548-0707,,(418)548-6146
244,Au Royaume de la courtepointe,Loisir,Aucun,508,Rue Sainte-Anne,Chicoutimi,QuÃ©bec,G7J2N4,,,
244,Au Royaume de la courtepointe,Loisir,Aucun,512,rue Sainte-Anne,Saguenay,QuÃ©bec,G7J2N4,(418)543-8390,(418)376-0283,
296,Bande Sonimage,Art et culture,bandesonimage.org,165,"Rue Racine Est, C.P. 8060",Chicoutimi,QuÃ©bec,G7H1R5,(418)698-3000 ext.5530,(418)820-7969,
308,BibliothÃ¨que de LaterriÃ¨re,Art et culture,mabibliotheque.ca/slsj,6168,Rue Notre-Dame  Casier postale 1080,LaterriÃ¨re,QuÃ©bec,G7N2A7,(418)678-9602,,
310,BibliothÃ¨que de Shipshaw,Art et culture,,4100,Rue des Ormes,Shipshaw,QuÃ©bec,G7P1B4,(418)698-3000 ext.6768,,(418)542-6231
2555,C.P.A. Les Anneaux bleus de La Baie inc.,Sport,www.anneauxbleus.com,,Rue de la Fabrique,La baie,Qc,G7B2S0,(418)820-5324,(418)817-3710,
319,CafÃ©-Jeunesse de Chicoutimi Inc.,Action communautaire,www.cafejeunesse.com,30,Rue Jacques-Cartier Ouest,Chicoutimi,QuÃ©bec,G7J1E6,(418)696-2871,,
323,Camp musical du Saguenay - Lac-Saint-Jean inc.,Art et culture,campmusical-slsj.qc.ca,1589,route 169,MÃ©tabetchouan,QuÃ©bec,G8G1A8,(418)349-2085,,(418)349-8719
1278,Camping de JonquiÃ¨re inc.,Plein air,www.camingjonquiere.com,3553,Rue Saint-Dominique,JonquiÃ¨re,QuÃ©bec,G7X7V6,(418)542-0176,,(418)542-5154
439,Cancer Saguenay,Action communautaire,cancersaguenay.org,1845,Rue DeschÃªnes,JonquiÃ¨re,QuÃ©bec,G7S4T8,(418)699-0009,,
2631,CAPABE (Centre d'aide aux personnes accidentÃ©es et blessÃ©es Ã  l'emploi),Action communautaire,,472,Boulevard Talbot                                            ,Saguenay,QuÃ©bec,G7H4A2,(418)545-4018,,
325,Capoeira Saguenay,Loisir,Capeirasaguenay.ca,378,Rue Marie-Guyart,Chicoutimi,QuÃ©bec,G7J0A8,(418)540-5625,,
326,Caravane Films Productions,Art et culture,www.festivalregard.com,,Succ. Racine,Chicoutimi,QuÃ©bec,G7H5B7,(418)698-5854,,
1204,CARDI-O-FORME INC.,Loisir,www.cardioforme.com,305,Rue Saint-Vallier,Chicoutimi,QuÃ©bec,G7H5H6,(418)541-1000 ext.2401,,(418)541-1120
330,Carrefour communautaire Saint-Paul,Action communautaire,carrefourstpaul.com,508,Rue Saint-Augustin,Chicoutimi,QuÃ©bec,G7J2J9,(418)543-6963,,(418)543-5185
2287,Carrefour de soutien aux aidants du Saguenay-Lac-Saint-Jean,Action communautaire,lappui.org,3791,Rue de la Fabrique,JonquiÃ¨re,QuÃ©bec,G7X7W1,(418)412-4445,,
1255,Carrefour jeunesse emploi Saguenay inc.,Action communautaire,www.cjesag.qc.ca,942,Rue de la Fabrique,La Baie,QuÃ©bec,G7B2T1,(418)697-0634,,(418)697-0271
523,Carrefour socioculturel Au Vieux ThÃ©Ã¢tre,Art et culture,www.vieuxtheatrelabaie.com,300,Boulevard de la Grande-Baie Nord,La Baie,QuÃ©bec,G7B3K3,(418)544-3166,,
1210,Caserne de jouets du Saguenay (C.J.S.) inc.,Action communautaire,,2585,Rue Roussel,Chicoutimi,QuÃ©bec,G7G1X9,(418)698-1161,,
527,Centre Alpha de LaterriÃ¨re inc.,Action communautaire,alphalat.org,6166,Rue Notre-Dame,LaterriÃ¨re,QuÃ©bec,G7N1A1,(418)698-3000 ext.4195,,
528,Centre Alpha du Haut-Saguenay,Action communautaire,,605,Rue Saint-Paul,Chicoutimi,QuÃ©bec,G7J3Z4,,,
1330,Centre alternatif de dÃ©placement urbain du Saguenay (CADUS) inc.,Plein air,cadus.ca,1330,Rue Bersimis,Chicoutimi,QuÃ©bec,G7K1A5,(418)546-2238,,
825,Centre BANG,Art et culture,www.centrebang.ca,132,Rue Racine Est,Chicoutimi,QuÃ©bec,G7H5B5,(418)543-2744,,(418)543-6730
534,Centre d'action bÃ©nÃ©vole de Chicoutimi inc.,Action communautaire,www.cabchicoutimi.com,605,"rue Saint-Paul, bureau 100",Chicoutimi,QuÃ©bec,G7J3Z4,(418)543-6639 ext.102,(418)543-6639 ext.0,(418)543-6918
535,Centre d'action bÃ©nÃ©vole de JonquiÃ¨re,Action communautaire,www.jonquiere.net,2001,Rue Price,JonquiÃ¨re,QuÃ©bec,G7X5R8,(418)542-1625 ext.1,,(418)542-9021
536,Centre d'Action BÃ©nÃ©vole de LaterriÃ¨re,Action communautaire,aucun,6166,Rue Notre-Dame,LaterriÃ¨re,QuÃ©bec,G7N1A1,(418)678-1927,,(418)678-1927
525,Centre d'alphabÃ©tisation de JonquiÃ¨re,Action communautaire,,2240,Rue Montpetit,JonquiÃ¨re,QuÃ©bec,G7X6A3,(418)547-7514,,
2139,Centre d'amitiÃ© autochtone du Saguenay,Action communautaire,www.caasaguenay.ca,491,Rue Jacques-Cartier Est,Chicoutimi,QuÃ©bec,G7H1Z9,,,
2566,Centre d'assistance et d'accompagnement aux plaintes Saguenay Lac-St-Jean (CAAP),Action communautaire,www.plaintesante.ca,1015,Rue Boivin,Alma,QuÃ©bec,G8B1Y9,(418)662-6774,,(418)662-1087
1135,Centre d'EmployabilitÃ© de La Baie,Action communautaire,www.ceblabaie.com,1748,Rue Sagan,Chicoutimi,QC,G7S4L4,(418)290-7646,,
1135,Centre d'EmployabilitÃ© de La Baie,Action communautaire,www.ceblabaie.com,731,Boulevard de la Grande-Baie Nord,La Baie,QuÃ©bec,G7B3K5,(418)544-3811 ext.4447,,(418)544-7964
533,Centre d'ExpÃ©rimentation Musicale,Art et culture,www.cemproduction.com,37,Rhainds,Chicoutimi,QuÃ©bec,G7G2H3,(418)815-6941,,
603,Centre d'histoire Arvida,Art et culture,www.centrehistoirearvida.com,1994,Rue Price,JonquiÃ¨re,QuÃ©bec,G7X7X8,(418)695-7278,,(418)695-7172
556,Centre d'intervention familiale Le Transit,Action communautaire,www.cifletransit.org,2469,Rue Saint-Dominique,JonquiÃ¨re,QuÃ©bec,G7X6K4,(418)695-2780,,(418)695-1458
2247,Centre de biathlon Sag-Lac,Sport,www.biathlonsag-lac.com,4582,Chemin de l'Ãglise,LaterriÃ¨re,QuÃ©bec,G7N1N9,,,
530,Centre de dÃ©veloppement personnel et conjugal,Action communautaire,www.cdpec02.ca,602,Rue Racine Est,Chicoutimi,QuÃ©bec,G7H1V1,(418)545-0886,,
548,Centre de femmes Mieux-Ãtre de JonquiÃ¨re inc.,Action communautaire,centredefemmesjonquiere.com,2185,Rue Saint-Dominique,JonquiÃ¨re,QuÃ©bec,G7X6M6,(418)547-3763,,(418)547-6342
2246,Centre de justice de proximitÃ© du Saguenay-Lac-St-Jean,Action communautaire,https://www.justicedeproximite.qc.ca/centres/saguenay-lac-saint-jean/,3885,Boulevard Harvey,JonquiÃ¨re,QuÃ©bec,G7X9B1,,,
1240,Centre de Plein Air du Portage,Plein air,,8450,Chemin des Portageurs,LaterriÃ¨re,QuÃ©bec,G7N2A3,(418)678-1283,,
1112,Centre de prÃ©vention du suicide rÃ©gion 02 Inc.,Action communautaire,www.cps02.org,780,Rue Jolliet,Chicoutimi,QuÃ©bec,G7J2P8,(418)545-9110,,(418)693-1505
288,Centre de production en art actuel TOUTTOUT,Art et culture,https://www.touttout.org,114,Rue BossÃ©,Chicoutimi,QuÃ©bec,G7J1L4,(418)543-5154,,
552,Centre de ressources pour les familles de militaires de Bagotville,Action communautaire,http://www.crfmbagotville.com,1775,Rue Lucien-Lecompte,Alouette,QuÃ©bec,G0V1A0,(418)677-7468,,(418)677-4468
1114,Centre des enfants,Action communautaire,www.lecentredesenfants.com,522,Rue Sainte-Anne,Chicoutimi,QuÃ©bec,G7J2N4,(418)698-5151 ext.3131,(418)602-1834,(418)698-5333
553,Centre des retraitÃ©s de l'arrondissement de Chicoutimi (CRAC) inc.,Loisir,,208,Rue Talon,Chicoutimi,QuÃ©bec,G7G0C7,,,
557,Centre du Lac Pouce,Action communautaire,www.lacpouce.com,6939,Boulevard Talbot,LaterriÃ¨re,QuÃ©bec,G7N1W2,(418)678-2455,,(418)678-1595
558,Centre fÃ©minin du Saguenay inc.,Action communautaire,aucun,,"C.P. 20084, C.S.P. Place du Saguenay",Chicoutimi,QuÃ©bec,G7H7S2,(418)549-8058 ext.102,(418)549-8058 ext.100,(418)549-4568
559,Centre historique de la congrÃ©gation des Soeurs de Notre-Dame du Bon-Conseil de Chicoutimi,Art et culture,http://www.centrehistoriquesndbc.com/,700,Rue Racine Est,Chicoutimi,QuÃ©bec,G7H1V2,(418)543-4861 ext.221,,(418)543-7194
2544,Centre JMC Saguenay,Art et culture,jmcanada.ca ( site de Jeunesses Musicales Canada),3615,Rue Saint-LÃ©andre,JonquiÃ¨re,QuÃ©bec,G7X2B3,(418)547-4683,(418)944-1426,
560,Centre KÃ©no-Patro inc.,Plein air,,2565,Rue Saint-Dominique,JonquiÃ¨re,QuÃ©bec,G7X6J6,,,
589,Centre l'Escale de JonquiÃ¨re inc.,Action communautaire,www.escale.org,3958,rue de la Fabrique,JonquiÃ¨re,QuÃ©bec,G7X3N2,(418)547-3644,,(418)547-9304
561,Centre Le Phare,Action communautaire,www.centrelephare.com,293,Rue OnÃ©sime-CÃ´tÃ©,La Baie,QuÃ©bec,G7B3J7,(418)544-9301,,(418)544-9304
1269,Centre multiservice de Shipshaw,Loisir,,4100,Rue des Ormes,Shipshaw,QuÃ©bec,G7P1B4,(418)290-8846,,
2028,Centre multisport Nazaire-Girard,Loisir,http://www.multisportng.com/index.php,6197,Rue Notre-Dame,LaterriÃ¨re,QuÃ©bec,G7N1P7,,,
978,Centre Paul-Ãtienne Simard inc.,Loisir,Page facebook Centre Paul-Ãtienne Simard,4667,Chemin de l'Ãglise,LaterriÃ¨re,QuÃ©bec,G7N1P1,(418)678-9673,,
2443,Centre rÃ©crÃ©atif En Ãquilibre,Sport,https://www.facebook.com/centreenequilibre/,623,des Actionnaires,Chicoutimi,QuÃ©bec,G7J5B3,(418)437-5033,,
605,Centre social Christ-Roi,Loisir,,40,Rue Jacques-Cartier Ouest,Chicoutimi,QuÃ©bec,G7J1E8,,,
632,Cercle des mycologues du Saguenay,Loisir,www.mycosag.chez.com,1120,Rue des PÃ©kans,Chicoutimi,QuÃ©bec,G7J0C3,(418)612-1058,,(418)672-6926
696,Choeur Amadeus inc.,Loisir,@choeuramadeus1942,1594,Rue des Engoulevents,Chicoutimi,QuÃ©bec,G7H5R9,(418)549-6212,,
769,CinÃ©-club de JonquiÃ¨re,Art et culture,https://vie-etudiante.cegepjonquiere.ca/cine-club.html,2505,Rue Saint-Hubert,JonquiÃ¨re,QuÃ©bec,G7X7W2,(418)547-2191,,
2542,Clint Vanessa Arcane Cath,Art et culture,1www.testdeclint22.com,123,salamÃ¨che k,Johto,Kanto,t6t6y7,(581)234-7896 ext.0,(0)- ext.0,(0)-
1146,Clowns ThÃ©rapeutiques Saguenay,Action communautaire,ctsaguenay.com,3016,Rue St-Ãtienne,Saguenay,QuÃ©bec,G7S1H8,(418)812-7363,(418)545-9973,
809,Club aÃ©romodÃ©lisme Saguenay inc.,Loisir,www.aeromodelismesaguenay.com,1273,Boulevard Renaud,Chicoutimi,QuÃ©bec,G7H3N7,(418)820-5145,,
2374,Club Air-Lib,Plein air,www.airlib.ca,1611,Boulevard de la Grande-Baie Sud,La Baie,QuÃ©bec,G7B1C9,,,
805,Club amical Ã¢ge d'or JonquiÃ¨re,Loisir,,1768,Rue Neilson,JonquiÃ¨re,QuÃ©bec,G7S3A2,(418)550-8583,,
1746,Club canin du Fjord,Loisir,https://www.facebook.com/Club-Canin-du-Fjord-485780628121400/?ref=bookmarks,3365,Rang Saint-Pierre,Chicoutimi,QuÃ©bec,G7H0G1,,,
808,Club d'astronomes amateurs Sirius du Saguenay,Loisir,www.astrosurf.com/clubsirius/,2092,Rue GiguÃ¨re,JonquiÃ¨re,QuÃ©bec,G7S4C8,,,
36,Club d'athlÃ©tisme Jakours Saguenay,Sport,www.jakours.ca,2346,Rue de Dieppe,JonquiÃ¨re,QuÃ©bec,G7S5N5,(418)548-3923,(581)235-3923,
1043,Club d'Ã©checs de JonquiÃ¨re,Loisir,https://echecsjonquiere.clubeo.com/,2466,Rue de la Lorraine,JonquiÃ¨re,QuÃ©bec,G7X2K4,(418)542-0513,,
1085,Club de baseball mineur LaterriÃ¨re,Sport,Facebook : Association baseball LaterriÃ¨re,6197,Rue Notre-Dame,LaterriÃ¨re,QuÃ©bec,G7N1P7,,,
11,Club de boxe de Chicoutimi,Sport,http://boxechicoutimi.com,118,Rue de Nancy,Chicoutimi,Qc,G7G4M7,(418)543-7010,(418)820-3590,
12,Club de boxe olympique de JonquiÃ¨re,Sport,http://www.cboj.net,3865,Rue du Roi-Georges,JonquiÃ¨re,QuÃ©bec,G7X9K7,(418)695-3252,,
882,Club de Bridge Coeur Atout,Loisir,,3399,Rue du Muguet,saguenay,QuÃ©bec,g7s5w4,(418)695-0152,,
78,Club de compÃ©tition Mont-Fortin,Sport,clubdecompetitionmontfortin@wordpress.com,2089,Rue Cabernet,Chicoutimi,QuÃ©bec,G7H0M3,(418)812-0421,,
2438,Club de conversation espagnole Los NorteÃ±os,Loisir,,4300,St- LÃ©onard,Shipshaw,QuÃ©bec,G7P1H1,(418)547-9877,,
580,Club de conversation Los Retoricos du Saguenay,Loisir,,4667,Ch. Saint-Pierre,Saguenay,QuÃ©bec,G7N1X8,(418)549-8810,,
14,Club de curling Chicoutimi inc. (Le),Sport,www.curlingchicoutimi.ca,760,Rue Jolliet,Chicoutimi,QuÃ©bec,G7J2P8,(418)549-9245,,
16,Club de curling de KÃ©nogami,Sport,www.clubcurlingkenogami.com,3852,Rue du Roi-Georges,JonquiÃ¨re,QuÃ©bec,G7X7X7,(418)547-2456,,(418)547-2028
19,Club de curling Port-Alfred,Sport,www.curlingpa.com,851,4e Rue,La Baie,QuÃ©bec,G7B2A6,(418)697-5109 ext.3,,(418)697-9153
70,Club de golf Port-Alfred inc. (Le),Sport,www.golfportalfred.com,851,4e Rue,La Baie,QuÃ©bec,G7B2A6,(418)697-5109 ext.2,,(418)697-9153
20,Club de golf Saguenay Arvida inc. (Le),Sport,www.golfsaguenayarvida.com,2680,Boulevard du Saguenay,JonquiÃ¨re,QuÃ©bec,G7S4L1,(418)548-9353,,(418)548-9600
2674,Club de gymnastique de Saguenay,Sport,,420,Rue Cimon,Chicoutimi,QuÃ©bec,G7J2E3,(418)543-5178,,
29,Club de gymnastique Jako inc.,Sport,www.gym-jako.com,3849,Rue Colbert,JonquiÃ¨re,QuÃ©bec,G7X0E6,(418)546-0055,,
34,Club de gymnastique Sagym inc.,Sport,,420,Rue Cimon,Chicoutimi,QuÃ©bec,G7H7S2,(418)543-5178 ext.100,(418)543-5178 ext.102,
2624,Club de jogging Jakours,Loisir,,1923,Rue des Hiboux,Chicoutimi,QuÃ©bec,g7h7s3,(418)543-1215,,
37,Club de Judo Multikyo,Sport,aucun,990,Rue AimÃ©-Gravel,La Baie,QuÃ©bec,G7B2M4,(418)944-8892,,
40,Club de kayak RiviÃ¨re aux Sables,Plein air,,2122,Rue ÃvangÃ©line,JonquiÃ¨re,Qc,g8a2b5,(438)823-9854,,
860,Club de l'Ã¢ge d'or des Joyeux Mercredis,Loisir,xrstiane@gmail.com,639,Rue Lapointe,Chicoutimi,QuÃ©bec,G7J3E3,(418)693-0741,,
832,Club de l'Ã¢ge d'or du Christ-Roi,Loisir,Microsoft Edga,768,Rue des Jaseurs,Chicoutimi,QuÃ©bec,G7H0B3,(418)973-3975,,
835,Club de l'Ã¢ge d'or du Grand BrÃ»lÃ©,Loisir,,6166,Rue Notr Dame,LaterriÃ¨re,QuÃ©bec,G7N1A1,(418)678-3419,,
895,Club de minÃ©ralogie du Saguenay-Lac-Saint-Jean,Loisir,www.mineraux.uqac.ca,273,Rue Mauriac,Chicoutimi,Quebec,G7H7A3,(418)543-3154,,
42,Club de montagne du Saguenay,Plein air,www.clubmontagnesaguenay.com,2886,Roussel,Chicoutimi,QuÃ©bec,G7g1Y9,(514)993-1364,,
1716,Club de motoneige Caribou-Conscrits inc.,Plein air,www.caribouconscrits.com,100,rue des HÃ©rons,Saint-HonorÃ© de Chicoutimi,QuÃ©bec,G0V1L0,(418)673-7817,,(418)673-1949
43,Club de motoneigistes du Saguenay inc.,Plein air,www.motoneigesaguenay.com,2855,Rue Gamache,JonquiÃ¨re,QuÃ©bec,G7X7V3,(418)548-3676,,(418)542-8928
44,Club de natation BÃ©luga de La Baie,Sport,,1802,Avenue John-Kane,La Baie,QuÃ©bec,G7B1K2,(418)697-1548,,
45,Club de natation de Chicoutimi incorporÃ©,Sport,www.natationchicoutimi.com,,Boulevard Talbot,Chicoutimi,QuÃ©bec,G7H7S2,(418)815-3961,,
46,Club de natation de JonquiÃ¨re,Sport,clubnatationjonquiere.com,2435,Rue Saint-Jean-Baptiste,JonquiÃ¨re,QuÃ©bec,G8A1X3,(418)699-0196,,
49,Club de patinage artistique Les Fines Lames de Chicoutimi,Sport,lesfineslamesdechicoutimi.com,,"CP 20032, CSP Place du Saguenay",Chicoutimi,QuÃ©bec,G7H7S2,(581)447-2399,,
50,Club de patinage artistique Les Mazurkas inc.,Sport,www.mazurkas.ca,,C.P. 2164,JonquiÃ¨re,QuÃ©bec,G7X7X7,(418)698-3000 ext.6781,,
53,Club de patinage de vitesse Les ComÃ¨tes de Chicoutimi inc. (Le),Sport,www.cometesdechicoutimi.com,643,Rue BÃ©gin,Chicoutimi,QuÃ©bec,G7H4N7,(418)698-3000 ext.4225,,(418)549-5333
51,Club de patinage de vitesse Les F18 de La Baie,Sport,,2523,Chemin Saint-Joseph,La Baie,QuÃ©bec,G7B3N9,(418)812-9445,,
898,Club de photo Chicoutimi inc.,Loisir,www.clubphotochicoutimi.org,165,Rue Racine Est,Chicoutimi,QuÃ©bec,G7H5B3,,,
900,Club de Photo de La Baie inc.,Loisir,,4532,ch. St-Louis,La Baie,QuÃ©bec,G7B0C9,(418)817-7133,,
66,Club de photo JAK,Loisir,www.clubphotojak.com,52,Rue Albert,Chicoutimi,QuÃ©bec,G7J3W1,,,
54,Club de plongeon Les Otaries de JonquiÃ¨re,Sport,www.plongeonlesotaries.sitew.com,2023,Boulevard Mellon,JonquiÃ¨re,QuÃ©bec,G7S3G7,(418)815-1663,,
1048,Club de scrabble Amis-Mots de Chicoutimi ,Loisir,,141,Rue Marco,Chicoutimi,QuÃ©bec,G7G4T2,,,
1088,Club de ski de fond Le NorvÃ©gien inc.,Plein air,www.skidefondlenorvegien.com,4885,Chemin Saint-BenoÃ®t,JonquiÃ¨re,QuÃ©bec,G7X7W4,(418)546-2344,,
30,Club de soccer de JonquiÃ¨re,Sport,www.soccerjonquiere.org,3507,Boulevard Saint-FranÃ§ois,JonquiÃ¨re,QuÃ©bec,G7X2W5,(418)698-3345 ext.2,(418)818-3004,
2609,Club de soccer le Venturi de Saguenay,Sport,soccersaguenay.com,3507,Boulevard Saint-FranÃ§ois,JonquiÃ¨re,QuÃ©bec,G7X2W5,(418)698-3254,(418)376-6768,
31,Club de soccer mineur de Chicoutimi inc.,Sport,www.soccer-chicoutimi.com,,Rue Racine Est,Chicoutimi,QuÃ©bec,G7H5C8,(418)698-3254,(418)550-5011 ext.4409,(418)698-3294
65,Club de tennis intÃ©rieur Saguenay inc.,Sport,www.clubtennissaguenay.com,2680,Boulevard du Saguenay,JonquiÃ¨re,QuÃ©bec,G7S0L3,(418)548-3179,,
64,Club de vÃ©lo de JonquiÃ¨re,Loisir,www.clubvelojonquiere.com,530,Rue Jules-Verne,Chicoutimi,QuÃ©bec,G7J4S2,,,
80,Club de voile du Saguenay inc. (Le),Plein air,www.clubdevoilesaguenay.com,1444,casier postal,Jonquiere,QuÃ©bec,g7s4l1,(418)547-9776,,
2059,Club de volley ball Saguenay,Sport,https://www.facebook.com/ClubDeVolleyballSaguenay/,2521,Rue des Alouettes,JonquiÃ¨re,QuÃ©bec,G7X8G2,(418)812-4277,,
1965,Club de Yacht de Chicoutimi,Plein air,https://marinachicoutimi.com/,531,Boulevard du Saguenay Est,Chicoutimi,QuÃ©bec,G7H5B7,(418)541-7007,,
23,Club des Archers de Chicoutimi,Sport,http://archersdechicoutimi.com,3312,Boulevard Saint-Jean-Baptiste,Chicoutimi,QuÃ©bec,G7H7V5,(418)602-3520,,
1039,Club des retraitÃ©s Alcan La Baie,Loisir,,3002,Rue Wilfrid-Simard,La Baie,QuÃ©bec,G7B4C2,(418)544-5912,,
252,Club des retraitÃ©s de la Consolidated Bathurst division Port-Alfred inc.,Loisir,,659,5 iÃ¨me rue,La Baie,QuÃ©bec,g7b1y7,(418)544-8549,,
25,Club Endurance du Fjord,Sport,www.endurancedufjord.com,680,Rue des Bernaches,Chicoutimi,QuÃ©bec,G7H5x6,(158)123-45810,,
812,Club FADOQ Arvida,Loisir,www.fadoq.ca,3108,rue St-Georges,JonquiÃ¨re,QuÃ©bec,G7s1w4,(418)698-3000 ext.4634,,
836,Club Jeunesse DorÃ©  Age d'or  Ste-Claire,Loisir,,208,Rue Talon,Chicoutimi,QuÃ©bec,G7G0C7,(418)698-3000 ext.6732,,(418)698-3064
1022,Club optimiste de LaterriÃ¨re inc.,Loisir,www.optimistelaterriÃ¨re.org,6166,Rue Notre-Dame,LaterriÃ¨re,QuÃ©bec,G7N2A7,(418)678-2846,,
1018,Club PhilatÃ©lique du Saguenay,Loisir,,205,Rue Turgeon,HÃ©bertville,Qc,G8N1R6,(418)344-4252,,
1971,Club Quad Aventure Valin,Plein air,www.clubquadaventurevalin.com,,Boul. Ste-GeneviÃ¨ve,Chicoutimi,QuÃ©bec,G7G0J9,(418)718-1818,,
1108,Club Quad du Fjord,Plein air,clubquaddufjord.ca,2084,Boul. St JeanBaptiste,chicoutimi,quÃ©bec,G7H7W1,(418)815-0538,,
79,Club quad Saguenay,Plein air,www.clubquadsaguenay.com,2046,Mousseau,Jonquiere,QuÃ©bec,G8A1E4,(418)547-7250,(418)818-5066,
931,Club radio-amateur baieriverain CRAB,Loisir,http://www.raqi.ca/va2bca,3022,Rue Wilfrid-Simard,La Baie,QuÃ©bec,G7B4C2,,,
1011,Club social anÃ©es,Loisir,,2013,fortier,JonquiÃ¨re,QuÃ©bec,g7xak3,(418)547-1217,,
316,ComitÃ© civil de l'Escadrille 634 de JonquiÃ¨re inc.,Loisir,escadron634.com,3507,Boulevard Saint-FranÃ§ois,JonquiÃ¨re,QuÃ©bec,G7X2W5,(418)547-9745 ext.0,(0)- ext.0,(0)-
2620,ComitÃ© de citoyens pour l'amÃ©lioration du transport en commun au Saguenay,Action communautaire,https://www.facebook.com/BusoSaguenay/?modal=admin_todo_tour,578,Rue De Quen,Chicoutimi,QuÃ©bec,G7J1P3,(418)376-6379,(581)654-1337,
2494,ComitÃ© de soutien DMLA (Saguenay),Action communautaire,,310,LÃ©on,Saint-HonorÃ© de Chicoutimi,QuÃ©bec,G0V1L0,(418)673-4388,,
976,ComitÃ© des loisirs des Trois paliers inc.,Loisir,,1477,Rue du Bois-de-Boulogne,Chicoutimi,QuÃ©bec,G7J4J4,(415)438-595,(418)376-4942,
982,ComitÃ© des loisirs du quartier des oiseaux,Loisir,,1611,Rue des Martinets,Chicoutimi,QuÃ©bec,G7H5X9,,,
975,ComitÃ© des loisirs Plateau des SaguenÃ©ens de Chicoutimi,Loisir,,530,Rue Jules-Verne,Chicoutimi,QuÃ©bec,G7J4S2,,,
971,ComitÃ© des loisirs Saint-Paul inc.,Loisir,,39,Place des Copains,Chicoutimi,QuÃ©bec,G7K1B3,,,
972,"ComitÃ© des loisirs St-Nom-de-JÃ©sus, de Chicoutimi",Loisir,,998,Rue du SacrÃ©-Coeur,Chicoutimi,QuÃ©bec,G7H1M2,,,
970,ComitÃ© des loisirs St-Pierre inc.,Loisir,,2952,Rang Saint-Pierre,Chicoutimi,QuÃ©bec,G7H0E7,(418)549-1272,,
968,ComitÃ© des loisirs Victor Guimond inc.,Loisir,,519,Rue Verlaine,Chicoutimi,QuÃ©bec,G7J4C3,,,
1502,ComitÃ© Enfaim,Action communautaire,www.comiteenfaim.com,150,Rue Racine Est,Chicoutimi,QuÃ©bec,G7H5C2,(418)545-2222,,
1382,CommunautÃ© mÃ©tisse du domaine du Roy et de la seigneurie de Mignan,Action communautaire,metisroymingan.ca,129,Rue Jacques-Cartier Est,Chicoutimi,QuÃ©bec,G7H1Y4,(418)543-0555,,
2413,Compagnes et compagnons de passage,Action communautaire,,1155,Rue Warren,Chicoutimi,QuÃ©bec,G7J4A3,,,
2535,Concours d'histoire Raymond-LabontÃ©,Art et culture,https://concours-histoire.cegepjonquiere.ca,2679,Boulevard du Royaume,JonquiÃ¨re,QuÃ©bec,G7S5T1,(418)548-7075,(581)882-6909,(418)548-7992
459,Conseil central du Saguenay-Lac-Saint-Jean de la SociÃ©tÃ© Saint-Vincent-de-Paul - conseil particulier JonquiÃ¨re/KÃ©nogami (M),Action communautaire,clairedelasablonniere@gmail.com,4042,Rue Chardin,JonquiÃ¨re,QuÃ©bec,G7Z1H8,(416)954-534 ext.0,(418)817-7309 ext.0,(0)-
456,Conseil central du Saguenay-Lac-Saint-Jean de la SociÃ©tÃ© Saint-Vincent-de-Paul - conseil particulier La Baie (M),Action communautaire,www.facebook.com/St-Vincent de Paul la Baie,1853,Rue des Bouleaux,La baie,QuÃ©bec,G7B3V9,(418)544-8607,(418)944-0778,
954,Conseil des arts de Saguenay,Hors catÃ©gorie,www.conseildesartssaguenay.com,6166,Rue Notre-Dame,LaterriÃ¨re,QuÃ©bec,G7N1A1,(418)698-3000 ext.4192,,(418)678-2647
951,Conseil rÃ©gional de la culture Saguenay-Lac-St-Jean,Art et culture,http://culturesaguenaylacsaintjean.ca/,260,Rue Racine Est,Chicoutimi,QuÃ©bec,G7H1R9,(418)812-7294,(418)662-6623 ext.223,
949,Conservatoire de Musique de Saguenay,Hors catÃ©gorie,www.conservatoire.gouv.qc.ca,202,Rue Jacques-Cartier Est,Chicoutimi,QuÃ©bec,G7H6R8,(418)698-3505,,(418)698-3521
68,Contact Nature RiviÃ¨re-Ã -Mars,Plein air,www.contact-nature.ca,7400,Chemin des Chutes,La Baie,QuÃ©bec,G7B3N8,(418)697-5132,,(418)697-5136
943,Corporation Centre-Ville d'Arvida,ÃvÃ©nements,https://cvs.saguenay.ca/arvida/entreprises/corporation-centre-ville-darvida/,2850,Place Davis,JonquiÃ¨re,QuÃ©bec,G7S2C5,,,
926,Corporation Centre-Ville de La Baie,ÃvÃ©nements,cvssaguenay.ca,422,Rue Victoria,La Baie,QuÃ©bec,G7B3M4,(418)698-3157 ext.6084,,
945,Corporation de dÃ©veloppement communautaire des Deux-Rives,Action communautaire,www.cdc2rives.org,2505,Rue Saint-Hubert,JonquiÃ¨re,QuÃ©bec,G7X7W2,(418)547-9351,,
944,Corporation de dÃ©veloppement communautaire du Roc,Action communautaire,cdcduroc.com,508,Rue Saint-Augustin,Chicoutimi,QuÃ©bec,G7J2J9,(418)696-2188,,
934,"Corporation des loisirs Hamel, Fradette et Gobeil inc.",Loisir,,143,Rue d'Anjou,Chicoutimi,QuÃ©bec,G7H6E9,,,
91,Corporation des loisirs St-Antoine de Chicoutimi,Loisir,Aucun,815,Rue Hertel,Chicoutimi,QuÃ©bec,G7J3Z8,,,
933,Corporation des loisirs Ste-Claire de Chicoutimi,Loisir,,441,Rue de Courcelette,chcioutimi,QuÃ©bec,G7G4M1,(418)376-6427,,
932,Corporation des loisirs Sydenham,Loisir,https://www.facebook.com/parcmurdock/,843,Rue Bouchette,Chicoutimi,QuÃ©bec,G7H2S9,,,
930,Corporation des mÃ©tiers d'arts du Saguenay-Lac-Saint-Jean,Art et culture,www.metiersdartsaglac.com,165,Rue Racine Est,Chicoutimi,QuÃ©bec,G7H1R5,(418)698-3200 ext.6719,,
1857,Corporation du parc de la RiviÃ¨re du Moulin,Plein air,,1577,Rue des Roitelets,Chicoutimi,QuÃ©bec,G7H0K8,(418)698-3235,,
1243,Corporation du Parc RÃ©gional du Lac KÃ©nogami,Plein air,www.cprlk.wordpress.com,3110,Boulevard Martel,Saint-HonorÃ©,QuÃ©bec,G0V1L0,,,
1206,Coupe des nations - Ville Saguenay,ÃvÃ©nements,www.grandprixcyclistesaguenay.com,837,rue RÃ©mi Meunier,Roberval,QuÃ©bec,G8H3K1,(418)637-6372,,
1683,Couture pour les missions,Loisir,,6166,Rue Notre-Dame,LaterriÃ¨re,QuÃ©bec,G7N1A1,,,
52,CPV Les Ãlans de JonquiÃ¨re,Sport,http://cpvelansjonquiere.ca,4959,Chemin St-Ãloi,JonquiÃ¨re,QuÃ©bec,G7X7V4,(418)376-6447,(418)693-3300 ext.236,
1320,Deuil 02,Action communautaire,WWW.deuil02passage.org,497,Rue Racine Est,Chicoutimi,QuÃ©bec,G7H1T8,(418)602-1388,(581)234-9448,
1142,DiabÃ¨te Saguenay-Lac-Saint-Jean,Action communautaire,diabetesaguenaylacsaintjean.org,2208,Rue Roussel,Chicoutimi,QuÃ©bec,G7G1W7,(418)376-5559,,
907,Diffusion Saguenay inc.,Art et culture,www.diffusion.saguenay.ca,534,Rue Jacques-Cartier Est,Chicoutimi,QuÃ©bec,G7H1Z6,(418)698-3334 ext.6603,,(418)698-4081
2554,DiversitÃ© 02,Action communautaire,http://diversite02.ca/,260,"Rue Racine Est, suite 101",Chicoutimi,QuÃ©bec,G7H1R9,(581)447-2211,(581)882-2838,
1942,Ãco-Kartier du centre-ville de Chicoutimi,Action communautaire,www.eco-kartier.org,129,Rue Jacques-Cartier Est,Chicoutimi,QuÃ©bec,G7H2J3,(418)820-9472,,
901,Ãcole de danse SMG inc.,Art et culture,www.ecoledansesmg.com,,Rue du Roi-Georges,JonquiÃ¨re,QuÃ©bec,G7X7X7,(418)542-1283,(581)306-2667,
1442,Ãcole de judo ju-shin-kan LaterriÃ¨re,Sport,judolaterriere.com,6197,Rue Notre-Dame,LaterriÃ¨re,QuÃ©bec,G7N1P7,(418)698-3000 ext.6764,,
892,Ãcole de musique et de solfÃ¨ge de Chicoutimi inc.,Art et culture,www.ecoledemusiquechicoutimi.com,534,Rue Jacques-Cartier Est,Chicoutimi,QuÃ©bec,G7H1Z6,(418)543-1902,,
902,Ãcole Florence Fourcaudot Spirale Expression Danse,Art et culture,www.fourcaudot.com,2034,Boulevard de Tadoussac,Chicoutimi,QuÃ©bec,G7G1K7,(418)696-4333,,
891,Ãcole nationale d'apprentissage par la marionnette,Action communautaire,www.enamsaguenay.ca,870,Rue Boily,Chicoutimi,QuÃ©bec,G7J2Y4,(418)549-6262,,
1392,En aoÃ»t on fÃªte LaterriÃ¨re,ÃvÃ©nements,,6197,Rue Notre-Dame,LaterriÃ¨re,QuÃ©bec,G7N1P7,(418)698-3000 ext.6760,,
888,Ensemble folklorique des Farandoles de Chicoutimi inc.,Art et culture,www.lesfarandoles.com,534,Rue Jacques-Cartier Est,Chicoutimi,QuÃ©bec,G7H1Z6,(418)549-4777,,
725,Entre-Ãtres,Action communautaire,www.entreetres.com,2811,Boulevard du Saguenay,Saguenay,QuÃ©bec,G7S1X7,(418)548-5349,,
620,Ãquijustice Saguenay,Action communautaire,equijustice.ca,152,Racine Est,Chicoutimi,QuÃ©bec,G7H5B7,(418)698-2400,,(418)698-5977
1086,EQUIPE DE HOCKEY MIDGET DEVELOPPEMENT AAA DU SAGUENAY-LAC ST-JEAN INC.,Sport,https://elites.liguemidgetaaa.ca/,5493,chemin st-anicet,la baie,QuÃ©bec,g7b0j5,(418)540-0741,,
2042,Escadrilles canadiennes de plaisance,Plein air,www.nautisme.ca,3800,Chemin de la Bonne-Humeur,LaterriÃ¨re,QuÃ©bec,G7N1B6,(418)696-4018,,
322,Espace CÃ´tÃ©-Cour,Art et culture,www.cotecour.ca,4014,Rue de la Fabrique,JonquiÃ¨re,QuÃ©bec,G7X3N1,(418)542-1376,,
1145,EURÃKO !,Plein air,eureko.ca,397,Rue Racine Est,Chicoutimi,Quebec,G7H1S8,(418)545-9245,,
424,Expo agricole de Chicoutimi inc.,ÃvÃ©nements,www.expoagricoledechicoutimi.com,350,Boulevard de l'UniversitÃ© Est,Chicoutimi,QuÃ©bec,G7H5B7,(418)545-8597,,(418)545-9243
839,FADOQ La Jouvence Lac KÃ©nogami,Loisir,S.o.,4444,Chemin des Erables lac kÃ©nogami,Saguenay,QuÃ©bec,G7X7V6,(418)695-3717,(418)695-4717,
2098,Festival bateaux dragons Saguenay,ÃvÃ©nements,https://www.evenements2m.com/festival-bateaux-dragons-saguenay,3891,Rang Saint-Paul,Chicoutimi,QuÃ©bec,G7H0G7,(418)376-6092,,
854,Festival de jazz et blues HÃ©ritage,Art et culture,www.jazzetblues.com,460,Rue Racine Est,Chicoutimi,QuÃ©bec,G7H1T7,(418)817-4529,,
864,Festival de musique du Royaume inc.,Art et culture,www.festivalduroyaume.com,165,"Rue Racine Est, C.P 8335",Chicoutimi,QuÃ©bec,G7H1R7,(418)698-3000 ext.6560,,(418)698-3438
2156,Festival des biÃ¨res du monde 2010,ÃvÃ©nements,http://bieresdumonde.ca/,459,Rue Racine Est,Saguenay,QuÃ©bec,G7H1T5,(418)812-9292,(418)545-1115,(418)545-0333
863,Festival des musiques de crÃ©ation du Saguenay-Lac-Saint-Jean inc.,Art et culture,www.fmcslsj.com,4018,Rue de la Fabrique,JonquiÃ¨re,QuÃ©bec,G7X3N1,(418)547-2904,,
1060,Festival des vins de Saguenay,ÃvÃ©nements,www.festivinsaguenay.ca,460,Rue Racine Est,Chicoutimi,QuÃ©bec,G7H1T7,(418)603-0883,,
855,Festival international des rythmes du monde,Art et culture,www.bieresdumonde.ca,459,Rue Racine Est,Chicoutimi,QuÃ©bec,G7H1T5,(418)545-1115,,(418)545-0333
852,FÃªte des saveurs et trouvailles,ÃvÃ©nements,http://www.saveursettrouvailles.com/,5505,Boulevard du Royaume - numÃ©ro 80,JonquiÃ¨re,QuÃ©bec,G7X7V5,(418)290-7114,,
838,Fondation pour l'Ã©lite baieriveraine,Hors catÃ©gorie,,4171,Boulevard de la Grande-Baie Sud,La Baie,QuÃ©bec,G7B1H1,,,
830,Fondation TIMI inc.,Hors catÃ©gorie,,201,Rue Price Ouest,Chicoutimi,QuÃ©bec,G7J3K3,,,
818,Groupe ArtÃ©misia,Art et culture,,2317,Rue Mathias,JonquiÃ¨re,Quebec,G7S3v8,(418)548-5797,(418)550-5797,
818,Groupe ArtÃ©misia,Art et culture,,2211,Chemin Bouchard,Shipshaw,Quebec,G1P1V8,(418)695-6471,,
721,Groupe de ressources pour le trouble de panique et autres troubles anxieux G.R.T.P.,Action communautaire,www.grtp02.com,2327,Rue LÃ©vesque,JonquiÃ¨re,QuÃ©bec,G7S3T4,(418)548-2936 ext.101,,(418)548-5435
76,Groupe des Ãcorceurs,Plein air,www.anse-a-benjamin.com,822,chemin de l'Anse Ã  Benjamin,La Baie,QuÃ©bec,G7B3P5,(418)690-6535,(418)540-5614,
2539,Groupe Inclusia,Hors catÃ©gorie,groupeinclusia.com,2455,rue Cantin,JonquiÃ¨re,QuÃ©bec,G7X8s7,(418)548-3445,,(418)548-3717
35,Groupe nature animÃ©e inc. (Le),Loisir,http://groupenatureanimee.blogspot.com,,,Chicoutimi,QuÃ©bec,G7H5C2,(418)698-3896,,
84,Groupe photo mÃ©dia international inc.,Art et culture,www.zoomphotofestival.ca,300,Rue Dubuc,Chicoutimi,QuÃ©bec,G7J4M1,(418)540-9506,,
442,Groupe scouts secteur Chicoutimi (district Saguenay),Loisir,,172,Rue des Oblats Ouest,Chicoutimi,QuÃ©bec,G7J2A8,(418)698-5369,,
718,Groupement des organismes des personnes handicapÃ©es du Saguenay,Action communautaire,www.gophs.org,138,Rue Price Ouest,Chicoutimi,QuÃ©bec,G7J1G8,(418)545-6228,,(418)545-7271
717,Guilde Â«Les courtepointiÃ¨res du SaguenayÂ»,Loisir,https://www.facebook.com/Les-CourtepointiÃ¨res-du-Saguenay,1068,Rue Beauregard,Chicoutimi,QuÃ©bec,G7H1N7,,,
712,Harmonie Saguenay Inc.,Loisir,,123,rue de la Providence,Anse-Saint-Jean,QuÃ©bec,G0V1J0,,,
69,HERITAGE SPORTIF 1983,Loisir,centremultisportlabaie.com,990,Rue AimÃ©-Gravel,La Baie,QuÃ©bec,G7B2M4,(418)697-5112,,(418)697-9050
2419,Homme QuÃ©bec (H.Q.) - Saguenay - Lac-St-Jean,Action communautaire,http://hommesquebec.ca,3713,Rue de Vienne,JonquiÃ¨re,QuÃ©bec,G7X4J4,,,
1087,Institut judo Chicoutimi,Sport,www.judochicoutimi.com,799,Rue Marie-Victorin,Chicoutimi,QuÃ©bec,G7H2L1,,,
703,IntÃ©grAction La Baie,Action communautaire,www.facebook.com/integractionlabaie,1331,2e Avenue,La Baie,QuÃ©bec,G7B1M6,(418)477-8777,,
702,Interassociation des personnes handicapÃ©es du Saguenay,Action communautaire,www.lavilla.ca/inter,138,Rue Price Ouest,Chicoutimi,QuÃ©bec,G7J1G8,(418)545-9453,,(418)545-7271
624,JonquiÃ¨re en musique inc.,Art et culture,www.jonquiereenmusique.com,3865,Rue du Roi-Georges,JonquiÃ¨re,QuÃ©bec,G7X9K7,(418)542-2101,,(418)542-7998
1353,JonquiÃ¨re-MÃ©dic inc.,Hors catÃ©gorie,http://www.jonquieremedic.com/,2354,Rue Saint-Dominique,JonquiÃ¨re,QuÃ©bec,G7X7W6,(418)546-2108,,
621,JoujouthÃ¨que Saguenay,Action communautaire,,1477,Rue des erables,Chicoutimi,QuÃ©bec,G7H1E6,(418)944-8897,,
1296,Journal au courant du lac,Hors catÃ©gorie,https://aucourantdulac-95.webself.net/,3000,Chemin de l'Ãglise,Lac KÃ©nogami,QuÃ©bec,G7X0H9,(418)817-2403,(418)542-1277,
1629,Journal la vie d'ici,Hors catÃ©gorie,http://laviedici.com/,1189,Blvd Barrette,Chicoutimi,QuÃ©bec,g7j0g1,(418)973-0716,(418)290-8846,
228,L' Association des Centres-Villes de Chicoutimi inc.,ÃvÃ©nements,https://cvs.saguenay.ca/chicoutimi/,152,"rue Racine Est, C.P. 8131",Chicoutimi,QuÃ©bec,G7H5b5,(418)693-5126,(418)602-0883,
90,L'AcadÃ©mie de Danse du Saguenay inc.,Art et culture,www.academiedanse.ca,534,Rue Jacques-Cartier Est,Chicoutimi,QuÃ©bec,G7H1Z6,(418)549-2835,,(418)548-0812
117,L'Association fÃ©minine d'Ã©ducation et d'action sociale - AFÃAS locale St-Dominique,Loisir,,3795,Panet,JonquiÃ¨re,QuÃ©bec,G7X3V9,(418)547-4015,(418)815-7007,
126,L'Association fÃ©minine d'Ã©ducation et d'action sociale - AFÃAS locale St-Jean-Vianney,Loisir,non mais nous avons un facebook et il est possible de nous servir du site Web du journal La Vie d'Ici si nous avons de l'information Ã  donner aux membres.,4100,Rue des Ormes,Shipshaw,QuÃ©bec,G7P1B4,(418)698-3000 ext.6767,,
128,L'Association fÃ©minine d'Ã©ducation et d'action sociale - Afeas locale St-Luc,Loisir,afeas.qc.ca,97,Rue St-Etienne,Chicoutimi-Nord,QuÃ©bec,G7G5G8,(418)549-0418,,
119,L'Association fÃ©minine d'Ã©ducation et d'action sociale - AFÃAS locale Ste-Claire,Loisir,nicophil@videotron.ca,101,Rue Solange,Chicoutimi,QuÃ©bec,G7G4M6,(418)690-0634,,
1294,L'association QuÃ©bec-France--Saguenay-Lac-Saint-Jean,Loisir,association quebec-france-saguenay,2005,Bellerive,JonquiÃ¨re,QuÃ©bec,G7X8H7,(418)592-7945,,
899,L'Ã©cole de musique de La Baie inc.,Art et culture,http://www.ecoledemusiquelabaie.ca/,3346,Boulevard de la Grande-Baie Sud,La Baie,QuÃ©bec,G7B1G2,(418)697-5082,,(418)697-5079
881,L'Ensemble vocal du Fjord,Loisir,www.facebook.com/ensemblevocaldufjord,4073,Rue Morin,JonquiÃ¨re,QuÃ©bec,G8A1a5,(418)542-3004,,
594,L'Institut des arts au Saguenay,Art et culture,www.centrenationalexposition.com,4160,Rue du Vieux-Pont,JonquiÃ¨re,QuÃ©bec,G7X7W4,(418)546-2177,(418)698-3200 ext.4601,(418)546-2180
786,L'Oeuvre de l'Autre,Art et culture,www.uqac.ca/galerie,555,Boulevard de l'UniversitÃ© Est,Chicoutimi,QuÃ©bec,G7H2B1,(418)545-5011 ext.4718,,
295,L'Organisme Les Apprentis,Action communautaire,www.apprentis-org.com,1331,2e Avenue,La Baie,QuÃ©bec,g7b1m6,(418)697-6555,,(418)697-6555
280,L.A.S.T.U.S.E. du Saguenay (lieu d'Actions et de Services Travaillant dans l'UnitÃ© avec les Sans-Emploi),Action communautaire,www.lastuse.ca,94,Rue Jacques-Cartier Est,Chicoutimi,QuÃ©bec,G7H1Y3,(418)543-3569,(418)543-3350,(418)543-3569
312,La BoÃ®te Rouge Vif,Art et culture,www.laboiterougevif.com,555,Boulevard de l'UniversitÃ© Est,Chicoutimi,QuÃ©bec,G7H2B1,(418)545-5523,,
750,La Corporation du MusÃ©e du Saguenay-Lac-Saint-Jean et du site de La Pulperie,Art et culture,www.pulperie.com,300,Rue Dubuc,Chicoutimi,QuÃ©bec,G7J4M1,(418)698-3100,(187)799-83100,(418)698-3158
922,La corporation les Adolescents et la Vie de Quartier de Chicoutimi,Action communautaire,www.avqc.ca,36,Rue Jacques-Cartier Est,Chicoutimi,QuÃ©bec,G7H1W2,(418)549-7272,,(418)549-7212
837,La Fondation de ma Vie,Hors catÃ©gorie,http://www.fondationdemavie.qc.ca,305,Rue Saint-Vallier,Chicoutimi,QuÃ©bec,G7H5H6,(418)541-1005,,(418)541-1124
2558,La ligue de bridge St-Laurent Sag-Lac inc.,Loisir,www.fqjr.qc.ca/bridge/lbsl/,80,Rue de La Rochelle,Chicoutimi,QuÃ©bec,G7H5M6,(418)543-6476,(418)812-6476,
871,La ligue des cadet de l'air du Canada QuÃ©bec - Escadron 657 de La Baie,Loisir,Escadron 657 (Facebook),1802,Avenue John-Kane,La Baie,QuÃ©bec,G7B3P5,(418)544-2843 ext.4782,,
870,La ligue des cadets de l'air du Canada QuÃ©bec - Escadron 799,Loisir,https://sites.google.com/site/escadron799/,,Rue Racine Est,Chicoutimi,QuÃ©bec,G7H5C2,(418)698-5185 ext.6447,,
916,La ligue des cadets de l'armÃ©e du Canada (QuÃ©bec) - Corps de cadets 0221 Chicoutimi,Loisir,https://fr-ca.facebook.com/cadets221chicoutimi/,8066,Case postale,Chicoutimi,QuÃ©bec,g7H5B5,(418)615-0083 ext.6374,,
317,La ligue des cadets de l'armÃ©e du Canada (QuÃ©bec) - Corps de cadets 2646 JonquiÃ¨re,Loisir,www.cc2646.com,3507,Boulevard Saint-FranÃ§ois,JonquiÃ¨re,QuÃ©bec,G7X2W5,(418)690-6752,(418)720-3115,
915,La ligue des cadets de l'armÃ©e du Canada (QuÃ©bec) - Corps des cadets 2869 de LaterriÃ¨re,Loisir,Cocajent (Corps de Cadet 2869 LaterriÃ¨re),6166,Rue Notre-Dame,LaterriÃ¨re,QuÃ©bec,G7N1A1,(418)698-3000 ext.6355,,
564,La Maison d'hÃ©bergement Le SÃ©jour inc.,Action communautaire,www.hebergementlesejour.ca,2229,De l'HÃ´pital,JonquiÃ¨re,QuÃ©bec,G7X4H7,(418)547-8611,,(418)547-4877
302,La Maison d'un Nouvel Ãlan inc.,Action communautaire,www.mnelan.com,1969,Rue Price,JonquiÃ¨re,QuÃ©bec,G7X5S2,(418)695-6026,,(418)695-3125
2549,La Maison de soins palliatifs du Saguenay,Hors catÃ©gorie,mspsaguenay.ca,1845,Rue DeschÃªnes,JonquiÃ¨re,QuÃ©bec,G7S4T8,(418)696-1176 ext.201,(418)696-1176 ext.203,(418)696-5999
573,La Maison des familles de Chicoutimi,Action communautaire,www.maisondesfamilleschicoutimi.com,700,Rue BÃ©gin,Chicoutimi,QuÃ©bec,G7H7Y6,(418)698-3057,,(418)698-5386
571,La Maison des jeunes de JonquiÃ¨re inc.,Action communautaire,www.mdjjonquiere.org,2320,Rue Poitras,JonquiÃ¨re,QuÃ©bec,G7S3S4,(418)548-9608,(418)699-6064,(418)548-9608
568,La Maison des jeunes de LaterriÃ¨re inc.,Action communautaire,maisondesjeunesdelaterriere.e-monsite.com,882,Rue du Boulevard,LaterriÃ¨re,QuÃ©bec,G7N1H7,(418)678-9079 ext.0,(0)- ext.0,(0)-
562,La Maison ISA - Centre d'aide et de lutte contre les agressions Ã  caractÃ¨re sexuel,Action communautaire,www.maisonisa.com,310,Rue Saint-Vallier,Chicoutimi,QuÃ©bec,G7H4J1,(418)545-6444,,(418)545-3596
2495,La Noce Saguenay,Art et culture,lanoce.net,3732,Chemin de l'Ãglise,LaterriÃ¨re,QuÃ©bec,G7N0B1,(418)615-8528,,
2439,La nuit des choeurs Ã  Saguenay,Loisir,,700,Chemin du Littoral,Chicoutimi,QuÃ©bec,G7H0H9,,,
97,La Rubrique inc.,Art et culture,www.theatrelarubrique.com et www.fiams.com,4160,Rue du Vieux-Pont - C.P. 23,JonquiÃ¨re,QuÃ©bec,G7X7V8,(418)542-5521,,(418)542-4382
910,La SociÃ©tÃ© canadienne de la Croix Rouge,Hors catÃ©gorie,croixrouge.ca,6,Place du commerce,MontrÃ©al,QuÃ©bec,H3E1P4,(514)362-2930,,
419,La SociÃ©tÃ© de GÃ©nÃ©alogie du Saguenay,Loisir,www.sgsaguenay.ca,700,Rue Racine Est,Chicoutimi,QuÃ©bec,G7H1V2,(418)693-8266,,
417,La SociÃ©tÃ© de Gestion de la Zone Portuaire de Chicoutimi inc.,Hors catÃ©gorie,www.zoneportuaire.com,49,Rue La Fontaine,Saguenay (arr. Chicoutimi),Quebec,G7H5B7,(418)698-3025,,(418)698-3028
416,La SociÃ©tÃ© de l'Ordre du bleuet,Art et culture,www.ordredubleuet.com,1557,Rue des Engoulevents,Chicoutimi,QuÃ©bec,G7H5R7,(418)549-6009,,
1248,La sociÃ©tÃ© St-Vincent de Paul conseil particulier de Chicoutimi,Action communautaire,aucun,216,Rue des Oblats Ouest,Chicoutimi,QuÃ©bec,G7J2B1,,,
409,La Soupe populaire de Chicoutimi inc.,Action communautaire,,426,Rue du Havre,Chicoutimi,QuÃ©bec,G7H1N5,,,
406,La SoupiÃ¨re de JonquiÃ¨re,Action communautaire,La SoupiÃ¨re de JonquiÃ¨re,,,JonquiÃ¨re,QuÃ©bec,G7X7W6,(418)550-2516,(418)547-0976,
2560,La Table de la sÃ©curitÃ© alimentaire de JonquiÃ¨re,Action communautaire,tsaj.ca,2227,de Montfort,JonquiÃ¨re,QuÃ©bec,G7X4P6,(418)815-5126,,
403,La Tortue Noire,Art et culture,www.latortuenoire.com,165,Rue Racine Est,Chicoutimi,QuÃ©bec,G7H5B8,(418)698-3403,,
1288,Le 15 km des Pichous,ÃvÃ©nements,http://www.pichous.com/,1923,Rue des Hiboux,Chicoutimi,QuÃ©bec,G7H7S3,,,
1100,Le centre alpha de La Baie et du Bas-Saguenay,Action communautaire,www.abc02,802,Boulevard de la Grande-Baie Nord,La Baie,QuÃ©bec,G7B3K7,(418)697-0046,,(418)544-2459
532,Le Centre communautaire Horizon 3e Ã¢ge Chicoutimi,Loisir,,2148,Rue Roussel,Chicoutimi,QuÃ©bec,G7G1W5,(418)545-8317,,(418)602-1377
697,Le Choeur Dal Segno,Loisir,,1,Chemin Morin Sud,Saint-Ambroise,QuÃ©bec,G7P2Y4,(418)547-0194,,
731,Le choeur PrÃ©lude inc.,Loisir,,2272,Rue Saint-Simon,JonquiÃ¨re,QuÃ©bec,G7X6E7,(418)547-1387,,
806,Le Club amitiÃ©s-loisirs de l'Ã¢ge d'or St-Laurent de JonquiÃ¨re ,Loisir,,4625,Rue Gilbert,Lac KÃ©nogami,QuÃ©bec,G7X7V6,(418)542-8125,,
879,Le Club d'Ã¢ge d'or SÃ©rÃ©nitÃ©,Loisir,,2975,Boulevard Saint-Jean-Baptiste,Chicoutimi,QuÃ©bec,G7H7S9,(418)545-1108,,
448,Le club d'Ã¢ge d'or Â«Les SagesÂ» de St-Philippe de JonquiÃ¨re,Loisir,club d'age d'or Â«les sages Â» de st-philippe ,3813,Rue de Beauvais,JonquiÃ¨re,QuÃ©bec,G7X8A2,,,
984,Le ComitÃ© des loisirs de Pibrac,Loisir,N/D,3078,Rue Saint-Dominique,JonquiÃ¨re,QuÃ©bec,G7Y1B2,(418)542-1020,,
2397,Le DÃ©luge,Art et culture,www.ledelugefest.com,3583,Rue du Roi-Georges,JonquiÃ¨re,QuÃ©bec,G7x1v4,(418)592-7636,,
711,Le Havre du Fjord inc.,Action communautaire,www.havredufjord.com,2187,Rue Bonneau,Saguenay,QuÃ©bec,G7S4B3,(418)548-0071,,(418)548-0073
583,Le Lobe,Art et culture,www.lelobe.com,114,Rue BossÃ©,Chicoutimi,QuÃ©bec,G7J1L4,(418)690-3182,,(418)690-3182
1411,LE MAILLON,Action communautaire,http://www.lemaillon.com/,232,Rue Tessier,Chicoutimi,QuÃ©bec,G7H4Z6,(418)543-3463,,(418)543-3531
774,Le Patro de JonquiÃ¨re inc.,Action communautaire,www.patrojonquiere.org,2565,Rue Saint-Dominique,JonquiÃ¨re,QuÃ©bec,G7X6J6,(418)542-7536,,(418)542-5352
754,Le Prisme culturel inc.,Art et culture,www.prismeculturel.com,565,avenue de la coopÃ©rative,Saint-Bruno,QuÃ©bec,G0W2L0,(418)212-8022,,(418)212-8022
753,Le prix littÃ©raire Damase Potvin,Art et culture,www.damase-potvin.com,1911,6e Avenue,La Baie,QuÃ©bec,G7B1S1,(418)698-3000 ext.4266,,(418)697-5087
729,Le rendez-vous musical de LaterriÃ¨re Ã  saveur rÃ©gionale,Art et culture,www.rendezvousmusical.com,462,Rue De Tilly,Chicoutimi,QC,G7H4E3,(418)817-4187,,
446,Le Salon du livre du Saguenay-Lac-St-Jean,Art et culture,www.salondulivre.ca,,"2675, boul. du Royaume",JonquiÃ¨re,QuÃ©bec,G7X7W4,(418)542-7294,(418)815-1824,(418)542-3525
613,"LÃ©gion royale canadienne Succ. 209, Arvida",Loisir,legion209arvida.com,2691,Rue De La Salle,JonquiÃ¨re,QuÃ©bec,G7S2A8,(418)548-6732,,
579,Les artistes de la Maestria,Art et culture,http://www.lamaestria.ca/,92,Rue Monfette,Chicoutimi,QuÃ©bec,G7H5T9,(418)545-1950,(418)698-6018,
286,Les ateliers d'arts plastiques de JonquiÃ¨re,Art et culture,artsjonquiere.org,2180,Rue Burma,JonquiÃ¨re,QuÃ©bec,G7S2Y1,(418)699-6194,,(418)699-6194
291,Les bÃ©nÃ©voles du Carrefour de santÃ© de JonquiÃ¨re,Action communautaire,,2230,Rue de l'HÃ´pital,JonquiÃ¨re,QuÃ©bec,G7X4H6,(418)695-7700,,
858,Les blÃ©s d'or de St-Antoine,Loisir,,1171,Rue de l'Estacade,Chicoutimi,QuÃ©bec,G7J4T3,,,
617,Les Cercles de FermiÃ¨res du QuÃ©bec - Chicoutimi,Loisir,s/o,239,Rue Blackburn,Chicoutimi,QuÃ©bec,G7H5V4,(418)545-1915,(418)557-0238,
623,Les cercles de fermiÃ¨res du QuÃ©bec - LaterriÃ¨re,Loisir,www.cfq.qc.ca,6166,Rue Notre-Dame,LaterriÃ¨re,QuÃ©bec,G7N1A1,(418)698-3000 ext.4193,,
628,Les cercles de fermiÃ¨res du QuÃ©bec - Shipshaw,Loisir,,1983,Rue de la Montagne,Shipshaw,QuÃ©bec,G7P1R4,(418)546-2382,(418)550-8901,
625,Les cercles de fermiÃ¨res du QuÃ©bec - St-Alexis - La Baie,Loisir,,3346,Boulevard de la Grande-Baie Sud,La Baie,QuÃ©bec,G7B1G2,(418)697-5080,,
625,Les cercles de fermiÃ¨res du QuÃ©bec - St-Alexis - La Baie,Loisir,,2443,Rue des Gadeliers,La Baie,QuÃ©bec,G7b4n9,(418)544-5898,,
626,Les cercles de fermiÃ¨res du QuÃ©bec - St-Alphonse - La Baie,Loisir,S/O,1331,2iÃ¨me avenue,La Baie,QuÃ©bec,G7B1M6,(418)944-8201,(418)306-5141,
627,Les cercles de fermiÃ¨res du QuÃ©bec - St-Antoine- JonquiÃ¨re-Nord,Loisir,cercle des fermiÃ¨res du quÃ©bec,821,MontÃ©e DuperrÃ©,JonquiÃ¨re,QuÃ©bec,G7X7V4,(418)547-6594,,
631,Les Cercles de fermiÃ¨res du QuÃ©bec - St-Rosaire - JonquiÃ¨re,Loisir,https://www.facebook.com/CercleStRosairedeJonquiere/,2664,rue St-Dominique,JonquiÃ¨re,QuÃ©bec,G7X6P4,(418)547-9215,(418)944-9215,
1295,Les classiques des sciences sociales,Art et culture,classiques.uqac.ca,159,Rue BeauprÃ©,Chicoutimi,QuÃ©bec,G7G4E5,,,
1064,Les Concerts de la Chapelle Saint-Cyriac,Art et culture,concertssaintcyriac.com,5618,Rue de la Chapelle,Lac KÃ©nogami,QuÃ©bec,G7X0H9,(418)542-0186,,
1071,Les Enfants comme les autres,Action communautaire,,3521,Rue du Roi-Georges,JonquiÃ¨re,QuÃ©bec,G7X1V6,(418)547-5910,,
874,Les Entreprises-Jeunesse inc.,Hors catÃ©gorie,www.entreprisesjeunesse.org,240,Rue BossÃ©,Chicoutimi,QuÃ©bec,G7J1L9,(418)698-1176 ext.244,,(418)543-9912
1643,Les Espoirs AA du Saguenay - Lac-St-Jean,Hors catÃ©gorie,espoirsaaa.lheq.ca,431,Rue du Sauvignon,Chicoutimi,QuÃ©bec,G7H0L6,(418)590-9118,,
821,Les Grandes veillÃ©es de La Baie,Art et culture,www.lesgrandesveillees.com,993,Rue Bagot,La Baie,QuÃ©bec,G7B2N6,(418)306-8723,(418)544-6342,
715,Les Habitations partagÃ©es du Saguenay,Action communautaire,www.habitationspartageessaguenay.com,2505,Rue Saint-Hubert,JonquiÃ¨re,QuÃ©bec,G7X7W2,(418)695-5577,,
699,Les Jardins du Coin L.J.C.,Action communautaire,www.lesjardinsducoin.com,129,Rue Jacques-Cartier Est,Chicoutimi,QuÃ©bec,G7H1Y4,(418)545-7347,,
701,"Les Jardins du Coin, Chicoutimi-Nord inc.",Action communautaire,www.jardinsducoin-chicoutiminord.com,230,Rue du Diamant,Chicoutimi,QuÃ©bec,G7G3Z5,(418)698-6117,,(418)602-1202
1755,Les Marquis de JonquiÃ¨re (LNAH),Hors catÃ©gorie,http://jonquiere.lnah.com/,1947,Rue Pellan,JonquiÃ¨re,QuÃ©bec,G7Z1R4,,,
2619,LES MARQUIS DE JONQUIÃRE 2019 (LNAH),Hors catÃ©gorie,,2315,Rue Pelletier,JonquiÃ¨re,QuÃ©bec,G7X6C2,,,
359,Les petits frÃ¨res des pauvres - Les petits frÃ¨res de Saguenay,Action communautaire,www.petitsfreres.ca/saguenay/,216,Rue des Oblats Ouest,Chicoutimi,QuÃ©bec,g7j2b1,(581)221-0743,,
755,Les Porteurs de musique,Art et culture,porteursdemusique.org,2955,Rue Geoffrion,JonquiÃ¨re,QuÃ©bec,G7S2K3,(418)550-5078,,
2237,Les Productions Nopal,ÃvÃ©nements,www.saguenayenfeu.com,4097,Rue Miro,JonquiÃ¨re,QuÃ©bec,G7Z0A3,(581)490-1958,,
1038,Les retraitÃ©s de l'Alcan Saguenay et Lac Saint-Jean inc.,Loisir,,659,5e Avenue,La Baie,QuÃ©bec,G7B1Y7,(418)544-0070,,
2077,Les RetraitÃ©s Unis Inc.,Loisir,,1190,Rue Lorenzo-Genest,Chicoutimi,QuÃ©bec,G7H6N9,(418)540-3997,,
440,Les Scouts 1er St-Dominique de JonquiÃ¨re,Loisir,,3699,Rue Saint-Michel,JonquiÃ¨re,QuÃ©bec,G7X2J1,(581)254-252,(418)944-8292,
788,Les Services d'intÃ©gration sociale Nouvel essor du Saguenay inc.,Action communautaire,nouvelessor.com,68,Rue Jacques-Cartier Ouest,Chicoutimi,QuÃ©bec,G7J1G1,(418)549-3614,,
41,Les Verts boisÃ©s du Fjord,Plein air,www.lvbf.org,122,Rue LabontÃ©,Chicoutimi,QuÃ©bec,G7k2k6,(418)973-4261,,
1280,LEUCAN Inc. - LEUCAN SAGUENAY,Action communautaire,https://www.leucan.qc.ca/fr/,475,Boulevard Talbot,Chicoutimi,QuÃ©bec,G7H4A3,(418)602-3385,,(418)602-0706
2317,Ligue d'improvisation de Saguenay et des environs,Loisir,https://www.facebook.com/ImproLise/?ref=br_rs,101,Rue Briand,Chicoutimi,QuÃ©bec,G7G1A3,(581)234-8716,,
914,Ligue navale du Canada division QuÃ©bec,Loisir,,,Racine Est,Chicoutimi,QuÃ©bec,G7H5B5,(418)673-7210,,
582,Local Jeunes Centre-Ville de Chicoutimi,Action communautaire,www.facebook.com/localjeunes.centreville.9,342,Rue du Havre,Chicoutimi,QuÃ©bec,G7H1N4,(418)696-6564,(418)944-2620,
2123,LOISIRS DU PARC IMO HABITAT 2000,Loisir,,649,Rue Gosselin,Chicoutimi,QuÃ©bec,G7J4K1,,,
566,Maison d'accueil et d'hÃ©bergement,Action communautaire,www.lachambree.com,,,JonquiÃ¨re,QuÃ©bec,G7X7W4,(418)547-7283,,(418)547-1876
578,Maison d'accueil pour sans-abri de Chicoutimi inc.,Action communautaire,fondationmlb.ca,299,Rue La Fontaine,Chicoutimi,QuÃ©bec,G7H4T7,(418)549-3510,,(418)543-7444
529,Maison d'hÃ©bergement le Rivage de La Baie inc.,Action communautaire,www.lerivagedelabaie.com,,Succursale A,La Baie,QuÃ©bec,g7b3r4,(418)544-4626,,(418)544-0489
563,Maison d'hÃ©bergement S.O.S. Jeunesse,Action communautaire,www.sosjeunesse.com,2196,Rue Bonneau,JonquiÃ¨re,QuÃ©bec,G7S4B2,(418)548-3870,,(418)548-1883
576,Maison de l'Espoir Saguenay-Lac-Saint-Jean inc.,Action communautaire,www.maisonespoir.com,3170,Chemin du Plateau Nord,La Baie,QuÃ©bec,G7B0G9,(418)545-9274,,(418)545-8358
575,Maison de Quartier de JonquiÃ¨re ,Hors catÃ©gorie,maisondequartier.org,3971,Rue du Vieux-Pont,JonquiÃ¨re,QuÃ©bec,G7X3M7,(418)542-8904 ext.26,,(418)542-1424
572,Maison des familles de La Baie,Action communautaire,maisondesfamillesdelabaie.com,864,Rue de la Fabrique,La Baie,QuÃ©bec,G7B2S8,(418)544-0222,,(418)544-2610
567,Maison des jeunes,Action communautaire,mdjchicoutimi.com,199,Rue Belleau,Chicoutimi,QuÃ©bec,G7H7S5,(418)698-3285,,(418)698-3284
570,Maison des jeunes de La Baie inc.,Action communautaire,,482,Rue Albert,La Baie,QuÃ©bec,G7B3L4,(418)697-5097,,
569,Maison des jeunes de Shipshaw,Action communautaire,,4100,Rue des Ormes,Shipshaw,QuÃ©bec,G7P1B4,(418)698-3000 ext.6770,,
803,Maison pour tous Saint-Jean-Eudes,Loisir,www.maisonpourtoussje.com,2182,Rue Bonneau,JonquiÃ¨re,QuÃ©bec,G7S4B2,(418)546-2040 ext.6704,,
1118,MicroEntreprendre Saguenay-Lac-Saint-Jean,Action communautaire,www.microentreprendre-saglac.ca,240,Rue BossÃ©,Chicoutimi,QuÃ©bec,G7J1L9,(418)698-1176 ext.244,,
1301,Mission Internationale des Marins au Saguenay,Action communautaire,,1694,Rue Sirois,La Baie,QuÃ©bec,G7B2S3,(418)544-3789,,
797,Moisson Saguenay-Lac-St-Jean inc.,Action communautaire,www.moissonslsj.org,1052,Rue Anthyme-Larouche,Chicoutimi,QuÃ©bec,G7H1L9,(418)698-8808,,(418)698-0641
1120,Mouvement d'Ã©ducation populaire et d'action communautaire du Saguenay-Lac-St-Jean-Chibougamau-Chapais,Action communautaire,www.mepac.qc.ca,2372,Rue Saint-Dominique,JonquiÃ¨re,QuÃ©bec,G7X6K8,(418)412-4545,,(418)412-4546
2307,Mouvement des associations gÃ©nÃ©rales Ã©tudiantes de l'UniversitÃ© du QuÃ©bec Ã  Chicoutimi (MAGE-UQAC),Action communautaire,www.mageuqac.com,555,Boulevard de l'UniversitÃ© Est,Chicoutimi,QuÃ©bec,G7H2B1,,,
791,MusÃ©e du Fjord,Art et culture,www.museedufjord.com,3346,boulevard de la Grande-Baie Sud,La Baie,QuÃ©bec,G7B1G2,(418)697-5077,(186)669-75077,(418)697-5079
787,Objectif scÃ¨ne,Art et culture,www.objectifscene.com,700,Rue Racine Est,Chicoutimi,QuÃ©bec,G7H1V2,(418)545-6015,(418)590-2218,
1106,Olympiques spÃ©ciaux QuÃ©bec Saguenay,Sport,www.olympiquesspeciauxquebec.ca,1259,Rue de la Pulpe,Chicoutimi,QuÃ©bec,G7J4X8,(418)812-3121,,
427,OpÃ©ra du Royaume,Art et culture,www.operaduroyaume.ca,700,Rue Racine Est,Chicoutimi,QuÃ©bec,G7H1V2,(418)545-2787,,
784,Orchestre des jeunes du Saguenay-Lac-Saint-Jean,Art et culture,www.lorchestre.org/jeunes,202,Rue Jacques-Cartier Est,Chicoutimi,QuÃ©bec,G7H6R8,(418)545-3409,,
783,Orchestre Harmonique de La Baie,Loisir,orchestreharmoniquelabaie.com,1112,Rue des Peupliers,La Baie,QuÃ©bec,G7B3E7,(418)590-1715 ext.0,(0)- ext.0,(0)-
782,Orchestre symphonique du Saguenay-Lac-St-Jean,Art et culture,www.lorchestre.org,202,Rue Jacques-Cartier Est,Chicoutimi,QuÃ©bec,G7H6R8,(418)545-3409,(0)-,(0)-
60,Organisation du baseball mineur de JonquiÃ¨re (O.B.M.J.) inc.,Sport,https://kreezee.com/baseball/organisation/baseball-mineur-jonquiere/8580,3507,Boulevard Saint-FranÃ§ois,JonquiÃ¨re,QuÃ©bec,G7X2W5,(418)698-3345 ext.6,,
1218,Organisme de bassin versant du Saguenay,Plein air,http://www.obvsaguenay.org/,397,Rue Racine Est,Saguenay,QuÃ©bec,G7H1S8,(418)973-4321,,
776,Palli-aide accompagnement en soins palliatifs du Saguenay inc.,Action communautaire,www.palliaide.com,110,Rue Racine Est,Chicoutimi,QuÃ©bec,G7H1R2,(418)690-0478,,(418)690-8932
2095,Panache (festival mode),ÃvÃ©nements,www.modepanache.com,459,Rue Racine Est,Chicoutimi,QuÃ©bec,G7H1T5,(418)545-1115,,
2095,Panache (festival mode),ÃvÃ©nements,www.modepanache.com,8092,,Chicoutimi,QuÃ©bec,G7H5B5,,,
1147,Parkinson Saguenay-Lac-Saint-Jean,Action communautaire,parkinson-slsj.ca,2208,rue Roussel,Chicoutimi,QuÃ©bec,G7G1W7,(418)973-7003,,
920,Partenaires Centre-Ville de JonquiÃ¨re (PCVJ) inc.,ÃvÃ©nements,cvs.saguenay.ca/jonquiere,2354,Rue Saint-Dominique,JonquiÃ¨re,QuÃ©bec,G7X7W7,(418)698-3000 ext.5623,,(418)695-7356
793,Patrimoine aÃ©ronautique Saguenay-Lac-St-Jean,Art et culture,www.museebagotville.ca,,,La Baie,QuÃ©bec,G0V1A0,,,
1107,Patrouille-secours Mont-Fortin,Plein air,,305,Rue de la Gaillarde,Chicoutimi,QuÃ©bec,G7G4V2,(581)306-4658,(418)545-1252 ext.221,
1824,Patrouilleurs vÃ©lo Saguenay,Loisir,Velorouteduhorst.ca,1955,des Roitelets,Chicoutimi,QuÃ©bec,G7H0J1,(418)820-7823,(418)540-1990,
973,Pavillon Bon-Air,Loisir,www.facebook.com/LoisirsQuartierStLuc,,Boulevard Sainte-GeneviÃ¨ve ,Chicoutimi,QuÃ©bec,G7G0J9,(418)290-5246,,
897,PÃ©tanque La Boule Sagueneenne,Sport,,2064,Rue des HydrangÃ©es,JonquiÃ¨re,QuÃ©bec,G7S5S1,,,
1686,Popote express Chicoutimi,Action communautaire,,930,Rue Jacques-Cartier Est,Chicoutimi,QuÃ©bec,G7H7K9,(418)690-1819,,
757,Popote Mobile de La Baie,Action communautaire,Page FaceBook Popote Mobile de La Baie,1244,5e Avenue (La Baie),Saguenay,QuÃ©bec,G7B4J6,(418)544-6868,,(418)306-8666
1865,Premiers Secours Saguenay,Hors catÃ©gorie,pssaguenay.com,3849,Rue Gagnon,JonquiÃ¨re,QuÃ©bec,G7X2E4,(418)512-0504,,
751,Productions Zan,Art et culture,www.sidanse.com,990,Boulevard du Royaume Ouest,Chicoutimi,QuÃ©bec,G7H5B1,(418)602-4001,,
1784,Promotion Saguenay inc.,Hors catÃ©gorie,,295,Rue Racine Est,Chicoutimi,QuÃ©bec,G7H5B7,(418)698-3157,,
748,Racines gumboot,Art et culture,www.facebook.com/racinesgumboot,165,Rue Racine Est,Chicoutimi,QuÃ©bec,G7H5B8,(418)812-7703,,
929,Radio amateur Saguenay-Lac-Saint-Jean,Loisir,ve2crs.org,,,JonquiÃ¨re,QuÃ©bec,G7X7X8,(418)547-1680,,
2638,Raid du Fjord,ÃvÃ©nements,https://raiddufjord.ca/,820,Boulevard Barrette,Chicoutimi,QuÃ©bec,G7J3C5,,,
59,Randonneurs du Saguenay,Plein air,www.randonneursdusaguenay.qc.ca,,Succursale Racine,Chicoutimi,QuÃ©bec,G7H5B5,(418)549-5369,,
743,Regroupement acadien Saguenay-Lac-Saint-Jean inc.,Loisir,,1975,Rue Ozanne,JonquiÃ¨re,QuÃ©bec,G7X5B1,(418)542-3725,,(418)542-8366
591,Regroupement des centres d'alphabÃ©tisation mot Ã  mot,Action communautaire,,410,Rue des Ormes,Shipshaw,QuÃ©bec,G7P1L6,(418)695-5385,,
2562,Regroupement des personnes atteintes de troubles de l'humeur,Action communautaire,http://www.rdpath.org,232,Rue Tessier,Chicoutimi,QuÃ©bec,G7H4Z6,(418)543-3463 ext.20,,
730,Regroupement des sourds et malentendants du SaguenayâLac-St-Jean,Action communautaire,,2435,Rue Saint-Jean-Baptiste,JonquiÃ¨re,QuÃ©bec,G8A1X3,(418)695-7700 ext.2461,,(418)695-7092
2390,RÃ©seau des organismes Lac KÃ©nogami ROLK,Action communautaire,www.rolk.org,3000,Chemin de l'Ãglise,Lac KÃ©nogami,QuÃ©bec,G7X7V6,(418)542-0186,,
412,S.P.C.A. Saguenay (SociÃ©tÃ© pour la prÃ©vention de la cruautÃ© envers les animaux),Hors catÃ©gorie,www.spcasaguenay.com,2359,Rue Cantin,JonquiÃ¨re,QuÃ©bec,G7X8S7,,,
622,Saguenay en neige inc.,ÃvÃ©nements,www.saguenayenneige.com,2435,Rue Saint-Jean-Baptiste  suite 210,JonquiÃ¨re,QuÃ©bec,G8A1X3,(418)695-1769,,(418)695-2311
1262,Saguenay Swing,Loisir,www.saguenayswing.com,294,Rue Saint-OnÃ©sime,Chicoutimi,QuÃ©bec,G7J3J5,(418)815-5703,(581)221-0531,
62,Saguenay Synchro,Sport,www.saguenaysynchro.com,351,Rue de Saint-Urbain,Chicoutimi,QuÃ©bec,G7H7J8,,,
445,Sauvetage rÃ©gion 02 inc.,Hors catÃ©gorie,www.sauvetage02.org,109,Rue Jean-Langevin,Chicoutimi,QuÃ©bec,G7H3T9,(418)543-2467,,
2352,SÃ©jour Marie Fitzbach,Action communautaire,Aucun,523,Rue des Chevaliers,Chicoutimi,QuÃ©bec,G7H5P6,,,
1125,Service alimentaire La Recette,Action communautaire,epicerielarecette.com,216,Rue des Oblats Ouest,Chicoutimi,QuÃ©bec,G7J2B1,(418)698-0230,,(418)698-0990
438,Service budgÃ©taire et communautaire de Chicoutimi,Action communautaire,www.servicebudgetaire.org,2230,Rue Roussel,Chicoutimi,QuÃ©bec,G7G1W8,(418)549-7597 ext.6,,(418)549-1325
1131,Service budgÃ©taire et communautaire de JonquiÃ¨re,Action communautaire,www.servicebudgetairejonquiere.org,2303,Rue Sir-Wilfrid-Laurier bureau 204,JonquiÃ¨re,QuÃ©bec,G7X5Z2,(418)412-4447,,(418)412-4457
1074,Service budgÃ©taire populaire de La Baie et Bas Saguenay,Action communautaire,www.servicebudgetairelabaie.com,524,Boulevard de la Grande-Baie Sud,La Baie,QuÃ©bec,G7B2C7,(418)544-5611,,
1127,Service communautaire de consultation individualisÃ©e de Chicoutimi Inc.,Action communautaire,www.scci02.ca,602,Rue Racine Est,Chicoutimi,QuÃ©bec,G7H1V1,(418)545-0886 ext.104,,(418)545-0104
924,Service de travail de rue de Chicoutimi,Action communautaire,https://www.travailderue-chicoutimi.org/,221,Rue Tessier,Chicoutimi,QuÃ©bec,G7H1K4,(418)545-0999,,(418)545-8684
434,Sessions musicales Intermezzo Saguenay inc.,Art et culture,facebook Camp Musical  Intermezzo,1910,Rue du Centre,JonquiÃ¨re,QuÃ©bec,G7S2X3,(418)548-0707,(418)817-4397,
431,SociÃ©tÃ© Alzheimer de la Sagamie,Action communautaire,ALZHEIMERSLSJ.COM,690,Rue Saint-Sacrement O.,Alma,QuÃ©bec,G8B4N9,(418)668-0161,,(418)668-2639
67,SociÃ©tÃ© BÃ©lu inc.,Plein air,www.montbelu.com,4855,Boulevard de la Grande-Baie Sud,La Baie,QuÃ©bec,G7B3R3,(418)697-5090,,
426,SociÃ©tÃ© d'Ã©tude et de confÃ©rences,Loisir,www.uqac.ca/secnautesaglac/,370,Rue de Normandie,Chicoutimi,QuÃ©bec,G7H3G5,(418)549-6966,,(418)549-0989
414,SociÃ©tÃ© d'horticulture de JonquiÃ¨re,Loisir,shj.fsheq.com,4002,Rue de la Loire,JonquiÃ¨re,QuÃ©bec,G8A1E9,(418)695-0054,,
425,SociÃ©tÃ© d'horticulture et d'Ã©cologie de Chicoutimi,Loisir,www.horticulturechicoutimi.ca,165,Rue Racine Est,Chicoutimi,QuÃ©bec,G7H1R5,(418)549-9448,,
422,SociÃ©tÃ© de dÃ©veloppement culturel de QuÃ©bec Issime,Art et culture,,2795,Rue Hocquart,JonquiÃ¨re,QuÃ©bec,G7S1X7,(418)512-0855,,
415,SociÃ©tÃ© de l'autisme de la rÃ©gion du Saguenay-Lac-St-Jean,Action communautaire,http://www.autisme02.com,110,Rue Racine Est,Chicoutimi,QuÃ©bec,G7H1R2,(418)543-7088 ext.1,,
457,SociÃ©tÃ© de Saint-Vincent-de-Paul conseil provincial du QuÃ©bec - Conseil particulier de La Baie Bas Saguenay,Action communautaire,N/D,588,Rue des Ãrables,La Baie,QuÃ©bec,G7B3C9,(418)690-7912,,
2489,SociÃ©tÃ© de Saint-Vincent-de-Paul conseil provincial du QuÃ©bec - Conseil Particulier St-Cyrille de Chicoutimi,Action communautaire,,189,Rue de la Gaillarde,Chicoutimi,QuÃ©bec,G7G4V2,,,
2094,SociÃ©tÃ© de transport du Saguenay,Hors catÃ©gorie,,1330,Rue Bersimis,Chicoutimi,QuÃ©bec,G7K1A5,(418)545-3683 ext.6438,,(418)545-9976
413,SociÃ©tÃ© historique du Saguenay,Art et culture,www.shistoriquesaguenay.com/,930,Rue Jacques-Cartier Est Local C-103,"Saguenay, arr. Chicoutimi",QuÃ©bec,G7H7K9,(418)549-2805 ext.0,,
1081,SoupiÃ¨re de La Baie,Action communautaire,,1184,2e Rue,La Baie,QuÃ©bec,G7B2G4,(418)544-1815,(418)544-7874,
2628,SoupiÃ¨re KÃ©nogami (Sainte-Famille),Action communautaire,,1966,Rue Ozanne,JonquiÃ¨re,QuÃ©bec,G7X5A9,,,
108,Symposium international de peinture et sculpture du Saguenay-Lac-St-Jean,Art et culture,www.symposiumsaguenay.com,1,Racine est,Chicoutimi,QuÃ©bec,G7H5C8,(418)718-9960,,
2297,Table de lutte contre la pauvretÃ© de Chicoutimi,Action communautaire,www.tlpchicoutimi.com,508,Rue Saint-Augustin,Chicoutimi,QuÃ©bec,G7J2J9,(418)696-2188,,
1073,Table rÃ©gionale de concertation des aÃ®nÃ©s du Saguenay-Lac-St-Jean,Action communautaire,aines-saglac.com,,3791 rue de la Fabrique C.P. 664 Centre-ville,JonquiÃ¨re,QuÃ©bec,G7X7W4,(418)699-7229,,(418)512-7229
952,Technoscience Saguenay-Lac-Saint-Jean,Loisir,www.technoscience-saglac.ca,414,Collard Ouest,Alma,QuÃ©bec,G8B1N2,(418)668-4792,,(418)668-0265
105,Tel-Aide Saguenay-Lac St-Jean/CÃ´te Nord,Action communautaire,telaide02.org,,Rue Jolliet,Chicoutimi,QuÃ©bec,G7H5B7,(418)695-1709,,
2547,TEST MARTIN,Sport,,2400,Rue des Saules,JonquiÃ¨re,QuÃ©bec,G8A2J4,(581)235-2951,,
102,ThÃ©Ã¢tre 100 masques,Art et culture,www.theatre100masques.com,165,Rue Racine Est,Chicoutimi,QuÃ©bec,G7H5B5,(418)698-3895,,(418)698-3280
101,ThÃ©Ã¢tre Ã  bout portant,Art et culture,www.theatreaboutportant.com,772,Rue Notre-Dame,La Baie,QuÃ©bec,G7B2T9,(418)290-0207,,
100,ThÃ©Ã¢tre CRI,Art et culture,www.theatrecri.ca,4160,Rue du Vieux-Pont,JonquiÃ¨re,QuÃ©bec,G8A2G9,(418)542-1129,,
99,ThÃ©Ã¢tre du Faux Coffre,Art et culture,www.fauxcoffre.ca,165,Rue Racine Est,Chicoutimi,QuÃ©bec,G7H5b8,(418)698-3000 ext.6561,,
96,ThÃ©Ã¢tre les Amis de chiffon inc.,Art et culture,www.amisdechiffon.qc.ca,165,Rue Racine Est,Chicoutimi,QuÃ©bec,G7H5B8,(418)549-7061,,(418)549-6178
2550,Tournoi de basketball du Saguenay,ÃvÃ©nements,http://tournoidusaguenay.com/,770,rue Baillargeon,Chicoutimi,QuÃ©bec,G7H2T5,(418)812-5950,,
2227,Tournoi provincial de hockey Pee Wee de JonquiÃ¨re inc.,ÃvÃ©nements,www.tournoipeewee.com,2435,Rue Saint-Jean-Baptiste,JonquiÃ¨re,QuÃ©bec,G7X7W8,(418)812-5777,,
2245,Triolait,Action communautaire,triolait.ca,240,Rue BossÃ©,Chicoutimi,QuÃ©bec,G7J1L9,(581)560-9956,,
63,VÃ©lo Saguenay,Plein air,www.velochicoutimi.qc.ca,1412,Chemin de la RÃ©serve,Chicoutimi,QuÃ©bec,G7J0K2,(418)550-8996,,
2322,Vie Active Saguenay,Loisir,,2968,Rue Sainte-Monique,Saguenay ,QuÃ©bec ,g7s5z5,(418)590-4133,,
918,Vitalisation de KÃ©nogami (CVK) inc.,ÃvÃ©nements,cvs.saguenay.ca/kenogami,2354,Rue Saint-Dominique,JonquiÃ¨re,QuÃ©bec,G7X7W7,(418)698-3147 ext.6154,,
87,"Voitures anciennes du QuÃ©bec, Saguenay-Lac-St-Jean",Loisir,www.vasl.qc.ca,212,Rue Potvin,LaterriÃ¨re,QuÃ©bec,G7n2a5,(418)820-1317,,
1090,Voyageurs de JonquiÃ¨re inc. (Les),Sport,www.voyageurs.ca,2388,Rue du Long-Sault,JonquiÃ¨re,QuÃ©bec,G7X4H9,(418)547-8179,,
55,Water-polo Saguenay,Sport,http://www.waterpolosaguenay.sitew.ca,1892,Rue Neilson,JonquiÃ¨re,QuÃ©bec,G7S2W7,(418)548-2263,,
86,Zone d'Intervention Prioritaire (ZIP) Saguenay-Charlevoix,Plein air,https://zipsaguenaycharlevoix.ca,240,Rue BossÃ©,Chicoutimi,QuÃ©bec,G7J1L9,(438)821-8998,,
