NOM_CLIENT_PARTENAIRE,NOM_CORPORATION_CLIENT_PARTENAIRE,TYPE_CLIENT_PARTENAIRE,STATUT,SOUS_PROGRAMME,CATEGORIE_INSTITUTION,CHAMP_INTERVENTION,SECTEUR_INTERVENTION,NO_CIVIQUE ET RUE,MUNICIPALITE,CODE_REGION_ADMIN,REGION_ADMIN,PROVINCE,PAYS,CODE_POSTAL,URL_WEB,LONGITUDE,LATITUDE
"Aster, La Station scientifique du Bas-Saint-Laurent",La Corporation de l'Observatoire du Témiscouata inc.,"Institution muséale (musée, centre d'exposition, lieu d'interprétation)",Reconnu,,Lieu d'interprétation,,"Institutions muséales (musées, centres d'exposition et lieux d'interprétation)","170, chemin Jacques-Pelletier",Saint-Louis-du-Ha! Ha! ,1,Bas Saint-Laurent,Québec,Canada,G0L 3S0,http://www.asterbsl.ca/,-68.967389563571629,47.671359041665994
ASTROLab du Mont-Mégantic,ASTROLab du Mont-Mégantic (autre nom) Corporation Astrolab du Mont-Mégantic,"Institution muséale (musée, centre d'exposition, lieu d'interprétation)",Reconnu,,Lieu d'interprétation,,"Institutions muséales (musées, centres d'exposition et lieux d'interprétation)","189, route du Parc",Notre-Dame-des-Bois ,5,Estrie,Québec,Canada,J0B 2E0,http://www.astrolab-parc-national-mont-megantic.org/,-71.125744151795814,45.423454146707108
Biodôme de Montréal,Ville de Montréal,"Institution muséale (musée, centre d'exposition, lieu d'interprétation)",Reconnu,,Musée,,"Institutions muséales (musées, centres d'exposition et lieux d'interprétation)","4777, avenue Pierre-de-Coubertin",Montréal ,6,Montréal,Québec,Canada,H1V 1B3,http://espacepourlavie.ca/biodome?lang=fr,-73.549528772819698,45.559598316246309
Biophare,Corporation soreloise du patrimoine régional,"Institution muséale (musée, centre d'exposition, lieu d'interprétation)",Reconnu,,Lieu d'interprétation,,"Institutions muséales (musées, centres d'exposition et lieux d'interprétation)","6, rue Saint-Pierre",Sorel-Tracy,16,Montérégie,Québec,Canada,J3P 3S2,http://www.cipsorel.com/,-73.106644231177185,46.046915873011386
Blockhaus de la Rivière Lacolle,Municipalité de Saint-Paul-de-l'Île-aux-Noix,"Institution muséale (musée, centre d'exposition, lieu d'interprétation)",Reconnu,,Lieu d'interprétation,,"Institutions muséales (musées, centres d'exposition et lieux d'interprétation)","1, rue Principale",Saint-Paul-de-l'Île-aux-Noix,16,Montérégie,Québec,Canada,J0J 1G0,http://www.ileauxnoix.com/fr/tourisme/blockhaus.html,-73.342074702725867,45.068828409279931
"Boréalis, Centre d'exposition sur l'industrie des pâtes et papiers",Corporation de développement culturel de Trois-Rivières,"Institution muséale (musée, centre d'exposition, lieu d'interprétation)",Reconnu et soutenu,Institutions muséales,Lieu d'interprétation,,"Institutions muséales (musées, centres d'exposition et lieux d'interprétation)","200, avenue des Draveurs",Trois-Rivières ,4,Mauricie,Québec,Canada,G9A 0B6,www.borealis3r.ca,-72.532234868205634,46.348541807257533
Centre Archéo-Topo (Coporation de diffusion de l'archéologie de la Côte-Nord,Corporation de diffusion de l'archéologie de la Côte-Nord,"Institution muséale (musée, centre d'exposition, lieu d'interprétation)",Reconnu et soutenu,Institutions muséales,Lieu d'interprétation,Archéologie,"Institutions muséales (musées, centres d'exposition et lieux d'interprétation)","498, rue de la Mer",Bergeronnes,9,Côte-Nord,Québec,Canada,G0T 1G0,www.archeotopo.com,-69.553141730746759,48.228910845382835
Centre canadien d'architecture,,"Institution muséale (musée, centre d'exposition, lieu d'interprétation)",Reconnu et soutenu,Institutions muséales,Musée,Arts,"Institutions muséales (musées, centres d'exposition et lieux d'interprétation)","1920, rue Baile",Montréal ,6,Montréal,Québec,Canada,H3H 2S6,http://www.cca.qc.ca/fr/,-73.578609659247633,45.491936603154272
Centre d'art Rotary,La Commission des loisirs de La Sarre inc.,"Institution muséale (musée, centre d'exposition, lieu d'interprétation)",Reconnu,,Centre d'exposition,,"Institutions muséales (musées, centres d'exposition et lieux d'interprétation)","195, rue Principale",La Sarre,8,Abitibi-Témiscamingue,Québec,Canada,J9Z 1Y3,http://www.ville.lasarre.qc.ca/culture/fr/arts-visuels/details.cfm?ID=4,-79.205213821521326,48.807167157534316
Centre d'exposition Art-Image (Maison de la culture de Gatineau),La Maison de la Culture de Gatineau,"Institution muséale (musée, centre d'exposition, lieu d'interprétation)",Reconnu,,Centre d'exposition,,"Institutions muséales (musées, centres d'exposition et lieux d'interprétation)","855, boulevard de la Gappe",Gatineau,7,Outaouais,Québec,Canada,J8T 8H9,http://www.ville.gatineau.qc.ca/artimage/,-75.682140731984418,45.484855205207332
"Centre d'exposition d'Amos, Maison de la culture ",Ville d'Amos,"Institution muséale (musée, centre d'exposition, lieu d'interprétation)",Reconnu,,Centre d'exposition,,"Institutions muséales (musées, centres d'exposition et lieux d'interprétation)","222, 1ère Avenue Est",Amos,8,Abitibi-Témiscamingue,Québec,Canada,J9T 1H3,http://ville.amos.qc.ca/visiter/attraits/centre-dexposition-damos,-78.110535335860746,48.571706493769717
Centre d'exposition de l'Université de Montréal,Université de Montréal,"Institution muséale (musée, centre d'exposition, lieu d'interprétation)",Reconnu,,Musée,,"Institutions muséales (musées, centres d'exposition et lieux d'interprétation)","2940, chemin de la Côte-Sainte-Catherine, Pavillon de la Faculté de l'aménagement",Montréal      ,6,Montréal,Québec,Canada,H3T 1B9,http://www.expo.umontreal.ca/,-73.620809962413233,45.504555631004244
Centre d'exposition de la Bibliothèque Gabrielle-Roy,L'Institut Canadien de Québec,"Institution muséale (musée, centre d'exposition, lieu d'interprétation)",Reconnu,,Centre d'exposition,,"Institutions muséales (musées, centres d'exposition et lieux d'interprétation)","350, rue Saint-Joseph Est",Québec ,3,Québec,Québec,Canada,G1K 3B2,http://www.institutcanadien.qc.ca,-71.225933406947263,46.814262641520159
Centre d'exposition de Mont-Laurier,,"Institution muséale (musée, centre d'exposition, lieu d'interprétation)",Reconnu,,Centre d'exposition,,"Institutions muséales (musées, centres d'exposition et lieux d'interprétation)","385, rue Du Pont",Mont-Laurier,15,Laurentides,Québec,Canada,J9L 3N7,http://www.expomontlaurier.ca/,-75.498703680179517,46.550106839523067
Centre d'exposition de Rouyn-Noranda,Centre d'exposition de Rouyn-Noranda inc.,"Institution muséale (musée, centre d'exposition, lieu d'interprétation)",Reconnu et soutenu,Institutions muséales,Centre d'exposition,Arts,"Institutions muséales (musées, centres d'exposition et lieux d'interprétation)","201, ave. Dallaire, local 154",Rouyn-Noranda,8,Abitibi-Témiscamingue,Québec,Canada,J9X 4T5, http://www.cern.ca/ ,-79.0220564933894,48.237025605378342
Centre d'exposition de Val-d'Or,,"Institution muséale (musée, centre d'exposition, lieu d'interprétation)",Reconnu,,Centre d'exposition,,"Institutions muséales (musées, centres d'exposition et lieux d'interprétation)","600, 7e Rue",Val-d'Or,8,Abitibi-Témiscamingue,Québec,Canada,J9P 3P3, www.expovd.ca  ,-77.790629029356879,48.096826124631157
Centre d'exposition du centre des arts de Shawinigan (autre nom : Centre d'exposition Léo-Ayotte),Corporation culturelle de Shawinigan,"Institution muséale (musée, centre d'exposition, lieu d'interprétation)",Reconnu,,Centre d'exposition,,"Institutions muséales (musées, centres d'exposition et lieux d'interprétation)","2100, boulevard des Hêtres",Shawinigan ,4,Mauricie,Québec,Canada,G9N 8R8, http://www.cultureshawinigan.ca ,-72.746644583288031,46.559879463988182
Centre d'exposition l'Imagier,Le Centre d'exposition l'Imagier,"Institution muséale (musée, centre d'exposition, lieu d'interprétation)",Reconnu,,Centre d'exposition,Arts,"Institutions muséales (musées, centres d'exposition et lieux d'interprétation)","9, rue Front",Gatineau,7,Outaouais,Québec,Canada,J9H 4W8, http://www.limagier.qc.ca ,-75.8569317,45.3953227
Centre d'exposition Raymond-Lasnier,Corporation de développement culturel de Trois-Rivières,"Institution muséale (musée, centre d'exposition, lieu d'interprétation)",Reconnu,,Centre d'exposition,,"Institutions muséales (musées, centres d'exposition et lieux d'interprétation)","1425, place de l'Hôtel-de-Ville",Trois-Rivières ,4,Mauricie,Québec,Canada,G9A 5H3,http://www.cer-l.com/,-72.542644891650653,46.343595143478204
Centre d'histoire de Montréal,Ville de Montréal,"Institution muséale (musée, centre d'exposition, lieu d'interprétation)",Reconnu,,Lieu d'interprétation,,"Institutions muséales (musées, centres d'exposition et lieux d'interprétation)","335, place d'Youville",Montréal ,6,Montréal,Québec,Canada,H2Y 3T1,http://ville.montreal.qc.ca/portal/page?_pageid=8757%2C97305573&_dad=portal&_schema=PORTAL,-73.55538170000888,45.50122240816377
Centre d'histoire et d'archéologie de la Métabetchouane,,"Institution muséale (musée, centre d'exposition, lieu d'interprétation)",Reconnu et soutenu,Institutions muséales,Lieu d'interprétation,"Histoire,ethnologie et archéologie","Institutions muséales (musées, centres d'exposition et lieux d'interprétation)","243, rue Hébert",Desbiens ,2,Saguenay-Lac-Saint-Jean,Québec,Canada,G0W 1N0,,-71.963273730513549,48.420157575954079
Centre d'histoire Sir-William-Price,Centre d'histoire Sir-William-Price,"Institution muséale (musée, centre d'exposition, lieu d'interprétation)",Reconnu,,Lieu d'interprétation,,"Institutions muséales (musées, centres d'exposition et lieux d'interprétation)","1994, rue Price",Saguenay Arr. Jonquière ,2,Saguenay-Lac-Saint-Jean,Québec,Canada,G7X 5S1, www.sirwilliamprice.com ,-71.24387013237336,48.42392167266523
Centre d'initiation au patrimoine - La Grande Ferme,Corporation du Centre d'initiation au patrimoine - La Grande Ferme,"Institution muséale (musée, centre d'exposition, lieu d'interprétation)",Reconnu et soutenu,Institutions muséales,Lieu d'interprétation,Histoire et ethnologie,"Institutions muséales (musées, centres d'exposition et lieux d'interprétation)","800, chemin du Cap-Tourmente",Saint-Joachim ,3,Québec,Québec,Canada,G0A 3X0, http://www.lagrandeferme.qc.ca ,-70.818040979794688,47.051857084108633
Centre d'interprétation de l'agriculture et de la ruralité,,"Institution muséale (musée, centre d'exposition, lieu d'interprétation)",Reconnu,,Lieu d'interprétation,"Histoire,ethnologie et archéologie","Institutions muséales (musées, centres d'exposition et lieux d'interprétation)","281, rue Saint-Louis",Métabetchouan-Lac-à-la-Croix ,2,Saguenay-Lac-Saint-Jean,Québec,Canada,G8G 2C8, http://www.ciar-lacalacroix.com ,-71.778973910377104,48.40443154551992
Centre d'interprétation de l'ardoise de Kingsbury,Regroupement culturel des vieilles ardoises,"Institution muséale (musée, centre d'exposition, lieu d'interprétation)",Reconnu,,Lieu d'interprétation,,"Institutions muséales (musées, centres d'exposition et lieux d'interprétation)","5, rue Belmont",Richmond ,5,Estrie,Québec,Canada,J0B 2H0,http://www.centreardoise.ca/,-72.149003861835141,45.656740440995328
Centre d'interprétation de l'histoire de Sherbrooke ,La Société d'histoire de Sherbrooke,"Institution muséale (musée, centre d'exposition, lieu d'interprétation)",Reconnu et soutenu,Institutions muséales,Lieu d'interprétation,Histoire et ethnologie,"Institutions muséales (musées, centres d'exposition et lieux d'interprétation)","275, rue Dufferin",Sherbrooke ,5,Estrie,Québec,Canada,J1H 4M5, www.histoiresherbrooke.com  ,-71.894923997339973,45.405478066744394
Centre d'interprétation de l'historique de la protection de la forêt contre le feu (Château Logue),Le Château Logue inc.,"Institution muséale (musée, centre d'exposition, lieu d'interprétation)",Reconnu,,Lieu d'interprétation,,"Institutions muséales (musées, centres d'exposition et lieux d'interprétation)","8, rue Comeau",Maniwaki,7,Outaouais,Québec,Canada,J9E 2R8, http://www.ci-chateaulogue.qc.ca/ ,-75.967162551085849,46.382339425540252
Centre d'interprétation de la Côte-de-Beaupré,Centre d'Interprétation de la Côte-de-Beaupré,"Institution muséale (musée, centre d'exposition, lieu d'interprétation)",Reconnu et soutenu,Institutions muséales,Lieu d'interprétation,"Histoire,ethnologie et archéologie","Institutions muséales (musées, centres d'exposition et lieux d'interprétation)","7976, avenue Royale",Château-Richer ,3,Québec,Québec,Canada,G0A 1N0,http://auxtroiscouvents.org/,-71.018454621586102,46.968964494270701
Centre d'interprétation des mammifères marins,Société d'interprétation du milieu marin de la Haute-Côte-Nord,"Institution muséale (musée, centre d'exposition, lieu d'interprétation)",Reconnu,,Lieu d'interprétation,,"Institutions muséales (musées, centres d'exposition et lieux d'interprétation)","108, rue de la Cale-Sèche",Tadoussac,9,Côte-Nord,Québec,Canada,G0T 2A0,http://gremm.org/education/,-69.719212405077855,48.13854108468766
Centre d'interprétation du patrimoine de Plaisance,"Corporation ""North Nation Mill"" inc.","Institution muséale (musée, centre d'exposition, lieu d'interprétation)",Reconnu,,Lieu d'interprétation,"Histoire,ethnologie et archéologie","Institutions muséales (musées, centres d'exposition et lieux d'interprétation)","276, rue Desjardins",Plaisance,7,Outaouais,Québec,Canada,J0V 1S0,http://www.chutesplaisance.ca/,-75.111872471994474,45.607003246508064
Centre d'interprétation du Site historique et archéologique de Pabos,Corporation du Bourg de Pabos inc.,"Institution muséale (musée, centre d'exposition, lieu d'interprétation)",Reconnu et soutenu,Institutions muséales,Lieu d'interprétation,Archéologie,"Institutions muséales (musées, centres d'exposition et lieux d'interprétation)","75, rue de la Plage",Pabos Mills,11,Gaspésie-Iles-de-la-Madeleine,Québec,Canada,G0C 2J0, http://www.lebourgdepabos.com ,-64.69794583511063,48.322680839448694
Centre d'intreprétation du phoque,"Fondation ""Willie Déraspe"" pour le centre d'interprétation du phoque","Institution muséale (musée, centre d'exposition, lieu d'interprétation)",Reconnu,,Lieu d'interprétation,,"Institutions muséales (musées, centres d'exposition et lieux d'interprétation)","377, Route 199, (C.P. 59), Grande Entrée",Grande-Entrée Îles-de-la-Madeleine,11,Gaspésie-Iles-de-la-Madeleine,Québec,Canada,G0B 1H0 ,http://www.loup-marin.com/,-61.521627925436718,47.558445099509065
Centre de la Biodiversité du Québec ,Centre d'interprétation sur la diversité biologique du Québec,"Institution muséale (musée, centre d'exposition, lieu d'interprétation)",Reconnu,,Lieu d'interprétation,,"Institutions muséales (musées, centres d'exposition et lieux d'interprétation)","1800, avenue des Jasmins (secteur Sainte-Angèle)",Bécancour,17,Centre-du-Québec,Québec,Canada,G9H 2S2,http://www.biodiversite.net/,-72.503387392703672,46.327720199007416
Centre des Sciences de l'espace du Cosmodôme,,"Institution muséale (musée, centre d'exposition, lieu d'interprétation)",Reconnu,,Lieu d'interprétation,,"Institutions muséales (musées, centres d'exposition et lieux d'interprétation)","2150, Autoroute des Laurentides",Laval,13,Laval,Québec,Canada,H7T 2T8,www.cosmodome.org,-73.744200418932152,45.566919452724981
Centre national d'exposition de Saguenay,L'Institut des arts au Saguenay,"Institution muséale (musée, centre d'exposition, lieu d'interprétation)",Reconnu,,Centre d'exposition,,"Institutions muséales (musées, centres d'exposition et lieux d'interprétation)","4160, rue du Vieux Pont",Saguenay Arr.Jonquière,2,Saguenay-Lac-Saint-Jean,Québec,Canada,G7X 7W4, http://www.centrenationalexposition.com ,-71.269333398330602,48.410822396498325
Chapelle de Tadoussac,La Fabrique de la paroisse de Sainte-Croix,"Institution muséale (musée, centre d'exposition, lieu d'interprétation)",Reconnu et soutenu,Institutions muséales,Lieu d'interprétation,"Histoire,ethnologie et archéologie","Institutions muséales (musées, centres d'exposition et lieux d'interprétation)","169, rue du Bord-de-l'Eau",Tadoussac,9,Côte-Nord,Québec,Canada,G0T 2A0,http://tourismecote-nord.com/membres/patrimoine-religieux/petite-chapelle-de-tadoussac/,-69.71606729014772,48.142750514942293
"Cité historia, musée du Sault-au-Récollet",Corporation de la Maison du Pressoir,"Institution muséale (musée, centre d'exposition, lieu d'interprétation)",Reconnu,,Lieu d'interprétation,,"Institutions muséales (musées, centres d'exposition et lieux d'interprétation)","10897, rue du Pont",Montréal ,6,Montréal,Québec,Canada,H2B 2H3,http://www.citehistoria.qc.ca/,-73.659461080162345,45.574489036027693
Comité de protection des oeuvres d'Ozias-Leduc de Shawinigan-Sud ,Comité de protection des oeuvres d'Ozias-Leduc de Shawinigan-Sud inc.,"Institution muséale (musée, centre d'exposition, lieu d'interprétation)",Reconnu,,Lieu d'interprétation,,"Institutions muséales (musées, centres d'exposition et lieux d'interprétation)","825, 2e Avenue",Shawinigan-sud ,4,Mauricie,Québec,Canada,G9P 1E1, http://www.eglisendp.qc.ca ,-72.750027278530041,46.527484091164048
Domaine Joly-De Lotbinière,Fondation du Domaine Joly-De Lotbinière,"Institution muséale (musée, centre d'exposition, lieu d'interprétation)",Reconnu et soutenu,Institutions muséales,Lieu d'interprétation,Histoire et ethnologie,"Institutions muséales (musées, centres d'exposition et lieux d'interprétation)","7015, route de Pointe-Platon",Sainte-Croix,12,Chaudière-Appalaches,Québec,Canada,G0S 2H0,http://www.domainejoly.com/,-71.846639992780425,46.665833563781007
"Éco-Nature, Parc de la Rivière-des-Mille-Îles",Éco-Nature de Laval,"Institution muséale (musée, centre d'exposition, lieu d'interprétation)",Reconnu,,Lieu d'interprétation,,"Institutions muséales (musées, centres d'exposition et lieux d'interprétation)","345, boulevard Sainte-Rose",Laval,13,Laval,Québec,Canada,H7L 1M7,http://www.parc-mille-iles.qc.ca/,-73.796391624254284,45.608366333342907
Écomusée du fier monde,L'Écomusée de la maison du fier monde inc.,"Institution muséale (musée, centre d'exposition, lieu d'interprétation)",Reconnu et soutenu,Institutions muséales,Musée,Histoire et ethnologie,"Institutions muséales (musées, centres d'exposition et lieux d'interprétation)","2050, rue Amherst",Montréal ,6,Montréal,Québec,Canada,H2L 3L8, http://www.ecomusee.qc.ca ,-73.563792067086339,45.520196353158909
Exploramer,idem,"Institution muséale (musée, centre d'exposition, lieu d'interprétation)",Reconnu,,Lieu d'interprétation,,"Institutions muséales (musées, centres d'exposition et lieux d'interprétation)","1, rue du Quai",Sainte-Anne-des-Monts,11,Gaspésie-Iles-de-la-Madeleine,Québec,Canada,G4V 2B6,http://www.exploramer.qc.ca/,-66.487515072087859,49.131320684530863
"Exporail, Musée ferroviaire canadien",L'Association canadienne d'histoire ferroviaire,"Institution muséale (musée, centre d'exposition, lieu d'interprétation)",Reconnu et soutenu,Institutions muséales,Musée,Sciences et technologie,"Institutions muséales (musées, centres d'exposition et lieux d'interprétation)","110, rue Saint-Pierre",Saint-Constant,16,Montérégie,Québec,Canada,J5A 1G7, http://www.exporail.org ,-73.564310955812019,45.375283263817984
"Expression, Centre d'exposition de Saint-Hyacinthe","Expression, centre d'exposition de Saint-Hyacinthe inc.","Institution muséale (musée, centre d'exposition, lieu d'interprétation)",Reconnu,,Centre d'exposition,,"Institutions muséales (musées, centres d'exposition et lieux d'interprétation)","495, rue Saint-Simon",Saint-Hyacinthe,16,Montérégie,Québec,Canada,J2S 5C3, http://expression.qc.ca ,-72.945530280814367,45.624584600997302
Forge-menuiserie Cauchon,Corporation de la Vieille Forge Cauchon,"Institution muséale (musée, centre d'exposition, lieu d'interprétation)",Reconnu et soutenu,Institutions muséales,Lieu d'interprétation,Histoire et ethnologie,"Institutions muséales (musées, centres d'exposition et lieux d'interprétation)","323, chemin de la Vallée",La Malbaie ,3,Québec,Québec,Canada,G5A 1B8, www.forgecauchon.com  ,-70.163451312809585,47.672886528160262
Fort Ingall,Société d'histoire et d'archéologie du Témiscouata inc.,"Institution muséale (musée, centre d'exposition, lieu d'interprétation)",Reconnu et soutenu,Institutions muséales,Lieu d'interprétation,Histoire et ethnologie,"Institutions muséales (musées, centres d'exposition et lieux d'interprétation)","81, rue Caldwell",Témiscouata-sur-le-Lac (secteur Cabano) ,1,Bas Saint-Laurent,Québec,Canada,GOL 1E0, http://fortingall.ca ,-68.900233227961522,47.690935518000494
"Fossilarium, Centre thématique fossilifère",Regroupement des loisirs culturels et scientifiques du Témiscamingue,"Institution muséale (musée, centre d'exposition, lieu d'interprétation)",Reconnu,,Lieu d'interprétation,,"Institutions muséales (musées, centres d'exposition et lieux d'interprétation)","5, rue Principale (C.P. 296)",Notre-Dame-du-Nord,8,Abitibi-Témiscamingue,Québec,Canada,J0Z 3B0,http://www.fossiles.qc.ca/,-79.484569006970503,47.592845170495167
Galerie d'art Desjardins du Centre culturel de Drummondville,Corporation de la Maison des arts Desjardins-Drummondville inc.,"Institution muséale (musée, centre d'exposition, lieu d'interprétation)",Reconnu,,Centre d'exposition,Arts,"Institutions muséales (musées, centres d'exposition et lieux d'interprétation)","175, rue Ringuet",Drummondville,17,Centre-du-Québec,Québec,Canada,J2C 2P7,www.centre-culturel.qc.ca,-72.50043059588009,45.877319477349701
Galerie d'art du Centre culturel de l'Université de Sherbrooke,Université de Sherbrooke,"Institution muséale (musée, centre d'exposition, lieu d'interprétation)",Reconnu,,Centre d'exposition,,"Institutions muséales (musées, centres d'exposition et lieux d'interprétation)","2500, boulevard Université",Sherbrooke ,5,Estrie,Québec,Canada,J1K 2R1, http://www.centrecultureludes.ca/framgale.html ,-71.924622027616934,45.375827963004951
Galerie d'art du Parc,Galerie d'art du Parc inc.,"Institution muséale (musée, centre d'exposition, lieu d'interprétation)",Reconnu,,Centre d'exposition,,"Institutions muséales (musées, centres d'exposition et lieux d'interprétation)","864, rue des Ursulines",Trois-Rivières ,4,Mauricie,Québec,Canada,G9A 5C1, http://www.galeriedartduparc.qc.ca ,-72.538631973280133,46.342991761561827
Galerie d'art Foreman de l'Université Bishop's,Université Bishop's,"Institution muséale (musée, centre d'exposition, lieu d'interprétation)",Reconnu,,Centre d'exposition,,"Institutions muséales (musées, centres d'exposition et lieux d'interprétation)","2600,rue Collège, Campus de l'Université Bishop",Sherbrooke ,5,Estrie,Québec,Canada,J1M 1Z7,www.ubishops.ca/foreman ,-71.8452252,45.3616182
Galerie de l'UQAM,Université du Québec à Montréal,"Institution muséale (musée, centre d'exposition, lieu d'interprétation)",Reconnu,,Centre d'exposition,,"Institutions muséales (musées, centres d'exposition et lieux d'interprétation)","1400, rue Berri, Pavillon Judith-Jasmin, Local J-R120",Montréal ,6,Montréal,Québec,Canada,H2L 4E3,http://www.galerie.uqam.ca/,-73.5608884,45.5145309
Galerie du Rift / Salle Augustin-Chénier,Corporation Augustin-Chénier inc.,"Institution muséale (musée, centre d'exposition, lieu d'interprétation)",Reconnu,,Centre d'exposition,,"Institutions muséales (musées, centres d'exposition et lieux d'interprétation)","42, rue Sainte-Anne",Ville-Marie,8,Abitibi-Témiscamingue,Québec,Canada,J9V 2B7,http://www.lerift.ca/,-79.438468136770453,47.331035163872315
Galerie Montcalm,Ville de Gatineau,"Institution muséale (musée, centre d'exposition, lieu d'interprétation)",Reconnu,,Centre d'exposition,,"Institutions muséales (musées, centres d'exposition et lieux d'interprétation)","25, rue Laurier",Gatineau,7,Outaouais,Québec,Canada,J8X 3Y9,http://www.ville.gatineau.qc.ca/galerie-montcalm.htm,-75.7130504,45.4278142
Insectarium de Montréal,Ville de Montréal,"Institution muséale (musée, centre d'exposition, lieu d'interprétation)",Reconnu,,Musée,,"Institutions muséales (musées, centres d'exposition et lieux d'interprétation)","4581, rue Sherbrooke Est",Montréal ,6,Montréal,Québec,Canada,H1X 2B2,http://espacepourlavie.ca/insectarium,-73.556530373594484,45.561689536988055
Jardin Botanique de Montréal,Ville de Montréal,"Institution muséale (musée, centre d'exposition, lieu d'interprétation)",Reconnu,,Musée,,"Institutions muséales (musées, centres d'exposition et lieux d'interprétation)","4101, rue Sherbrooke Est",Montréal ,6,Montréal,Québec,Canada,H1X 2B2,http://espacepourlavie.ca/jardin-botanique?lang=fr,-73.556530373594484,45.561689536988055
Jardin zoologique de Saint-Félicien,Centre de conservation de la biodiversité boréale inc.,"Institution muséale (musée, centre d'exposition, lieu d'interprétation)",Reconnu,,Musée,,"Institutions muséales (musées, centres d'exposition et lieux d'interprétation)","2230, boulevard du Jardin",Saint-Félicien ,2,Saguenay-Lac-Saint-Jean,Québec,Canada,G8K 2P8,www.zoosauvage.org,-72.515150664061238,48.687669742001027
Jardins de Métis,Les jardins de Métis inc.,"Institution muséale (musée, centre d'exposition, lieu d'interprétation)",Reconnu,,Lieu d'interprétation,,"Institutions muséales (musées, centres d'exposition et lieux d'interprétation)","200, route 132",Grand-Métis ,1,Bas Saint-Laurent,Québec,Canada,G0J 1Z0,http://www.jardinsmetis.com/,-68.126821164488447,48.629113771202036
L'École du Rang II d'Authier,Comité du patrimoine de l'École du rang II d'Authier,"Institution muséale (musée, centre d'exposition, lieu d'interprétation)",Reconnu et soutenu,Institutions muséales,Lieu d'interprétation,Histoire et ethnologie,"Institutions muséales (musées, centres d'exposition et lieux d'interprétation)","269, Rang II",Authier,8,Abitibi-Témiscamingue,Québec,Canada,J0Z 1C0,http://www.tourisme-abitibi-temiscamingue.org/activite-attrait/ecole-du-rang-ii/49/,-78.874657667089593,48.749538759192056
L'Îlot des Palais ,Société du patrimoine urbain de Québec (SPUQ),"Institution muséale (musée, centre d'exposition, lieu d'interprétation)",Reconnu et soutenu,Institutions muséales,Lieu d'interprétation,Histoire et ethnologie,"Institutions muséales (musées, centres d'exposition et lieux d'interprétation)","1, côte de la Fabrique",Québec ,3,Québec,Québec,Canada,G1R 3V6,http://ilotdespalais.ca/,-71.207108646217435,46.813877923389185
L'observatoire du CÉGEP de Trois-Rivières,Cégep de Trois-Rivières CEGEP,"Institution muséale (musée, centre d'exposition, lieu d'interprétation)",Reconnu,,Lieu d'interprétation,,"Institutions muséales (musées, centres d'exposition et lieux d'interprétation)","300, route Sainte-Marie",Champlain ,4,Mauricie,Québec,Canada,G9A 5E6,http://www.observatoire.qc.ca/,-72.324473590707996,46.477452877274231
L'Odyssée des bâtisseurs,Société d'histoire du Lac-Saint-Jean inc.,"Institution muséale (musée, centre d'exposition, lieu d'interprétation)",Reconnu et soutenu,Institutions muséales,Lieu d'interprétation,,"Institutions muséales (musées, centres d'exposition et lieux d'interprétation)","1671, avenue du Pont Nord",Alma ,2,Saguenay-Lac-Saint-Jean,Québec,Canada,G8B 5G2,http://www.odysseedesbatisseurs.com/,-71.631928627374762,48.58169615340892
La Cité de l'énergie,La Cité de l'Énergie inc.,"Institution muséale (musée, centre d'exposition, lieu d'interprétation)",Reconnu,,Lieu d'interprétation,,"Institutions muséales (musées, centres d'exposition et lieux d'interprétation)","1000, avenue Melville, (C.P. 156)",Shawinigan ,4,Mauricie,Québec,Canada,G9N 6T9,http://www.citedelenergie.com,-72.757634701652321,46.536467618855383
La Cité de l'Or ,La Corporation du Village minier de Bourlamaque (Cité de l'Or),"Institution muséale (musée, centre d'exposition, lieu d'interprétation)",Reconnu et soutenu,Institutions muséales,Lieu d'interprétation,Histoire et ethnologie,"Institutions muséales (musées, centres d'exposition et lieux d'interprétation)","90, avenue Perreault",Val-d'Or,8,Abitibi-Témiscamingue,Québec,Canada,J9P 4P3, http://www.citedelor.com ,-77.765709232782385,48.094135196338875
La Maison des Jésuites de Sillery ,Ville de Québec,"Institution muséale (musée, centre d'exposition, lieu d'interprétation)",Reconnu,,Lieu d'interprétation,,"Institutions muséales (musées, centres d'exposition et lieux d'interprétation)","2320, chemin du Foulon",Québec ,3,Québec,Québec,Canada,G1T 1X4,http://www.maisonsdupatrimoine.com/fr/patrimoine-et-architecture/maisons-des-jesuites-de-sillery.html,-71.258111393340045,46.768607359592401
La Maison du Granit ,"Corporation de développement de la Maison du Granit
(CDMG)","Institution muséale (musée, centre d'exposition, lieu d'interprétation)",Reconnu,,Lieu d'interprétation,,"Institutions muséales (musées, centres d'exposition et lieux d'interprétation)","301, route du Morne",Mont Saint-Sébastien                   Lac-Drolet Mont Saint-Sébastien,5,Estrie,Québec,Canada,G0Y 1C0, http://www.maisondugranit.ca ,-70.921726792883774,45.750121843129037
La Maison Dumulon,Corporation de La maison Dumulon,"Institution muséale (musée, centre d'exposition, lieu d'interprétation)",Reconnu et soutenu,Institutions muséales,Lieu d'interprétation,Histoire et ethnologie,"Institutions muséales (musées, centres d'exposition et lieux d'interprétation)","191, avenue du Lac (C.P. 242)",Rouyn-Noranda,8,Abitibi-Témiscamingue,Québec,Canada,J9X 5C3, http://www.maison-dumulon.ca/ ,-79.015670583969353,48.239498777137406
La Maison Léon-Provancher,La Maison Léon-Provancher,"Institution muséale (musée, centre d'exposition, lieu d'interprétation)",Reconnu et soutenu,Institutions muséales,Lieu d'interprétation,Histoire et ethnologie,"Institutions muséales (musées, centres d'exposition et lieux d'interprétation)","1435, rue Provancher",Québec ,3,Québec,Québec,Canada,G1Y 1R9, http://www.maisonleonprovancher.com ,-71.343537122234366,46.750930879901489
La Maison Trestler,La Fondation de la maison Trestler,"Institution muséale (musée, centre d'exposition, lieu d'interprétation)",Reconnu,,Lieu d'interprétation,,"Institutions muséales (musées, centres d'exposition et lieux d'interprétation)","85, chemin de la Commune",Vaudreuil-Dorion,16,Montérégie,Québec,Canada,J7V 2C3,http://www.trestler.qc.ca/,-74.00709551070166,45.388186582582229
La Pulperie de Chicoutimi,La Corporation du Musée du Saguenay-Lac-Saint-Jean et du site de la Pulperie,"Institution muséale (musée, centre d'exposition, lieu d'interprétation)",Reconnu et soutenu,Institutions muséales,Musée,Histoire et ethnologie,"Institutions muséales (musées, centres d'exposition et lieux d'interprétation)","300, rue Dubuc",Saguenay Arr. Chicoutimi ,2,Saguenay-Lac-Saint-Jean,Québec,Canada,G7J 4M1, http://www.pulperie.com ,-71.084648544693493,48.421692327260807
La Seigneurie des Aulnaies,La Corporation touristique de la Seigneurie des Aulnaies,"Institution muséale (musée, centre d'exposition, lieu d'interprétation)",Reconnu et soutenu,Institutions muséales,Lieu d'interprétation,Histoire et ethnologie,"Institutions muséales (musées, centres d'exposition et lieux d'interprétation)","525, route de la Seigneurie",St-Roch-des-Aulnaies,12,Chaudière-Appalaches,Québec,Canada,G0R 4E0, http://www.laseigneuriedesaulnaies.qc.ca ,-70.14438749814073,47.313575160781163
Le Dispensaire de la Garde à La Corne,Le Dispensaire de la garde,"Institution muséale (musée, centre d'exposition, lieu d'interprétation)",Reconnu,,Lieu d'interprétation,,"Institutions muséales (musées, centres d'exposition et lieux d'interprétation)","339, route 111",La Corne,8,Abitibi-Témiscamingue,Québec,Canada,J0Y 1R0, http://www.dispensairedelagarde.com ,-77.996186276161325,48.356289305673535
Les Moulins de l'Isle-aux-Coudres,Les Moulins de l'Isle-aux-Coudres,"Institution muséale (musée, centre d'exposition, lieu d'interprétation)",Reconnu et soutenu,Institutions muséales,Lieu d'interprétation,Histoire et ethnologie,"Institutions muséales (musées, centres d'exposition et lieux d'interprétation)","36, chemin du Moulin",Isle-aux-Coudres ,3,Québec,Québec,Canada,G0A 1X0,http://www.lesmoulinsdelisleauxcoudres.com/,-70.399467063908929,47.372785950618564
Les Musées de la civilisation - Maison historique Chevalier,,"Institution muséale (musée, centre d'exposition, lieu d'interprétation)",Reconnu et soutenu,Institutions muséales,Lieu d'interprétation,,"Institutions muséales (musées, centres d'exposition et lieux d'interprétation)","50, rue du Marché-Champlain",Québec,3,Québec,Québec,Canada,G1K 4E9,https://www.mcq.org/fr/informations/mhc,-71.203120023096133,46.8123359150703
Les Musées de la civilisation - Musée de l'Amérique francophone,,"Institution muséale (musée, centre d'exposition, lieu d'interprétation)",Reconnu et soutenu,Institutions muséales,Musée,,"Institutions muséales (musées, centres d'exposition et lieux d'interprétation)","2, côte de la Fabrique",Québec,3,Québec,Québec,Canada,G1R 3V6,https://www.mcq.org/fr/informations/maf,-71.20649362870688,46.814019445430176
Les Musées de la civilisation - Musée de la civilisation,,"Institution muséale (musée, centre d'exposition, lieu d'interprétation)",Reconnu et soutenu,Institutions muséales,Musée,,"Institutions muséales (musées, centres d'exposition et lieux d'interprétation)","85, rue Dalhousie ",Québec ,3,Québec,Québec,Canada,G1K 8R2,http://www.mcq.org/,-71.202461333409801,46.815083853422408
Les Musées de la civilisation - Musée de la Place-Royale,,"Institution muséale (musée, centre d'exposition, lieu d'interprétation)",Reconnu et soutenu,Institutions muséales,Lieu d'interprétation,,"Institutions muséales (musées, centres d'exposition et lieux d'interprétation)","27, rue Notre-Dame",Québec,3,Québec,Québec,Canada,G1K 4E9,https://www.mcq.org/fr/informations/mpr,-71.20304765677632,46.813062276176076
Maison Alphonse-Desjardins,Société historique Alphonse-Desjardins,"Institution muséale (musée, centre d'exposition, lieu d'interprétation)",Reconnu,,Lieu d'interprétation,,"Institutions muséales (musées, centres d'exposition et lieux d'interprétation)","6, rue du Mont-Marie",Lévis,12,Chaudière-Appalaches,Québec,Canada,G6V 1V9,https://www.desjardins.com/a-propos/desjardins/qui-nous-sommes/notre-histoire-musee/,-71.181908550567968,46.809504455540974
Maison Chapais,Association patrimoniale de Saint-Denis-de-la-Bouteillerie,"Institution muséale (musée, centre d'exposition, lieu d'interprétation)",Reconnu et soutenu,Institutions muséales,Lieu d'interprétation,Histoire et ethnologie,"Institutions muséales (musées, centres d'exposition et lieux d'interprétation)","2, route 132 Est",Saint-Denis-de-la-Bouteillerie,1,Bas Saint-Laurent,Québec,Canada,G0L 2R0, http://www.maisonchapais.com ,-69.937523419661488,47.503286767407872
Maison de la culture Côtes-des-Neiges,Ville de Montréal,"Institution muséale (musée, centre d'exposition, lieu d'interprétation)",Reconnu,,Centre d'exposition,,"Institutions muséales (musées, centres d'exposition et lieux d'interprétation)","5290, chemin de la Côte-des-Neiges",Montréal ,6,Montréal,Québec,Canada,H3T 1Y2,http://ville.montreal.qc.ca/culture/maison-de-la-culture-de-cote-des-neiges,-73.622237226630574,45.495915588693308
Maison de la culture Frontenac,Ville de Montréal,"Institution muséale (musée, centre d'exposition, lieu d'interprétation)",Reconnu,,Centre d'exposition,,"Institutions muséales (musées, centres d'exposition et lieux d'interprétation)","2550, Ontario Est",Montréal ,6,Montréal,Québec,Canada,H2K 1W7,http://ville.montreal.qc.ca/culture/maison-de-la-culture-frontenac,-73.551438383757912,45.532881423113551
Maison de la culture Marie-Uguay,Ville de Montréal,"Institution muséale (musée, centre d'exposition, lieu d'interprétation)",Reconnu,,Centre d'exposition,,"Institutions muséales (musées, centres d'exposition et lieux d'interprétation)","6052, boulevard Monk",Montréal ,6,Montréal,Québec,Canada,H4E 3H6,http://ville.montreal.qc.ca/culture/maison-de-la-culture-marie-uguay,-73.595494744616872,45.457638544900703
Maison de la culture Mercier,Ville de Montréal,"Institution muséale (musée, centre d'exposition, lieu d'interprétation)",Reconnu,,Centre d'exposition,,"Institutions muséales (musées, centres d'exposition et lieux d'interprétation)","8105, rue Hochelaga",Montréal ,6,Montréal,Québec,Canada,H1L 2K9,http://ville.montreal.qc.ca/culture/maison-de-la-culture-mercier,-73.523809948177032,45.59545601971346
Maison de la culture Notre-Dame-de-Grâce,Ville de Montréal,"Institution muséale (musée, centre d'exposition, lieu d'interprétation)",Reconnu,,Centre d'exposition,,"Institutions muséales (musées, centres d'exposition et lieux d'interprétation)","3755, rue Botrel",Montréal ,6,Montréal,Québec,Canada,H4A 3G8,http://ville.montreal.qc.ca/culture/maison-de-la-culture-de-notre-dame-de-grace,-73.614668904797796,45.475554078787042
Maison de la culture Plateau-Mont-Royal,Ville de Montréal,"Institution muséale (musée, centre d'exposition, lieu d'interprétation)",Reconnu,,Centre d'exposition,,"Institutions muséales (musées, centres d'exposition et lieux d'interprétation)","465, avenue du Mont-Royal Est",Montréal ,6,Montréal,Québec,Canada,H2J 1W3,http://ville.montreal.qc.ca/culture/maison-de-la-culture-du-plateau-mont-royal,-73.582684963893996,45.524943776545797
Maison de la Culture Roland-Jomphe,La Municipalité de Havre-Saint-Pierre,"Institution muséale (musée, centre d'exposition, lieu d'interprétation)",Reconnu,,Lieu d'interprétation,Muséologie/multiple,"Institutions muséales (musées, centres d'exposition et lieux d'interprétation)","957, rue de la Berge",Havre-Saint-Pierre,9,Côte-Nord,Québec,Canada,G0G 1P0,http://www.havresaintpierre.com/fr/s.php?s=1666642730&sn=maison-culture-roland-jomphe-bureau-information-touristique,-63.608307841973712,50.237776477697302
Maison de la culture Rosemont,Ville de Montréal,"Institution muséale (musée, centre d'exposition, lieu d'interprétation)",Reconnu,,Centre d'exposition,,"Institutions muséales (musées, centres d'exposition et lieux d'interprétation)","6707, avenue De Lorimier",Montréal ,6,Montréal,Québec,Canada,H2G 2P8,http://ville.montreal.qc.ca/culture/maison-de-la-culture-rosemont-la-petite-patrie,-73.597999910805115,45.547280286544634
Maison de nos Aïeux,La Fondation François Lamy Inc.,"Institution muséale (musée, centre d'exposition, lieu d'interprétation)",Reconnu et soutenu,Institutions muséales,Lieu d'interprétation,Histoire et ethnologie,"Institutions muséales (musées, centres d'exposition et lieux d'interprétation)","3907, chemin Royal","Sainte-Famille, Île d'Orléans ",3,Québec,Québec,Canada,G0A 3P0, http://www.fondationfrancoislamy.org ,-74.216865439890086,45.386144783379024
Maison Déry (Site de pêche Déry),Corporation des lieux historiques de Pont-Rouge,"Institution muséale (musée, centre d'exposition, lieu d'interprétation)",Reconnu et soutenu,Institutions muséales,Lieu d'interprétation,Histoire et ethnologie,"Institutions muséales (musées, centres d'exposition et lieux d'interprétation)","125, chemin du Roy",Pont-Rouge ,3,Québec,Québec,Canada,G3H 2G7, http://maisondery.pont-rouge.org/  ,-71.69517796539219,46.743972775919993
Maison Drouin,La Fondation François Lamy Inc.,"Institution muséale (musée, centre d'exposition, lieu d'interprétation)",Reconnu et soutenu,Institutions muséales,Lieu d'interprétation,Histoire et ethnologie,"Institutions muséales (musées, centres d'exposition et lieux d'interprétation)","2958, chemin Royal","Sainte-Famille, Île d'Orléans ",3,Québec,Québec,Canada,G0A 3P0,http://www.maisondrouin.com,-70.9008327,47.0022486
Maison du Frère-Moffet,Société d'histoire du Témiscamingue,"Institution muséale (musée, centre d'exposition, lieu d'interprétation)",Reconnu et soutenu,Institutions muséales,Lieu d'interprétation,Histoire et ethnologie,"Institutions muséales (musées, centres d'exposition et lieux d'interprétation)","7, rue Notre-Dame-de-Lourdes",Ville-Marie,8,Abitibi-Témiscamingue,Québec,Canada,J9V 1X7, http://www.maisondufreremoffet.com/ ,-79.443037060235099,47.331804105863753
Maison Girardin,Société d'art et d'histoire de Beauport ,"Institution muséale (musée, centre d'exposition, lieu d'interprétation)",Reconnu et soutenu,Institutions muséales,Lieu d'interprétation,Histoire et ethnologie,"Institutions muséales (musées, centres d'exposition et lieux d'interprétation)","600, avenue Royale ",Québec ,3,Québec,Québec,Canada,G1E 7G3,http://sahb.ca/maisongirardin/,-71.191966569744153,46.859140048871609
Maison Hamel-Bruneau,,"Institution muséale (musée, centre d'exposition, lieu d'interprétation)",Reconnu,,Centre d'exposition,,"Institutions muséales (musées, centres d'exposition et lieux d'interprétation)","2608, chemin Saint-Louis C.P. 218",Québec ,3,Québec,Québec,Canada,G1V 4E1,http://www.maisonsdupatrimoine.com/fr/patrimoine-et-architecture/maison-hamel-bruneau.html,-71.272983979478113,46.767128069158424
Maison Henry-Stuart ,Action patrimoine,"Institution muséale (musée, centre d'exposition, lieu d'interprétation)",Reconnu,,Lieu d'interprétation,,"Institutions muséales (musées, centres d'exposition et lieux d'interprétation)","82, Grande Allée Ouest",Québec ,3,Québec,Québec,Canada,G1R 2G6,http://actionpatrimoine.ca/activites/le-the-chez-les-stuart/,-71.223940415634388,46.802454023780179
Maison nationale des Patriotes,Maison nationale des Patriotes (autre nom) Les patriotes du pays inc.,"Institution muséale (musée, centre d'exposition, lieu d'interprétation)",Reconnu et soutenu,Institutions muséales,Lieu d'interprétation,Histoire et ethnologie,"Institutions muséales (musées, centres d'exposition et lieux d'interprétation)","610, chemin des Patriotes",Saint-Denis-sur-Richelieu,16,Montérégie,Québec,Canada,J0H 1K0, http://www.mndp.qc.ca ,-73.159778457408137,45.784847760235529
Maison Rodolphe-Duguay,Maison Rodolphe-Duguay de Nicolet-Sud,"Institution muséale (musée, centre d'exposition, lieu d'interprétation)",Reconnu et soutenu,Institutions muséales,Lieu d'interprétation,Arts,"Institutions muséales (musées, centres d'exposition et lieux d'interprétation)","195, rang Saint-Alexis",Nicolet ,17,Centre-du-Québec,Québec,Canada,J3T 1T5, http://www.rodolpheduguay.com ,-72.617889348881263,46.221298895497533
Maison Saint-Gabriel,,"Institution muséale (musée, centre d'exposition, lieu d'interprétation)",Reconnu et soutenu,Institutions muséales,Musée,Histoire et ethnologie,"Institutions muséales (musées, centres d'exposition et lieux d'interprétation)","2146, place Dublin, Pointe-Saint-Charles",Montréal ,6,Montréal,Québec,Canada,H3K 2A2, http://www.maisonsaint-gabriel.qc.ca ,-73.556234018655687,45.476252044377091
Manoir LeBoutillier,Le Centre socio-culturel Manoir LeBoutillier,"Institution muséale (musée, centre d'exposition, lieu d'interprétation)",Reconnu et soutenu,Institutions muséales,Lieu d'interprétation,Histoire et ethnologie,"Institutions muséales (musées, centres d'exposition et lieux d'interprétation)","578, boulevard du Griffon",Gaspé (L'Anse-au-Griffon),11,Gaspésie-Iles-de-la-Madeleine,Québec,Canada,G4X 6A4,http://manoirleboutillier.ca/,-64.301872584982746,48.93202781877703
Monastère des Augustines ,Les Augustines de la Miséricorde de Jésus du Monastère de l'Hôtel-Dieu de Québec,"Institution muséale (musée, centre d'exposition, lieu d'interprétation)",Reconnu et soutenu,Institutions muséales,Musée,,"Institutions muséales (musées, centres d'exposition et lieux d'interprétation)","32, rue Charlevoix",Québec ,3,Québec,Québec,Canada,G1R 5C4,http://monastere.ca/fr/pages/museum,-71.209312714518717,46.815448208920728
Moulin à laine d'Ulverton,Corporation du Vieux moulin d'Ulverton inc.,"Institution muséale (musée, centre d'exposition, lieu d'interprétation)",Reconnu et soutenu,Institutions muséales,Lieu d'interprétation,Histoire et ethnologie,"Institutions muséales (musées, centres d'exposition et lieux d'interprétation)","210, chemin Porter",Ulverton ,5,Estrie,Québec,Canada,J0B 2B0, http://www.moulin.ca ,-72.269520581812714,45.690310026253584
Moulin Bernier,La Corporation du Moulin Bernier,"Institution muséale (musée, centre d'exposition, lieu d'interprétation)",Reconnu,,Lieu d'interprétation,,"Institutions muséales (musées, centres d'exposition et lieux d'interprétation)","100, rue du Moulin",Courcelles ,5,Estrie,Québec,Canada,G0M 1C0, http://www.moulinbernier.ca ,-70.984995785255222,45.871450134422126
Moulin de la Chevrotière,Culture et patrimoine Deschambault-Grondines,"Institution muséale (musée, centre d'exposition, lieu d'interprétation)",Reconnu et soutenu,Institutions muséales,Lieu d'interprétation,Histoire et ethnologie,"Institutions muséales (musées, centres d'exposition et lieux d'interprétation)","109, rue de Chavigny",Deschambault ,3,Québec,Québec,Canada,G0A 1S0,http://www.culture-patrimoine-deschambault-grondines.ca/,-71.988886900032227,46.628236200995232
Moulin des Jésuites,Corporation du Moulin des Jésuites,"Institution muséale (musée, centre d'exposition, lieu d'interprétation)",Reconnu et soutenu,Institutions muséales,Lieu d'interprétation,Histoire et ethnologie,"Institutions muséales (musées, centres d'exposition et lieux d'interprétation)","7960, boulevard Henri-Bourrassa",Québec ,3,Québec,Québec,Canada,G1H 3G3,http://www.moulindesjesuites.org,-71.266969280678879,46.862620429863028
Moulin des Pionniers,Corporation du Moulin des pionniers de La Doré inc.,"Institution muséale (musée, centre d'exposition, lieu d'interprétation)",Reconnu et soutenu,Institutions muséales,Lieu d'interprétation,Histoire et ethnologie,"Institutions muséales (musées, centres d'exposition et lieux d'interprétation)","4205, chemin des Pionniers",La Doré ,2,Saguenay-Lac-Saint-Jean,Québec,Canada,G8J 1E4,http://moulindespionniers.com/,-72.6488494,48.6997052
Moulin Michel de Gentilly,Société des amis du moulin Michel inc.,"Institution muséale (musée, centre d'exposition, lieu d'interprétation)",Reconnu et soutenu,Institutions muséales,Lieu d'interprétation,Histoire et ethnologie,"Institutions muséales (musées, centres d'exposition et lieux d'interprétation)","675, boulevard Bécancour",Bécancour,17,Centre-du-Québec,Québec,Canada,G9H 3S9,http://moulinmichel.qc.ca/,-72.24748592762154,46.41281650494976
Moulin seigneurial de Pointe-du-Lac,Moulin seigneurial de Pointe-du-Lac inc.,"Institution muséale (musée, centre d'exposition, lieu d'interprétation)",Reconnu et soutenu,Institutions muséales,Lieu d'interprétation,Histoire et ethnologie,"Institutions muséales (musées, centres d'exposition et lieux d'interprétation)","11930, rue Notre-Dame Ouest",Trois-Rivières ,4,Mauricie,Québec,Canada,G9B 6X1,www.moulin-pointedulac.com,-72.68907540067336,46.28789908963261
Musée acadien du Québec à Bonaventure,La Corporation de développement touristique de Bonaventure,"Institution muséale (musée, centre d'exposition, lieu d'interprétation)",Reconnu et soutenu,Institutions muséales,Musée,Histoire et ethnologie,"Institutions muséales (musées, centres d'exposition et lieux d'interprétation)","95, avenue Port-Royal",Bonaventure,11,Gaspésie-Iles-de-la-Madeleine,Québec,Canada,G0C 1E0, http://www.museeacadien.com ,-65.491768172414055,48.044705403567072
Musée amérindien de Mashteuiatsh,Société d'histoire et d'archéologie de Mashteuiatsh,"Institution muséale (musée, centre d'exposition, lieu d'interprétation)",Reconnu et soutenu,Institutions muséales,Musée,Histoire et ethnologie,"Institutions muséales (musées, centres d'exposition et lieux d'interprétation)","1787, rue Amishk",Mashteuiatsh ,2,Saguenay-Lac-Saint-Jean,Québec,Canada,G0W 2H0, http://www.museeilnu.ca ,-72.232648832670449,48.580123662004866
Musée Armand-Frappier,,"Institution muséale (musée, centre d'exposition, lieu d'interprétation)",Reconnu,,Musée,,"Institutions muséales (musées, centres d'exposition et lieux d'interprétation)","531, boulevard des Prairies",Laval,13,Laval,Québec,Canada,H7V 1B7,http://www.musee-afrappier.qc.ca/,-73.721149951508608,45.543199977024614
Musée Beaulne,Musée Beaulne inc.,"Institution muséale (musée, centre d'exposition, lieu d'interprétation)",Reconnu et soutenu,Institutions muséales,Musée,Histoire et ethnologie,"Institutions muséales (musées, centres d'exposition et lieux d'interprétation)","96, rue de l'Union",Coaticook ,5,Estrie,Québec,Canada,J1A 1Y9, http://www.museebeaulne.qc.ca ,-71.807958691921016,45.130341354455418
Musée Colby-Curtis,Société historique de Stanstead,"Institution muséale (musée, centre d'exposition, lieu d'interprétation)",Reconnu et soutenu,Institutions muséales,Musée,Histoire et ethnologie,"Institutions muséales (musées, centres d'exposition et lieux d'interprétation)","535, rue Dufferin",Stanstead ,5,Estrie,Québec,Canada,JOB 3E0,https://colbycurtis.ca/fr/,-72.093732785626159,45.016528288196902
Musée d'art contemporain,,"Institution muséale (musée, centre d'exposition, lieu d'interprétation)",Reconnu et soutenu,Institutions muséales,Musée,,"Institutions muséales (musées, centres d'exposition et lieux d'interprétation)","185, rue Sainte-Catherine Ouest",Montréal,6,Montréal,Québec,Canada,H2X 3X5,http://www.macm.org/,-73.56651913058198,45.50776905762504
Musée d'art contemporain de Baie-Saint-Paul,Musée d'art contemporain de Baie-Saint-Paul,"Institution muséale (musée, centre d'exposition, lieu d'interprétation)",Reconnu et soutenu,Institutions muséales,Musée,Arts,"Institutions muséales (musées, centres d'exposition et lieux d'interprétation)","23, rue Ambroise-Fafard",Baie-Saint-Paul ,3,Québec,Québec,Canada,G3Z 2J2, http://www.macbsp.com ,-70.505596080500581,47.440351514472304
Musée d'art contemporain des Laurentides,,"Institution muséale (musée, centre d'exposition, lieu d'interprétation)",Reconnu et soutenu,Institutions muséales,Musée,Arts,"Institutions muséales (musées, centres d'exposition et lieux d'interprétation)","101, place du Curé-Labelle",Saint-Jérôme,15,Laurentides,Québec,Canada,J7Z 1X6, http://www.museelaurentides.ca/ ,-74.003160961189963,45.778786294755456
Musée d'art de Joliette,,"Institution muséale (musée, centre d'exposition, lieu d'interprétation)",Reconnu et soutenu,Institutions muséales,Musée,Arts,"Institutions muséales (musées, centres d'exposition et lieux d'interprétation)","145, rue du Père-Wilfrid-Corbeil",Joliette,14,Lanaudière,Québec,Canada,J6E 4T4,http://www.museejoliette.org/fr/,-73.436232417079069,46.024209919803241
Musée Daniel Weetaluktuk,Institut culturel Avataq inc.,"Institution muséale (musée, centre d'exposition, lieu d'interprétation)",Reconnu,,Musée,,"Institutions muséales (musées, centres d'exposition et lieux d'interprétation)",,Inukjuak,10,Nord-du-Québec,Québec,Canada,J0M 1M0,www.avataq.qc.ca/fr/content/view/full/313 ,-78.1051029,58.455121
Musée de Charlevoix,Musée de Charlevoix Inc.,"Institution muséale (musée, centre d'exposition, lieu d'interprétation)",Reconnu et soutenu,Institutions muséales,Musée,Histoire et ethnologie,"Institutions muséales (musées, centres d'exposition et lieux d'interprétation)","10, chemin du Havre",La Malbaie ,3,Québec,Québec,Canada,G5A 2Y8, http://www.museedecharlevoix.qc.ca ,-70.141939129499789,47.630414732488759
Musée de Guérin,,"Institution muséale (musée, centre d'exposition, lieu d'interprétation)",Reconnu,,Musée,,"Institutions muséales (musées, centres d'exposition et lieux d'interprétation)","932, rue Principale Nord",Guérin,8,Abitibi-Témiscamingue,Québec,Canada,J0Z 2E0,http://www.museedeguerin.com/,-79.31395382971688,47.659748989788795
Musée de l'accordéon,,"Institution muséale (musée, centre d'exposition, lieu d'interprétation)",Reconnu,,Musée,,"Institutions muséales (musées, centres d'exposition et lieux d'interprétation)","301, boulevard Taché Est",Montmagny,12,Chaudière-Appalaches,Québec,Canada,G5V 1C5,http://www.accordeonmontmagny.com/musee-de-laccordeon-2/,-70.546949119076572,46.985454368737223
Musée de la Défense aérienne de Bagotville,Musée de la défense aérienne de Bagotville,"Institution muséale (musée, centre d'exposition, lieu d'interprétation)",Reconnu,,Lieu d'interprétation,,"Institutions muséales (musées, centres d'exposition et lieux d'interprétation)","6513, chemin Saint-Anicet, ", Saguenay Arr. La Baie (Alouette) ,2,Saguenay-Lac-Saint-Jean,Québec,Canada,G0V 1A0,www.museebagotville.ca,-73.655728467882483,45.477823720164906
Musée de la Gare (anciennement Gare de Témiscaming),Société historique P.E. Gendreau,"Institution muséale (musée, centre d'exposition, lieu d'interprétation)",Reconnu et soutenu,Institutions muséales,Lieu d'interprétation,Histoire et ethnologie,"Institutions muséales (musées, centres d'exposition et lieux d'interprétation)","15, rue Humphrey",Témiscaming,8,Abitibi-Témiscamingue,Québec,Canada,J0Z 3R0,www.museedelagare.com/,-79.09352063855836,46.721136601126624
Musée de la Gaspésie,,"Institution muséale (musée, centre d'exposition, lieu d'interprétation)",Reconnu et soutenu,Institutions muséales,Musée,Histoire et ethnologie,"Institutions muséales (musées, centres d'exposition et lieux d'interprétation)","80, boulevard de Gaspé",Gaspé,11,Gaspésie-Iles-de-la-Madeleine,Québec,Canada,G4X 1A9, http://www.museedelagaspesie.ca ,-64.474456137673485,48.836893290211258
Musée de la mer,Musée de la Mer inc.,"Institution muséale (musée, centre d'exposition, lieu d'interprétation)",Reconnu et soutenu,Institutions muséales,Musée,Histoire et ethnologie,"Institutions muséales (musées, centres d'exposition et lieux d'interprétation)","1023, Chemin de la Grave       ","Havre-Aubert, Îles-de-la-Madeleine",11,Gaspésie-Iles-de-la-Madeleine,Québec,Canada,G4T 9C8,http://www.museedelamer-im.com/,-61.832257829259206,47.238740650331422
Musée de la mode ,Musée du costume et du textile du Québec inc.,"Institution muséale (musée, centre d'exposition, lieu d'interprétation)",Reconnu et soutenu,Institutions muséales,Musée,Histoire et ethnologie,"Institutions muséales (musées, centres d'exposition et lieux d'interprétation)",385 rue de la Commune Est,Montréal,6,Montréal,Québec,Canada,H2Y 1J3, http://www.mctq.org ,-73.551498807241629,45.508980867007359
Musée de la nature et des sciences de Sherbrooke,Musée de la nature et des sciences inc.,"Institution muséale (musée, centre d'exposition, lieu d'interprétation)",Reconnu et soutenu,Institutions muséales,Musée,Sciences naturelles et environnementales,"Institutions muséales (musées, centres d'exposition et lieux d'interprétation)","225, rue Frontenac",Sherbrooke ,5,Estrie,Québec,Canada,J1H 1K1, www.naturesciences.qc.ca ,-71.895498845912087,45.403458510008001
Musée de Lachine,Ville de Montréal,"Institution muséale (musée, centre d'exposition, lieu d'interprétation)",Reconnu,,Musée,,"Institutions muséales (musées, centres d'exposition et lieux d'interprétation)","1, chemin du Musée",Lachine ,6,Montréal,Québec,Canada,H8S 4L9,"http://ville.montreal.qc.ca/portal/page?_pageid=3156,3575643&_dad=portal&_schema=PORTAL",-73.666459787200054,45.429945505276876
Musée des Abénakis,Société historique d'Odanak,"Institution muséale (musée, centre d'exposition, lieu d'interprétation)",Reconnu et soutenu,Institutions muséales,Musée,Histoire et ethnologie,"Institutions muséales (musées, centres d'exposition et lieux d'interprétation)","108, rue Waban-Aki",Odanak,17,Centre-du-Québec,Québec,Canada,J0G 1H0, http://www.museedesabenakis.ca ,-72.820152909284417,46.073282387461539
Musée des beaux-arts de Mont-Saint-Hilaire,,"Institution muséale (musée, centre d'exposition, lieu d'interprétation)",Reconnu,,Musée,,"Institutions muséales (musées, centres d'exposition et lieux d'interprétation)","150, rue du Centre-Civique",Mont-Saint-Hilaire,16,Montérégie,Québec,Canada,J3H 5Z5,http://www.mbamsh.qc.ca/,-73.190273285219959,45.565576970572117
Musée des beaux-arts de Montréal,,"Institution muséale (musée, centre d'exposition, lieu d'interprétation)",Reconnu et soutenu,Institutions muséales,Musée,,"Institutions muséales (musées, centres d'exposition et lieux d'interprétation)","1379-1380, rue Sherbrooke Ouest",Montréal,6,Montréal,Québec,Canada,H3G 2T9,http://www.mbam.qc.ca/fr,-73.580561314574666,45.498957856149701
Musée des beaux-arts de Sherbrooke,Musée des beaux-arts de Sherbrooke inc.,"Institution muséale (musée, centre d'exposition, lieu d'interprétation)",Reconnu et soutenu,Institutions muséales,Musée,Arts,"Institutions muséales (musées, centres d'exposition et lieux d'interprétation)","241, rue Dufferin",Sherbrooke ,5,Estrie,Québec,Canada,J1H 4M3, http://www.mbas.qc.ca ,-71.894665616217026,45.405097301697367
Musée des Hospitalières de l'Hôtel-Dieu de Montréal,,"Institution muséale (musée, centre d'exposition, lieu d'interprétation)",Reconnu,,Musée,,"Institutions muséales (musées, centres d'exposition et lieux d'interprétation)","201, avenue des Pins Ouest",Montréal ,6,Montréal,Québec,Canada,H2W 1R5,http://www.museedeshospitalieres.qc.ca/,-73.576068121055457,45.514181777352874
Musée des maîtres et artisans du Québec,Le Musée des maîtres et artisans du Québec,"Institution muséale (musée, centre d'exposition, lieu d'interprétation)",Reconnu et soutenu,Institutions muséales,Musée,Arts,"Institutions muséales (musées, centres d'exposition et lieux d'interprétation)","615, avenue Sainte-Croix, arrondissement de Saint-Laurent",Montréal ,6,Montréal,Québec,Canada,H4L 3X6,http://www.mmaq.qc.ca/,-73.672908514479275,45.512294762685883
Musée des Religions du monde,"Musée d'histoire, d'ethnographie et d'art religieux de Nicolet","Institution muséale (musée, centre d'exposition, lieu d'interprétation)",Reconnu et soutenu,Institutions muséales,Musée,"Histoire,ethnologie et archéologie","Institutions muséales (musées, centres d'exposition et lieux d'interprétation)","900, boulevard Louis-Fréchette",Nicolet,17,Centre-du-Québec,Québec,Canada,J3T 1V5, http://www.museedesreligions.qc.ca ,-72.609776815774282,46.232658032528839
Musée des Ursulines de Québec,Province du Québec de l'Union canadienne des moniales de l'ordre de Sainte-Ursule,"Institution muséale (musée, centre d'exposition, lieu d'interprétation)",Reconnu et soutenu,Institutions muséales,Musée,Histoire et ethnologie,"Institutions muséales (musées, centres d'exposition et lieux d'interprétation)","12, rue Donnacona",Québec ,3,Québec,Québec,Canada,G1R 3Y7,http://www.museedesursulines.com/,-71.208262576805168,46.811961723796877
Musée des Ursulines de Trois-Rivières,Musée des Ursulines de Trois-Rivières inc.,"Institution muséale (musée, centre d'exposition, lieu d'interprétation)",Reconnu,,Musée,,"Institutions muséales (musées, centres d'exposition et lieux d'interprétation)","734, rue des Ursulines",Trois-Rivières ,4,Mauricie,Québec,Canada,G9A 5B5,http://www.musee-ursulines.qc.ca/,-72.537165612488295,46.344798306371544
Musée du Bas-Saint-Laurent,Musée du Bas-Saint-Laurent,"Institution muséale (musée, centre d'exposition, lieu d'interprétation)",Reconnu et soutenu,Institutions muséales,Musée,Arts,"Institutions muséales (musées, centres d'exposition et lieux d'interprétation)","300, rue Saint-Pierre C.P. 1598",Rivière-du-Loup ,1,Bas Saint-Laurent,Québec,Canada,G5R 3V3,http://www.mbsl.qc.ca,-69.545257544854437,47.829129097164319
Musée du Bronze d'Inverness,Musée du bronze d'Inverness - Centre d'interprétation de la fonderie d'art,"Institution muséale (musée, centre d'exposition, lieu d'interprétation)",Reconnu,,Musée,,"Institutions muséales (musées, centres d'exposition et lieux d'interprétation)","1760, rue Dublin",Inverness,17,Centre-du-Québec,Québec,Canada,G0S 1K0,http://www.museedubronze.com/,-71.526274733753894,46.261777294794278
Musée du Centre commémoratif de l'Holocauste à Montréal,Le Centre commémoratif de l'Holocauste à Montréal,"Institution muséale (musée, centre d'exposition, lieu d'interprétation)",Reconnu et soutenu,Institutions muséales,Musée,,"Institutions muséales (musées, centres d'exposition et lieux d'interprétation)","5151, chemin de la Côte Ste-Catherine",Montréal ,6,Montréal,Québec,Canada,H3W 1M6,http://www.mhmc.ca/fr/index.html,-73.63679437519157,45.489213146988504
Musée du Château Dufresne / Musée Dufresne Nicheri,Société du Château Dufresne inc.,"Institution muséale (musée, centre d'exposition, lieu d'interprétation)",Reconnu,,Lieu d'interprétation,,"Institutions muséales (musées, centres d'exposition et lieux d'interprétation)","2929, avenue Jeanne-D'Arc",Montréal ,6,Montréal,Québec,Canada,H1W 3W2,http://www.chateaudufresne.com/,-73.553443532606025,45.553417081465682
Musée du Château Ramezay,,"Institution muséale (musée, centre d'exposition, lieu d'interprétation)",Reconnu et soutenu,Institutions muséales,Musée,"Histoire,ethnologie et archéologie","Institutions muséales (musées, centres d'exposition et lieux d'interprétation)","280, rue Notre-Dame Est",Montréal ,6,Montréal,Québec,Canada,H2Y 1C5,http://www.chateauramezay.qc.ca/,-73.553251834779331,45.508737097709599
Musée du Fjord,,"Institution muséale (musée, centre d'exposition, lieu d'interprétation)",Reconnu et soutenu,Institutions muséales,Lieu d'interprétation,Sciences naturelles et environnementales,"Institutions muséales (musées, centres d'exposition et lieux d'interprétation)","3346, boulevard de la Grande Baie Sud",Saguenay Arr. La Baie ,2,Saguenay-Lac-Saint-Jean,Québec,Canada,G7B 1G2, http://www.museedufjord.com ,-70.853956940289038,48.317565814653761
Musée du Haut-Richelieu,,"Institution muséale (musée, centre d'exposition, lieu d'interprétation)",Reconnu,,Musée,,"Institutions muséales (musées, centres d'exposition et lieux d'interprétation)","182, rue Jacques-Cartier Nord",Saint-Jean-sur-Richelieu,16,Montérégie,Québec,Canada,J3B 7W3,http://www.museeduhaut-richelieu.com/,-73.254154337059219,45.305333017831018
Musée Laurier,La Société du Musée Laurier inc.,"Institution muséale (musée, centre d'exposition, lieu d'interprétation)",Reconnu et soutenu,Institutions muséales,Musée,Histoire et ethnologie,"Institutions muséales (musées, centres d'exposition et lieux d'interprétation)","16, rue Laurier Ouest",Victoriaville,17,Centre-du-Québec,Québec,Canada,G6P 6P3, http://www.museelaurier.com ,-71.914988795770768,46.037240084382987
Musée Louis-Hémon,Musée Louis-Hémon inc.,"Institution muséale (musée, centre d'exposition, lieu d'interprétation)",Reconnu et soutenu,Institutions muséales,Musée,Histoire et ethnologie,"Institutions muséales (musées, centres d'exposition et lieux d'interprétation)","700, route Maria-Chapdelaine",Péribonka ,2,Saguenay-Lac-Saint-Jean,Québec,Canada,G0W 2G0, http://www.museelh.ca/accueil/accueil.php ,-71.985358987273273,48.741314371579712
Musée Marguerite-Bourgeoys,Corporation de la Chapelle Notre-Dame-De-Bon-Secours et du Musée Marguerite-Bourgeoys,"Institution muséale (musée, centre d'exposition, lieu d'interprétation)",Reconnu,,Musée,,"Institutions muséales (musées, centres d'exposition et lieux d'interprétation)","400, rue Saint-Paul Est",Montréal ,6,Montréal,Québec,Canada,H2Y 1H4,http://www.marguerite-bourgeoys.com/,-73.551051648849523,45.509871912126577
Musée maritime de Charlevoix,,"Institution muséale (musée, centre d'exposition, lieu d'interprétation)",Reconnu et soutenu,Institutions muséales,Lieu d'interprétation,Histoire et ethnologie,"Institutions muséales (musées, centres d'exposition et lieux d'interprétation)","305, rue de l'Église",Saint-Joseph-de-la Rive ,3,Québec,Québec,Canada,G0A 3Y0, http://www.musee-maritime-charlevoix.com ,-70.363548817494191,47.457305850581022
Musée maritime du Québec,Musée maritime du Québec inc.,"Institution muséale (musée, centre d'exposition, lieu d'interprétation)",Reconnu et soutenu,Institutions muséales,Musée,Histoire et ethnologie,"Institutions muséales (musées, centres d'exposition et lieux d'interprétation)","55, chemin des Pionniers Est",L'Islet,12,Chaudière-Appalaches,Québec,Canada,G0R 2B0, http://www.mmq.qc.ca ,-70.371140925134171,47.128531218902907
Musée Marius-Barbeau,,"Institution muséale (musée, centre d'exposition, lieu d'interprétation)",Reconnu et soutenu,Institutions muséales,Musée,Histoire et ethnologie,"Institutions muséales (musées, centres d'exposition et lieux d'interprétation)","139, rue Sainte-Christine",Saint-Joseph-de-Beauce,12,Chaudière-Appalaches,Québec,Canada,G0S 2V0, http://www.museemariusbarbeau.com ,-70.882316725307774,46.31136071907067
Musée McCord Stewart,Le Musée McCord d'histoire canadienne,"Institution muséale (musée, centre d'exposition, lieu d'interprétation)",Reconnu et soutenu,Institutions muséales,Musée,Muséologie/multiple,"Institutions muséales (musées, centres d'exposition et lieux d'interprétation)","690, rue Sherbrooke Ouest",Montréal ,6,Montréal,Québec,Canada,H3A 1E9,"http://www.musee-mccord.qc.ca/fr
http://www.stewart-museum.org/fr",-73.573466674560038,45.504325716948458
Musée minéralogique de Malartic,Musée minéralogique de Malartic,"Institution muséale (musée, centre d'exposition, lieu d'interprétation)",Reconnu et soutenu,Institutions muséales,Musée,Sciences naturelles et environnementales,"Institutions muséales (musées, centres d'exposition et lieux d'interprétation)","650, rue de la Paix, C.P. 4227     ",Malartic,8,Abitibi-Témiscamingue,Québec,Canada,J0Y 1Z0, http://www.museemalartic.qc.ca ,-78.122281474364527,48.133502881238705
Musée minéralogique et minier de Thetford Mines,Musée minéralogique et minier de Thetford Mines,"Institution muséale (musée, centre d'exposition, lieu d'interprétation)",Reconnu et soutenu,Institutions muséales,Musée,Sciences et technologie,"Institutions muséales (musées, centres d'exposition et lieux d'interprétation)","711, boulevard Frontenac Ouest",Thetford Mines,12,Chaudière-Appalaches,Québec,Canada,G6G 7Y8, http://www.museemineralogique.com ,-71.325645193100357,46.096033361858005
Musée Missisquoi,Société d'histoire de Missisquoi,"Institution muséale (musée, centre d'exposition, lieu d'interprétation)",Reconnu et soutenu,Institutions muséales,Musée,Histoire et ethnologie,"Institutions muséales (musées, centres d'exposition et lieux d'interprétation)","2, rue River (C.P. 186)",Stanbridge East,16,Montérégie,Québec,Canada,J0J 2H0, http://museemissisquoi.ca ,-72.915193261227145,45.121011542879884
Musée national des beaux-arts du Québec,,"Institution muséale (musée, centre d'exposition, lieu d'interprétation)",Reconnu et soutenu,Institutions muséales,Musée,,"Institutions muséales (musées, centres d'exposition et lieux d'interprétation)","179, Grande-Allée Ouest",Québec   ,3,Québec,Québec,Canada,G1R 2H1,http://www.mnba.qc.ca/,-71.224979554482502,46.800819071622918
Musée Pierre-Boucher,,"Institution muséale (musée, centre d'exposition, lieu d'interprétation)",Reconnu et soutenu,Institutions muséales,Musée,Arts,"Institutions muséales (musées, centres d'exposition et lieux d'interprétation)","858, rue Laviolette",Trois-Rivières ,4,Mauricie,Québec,Canada,G9A 5J1,http://www.museepierreboucher.com/,-72.544761961815794,46.349071139417532
Musée québécois de culture populaire,,"Institution muséale (musée, centre d'exposition, lieu d'interprétation)",Reconnu et soutenu,Institutions muséales,Musée,Histoire et ethnologie,"Institutions muséales (musées, centres d'exposition et lieux d'interprétation)","200, rue Laviolette",Trois-Rivières ,4,Mauricie,Québec,Canada,G9A 6L5, http://www.culturepop.qc.ca ,-72.539832191711682,46.344936250674991
Musée québécois de l'agriculture et de l'alimentation (Musée François-Pilote),Musée François-Pilote,"Institution muséale (musée, centre d'exposition, lieu d'interprétation)",Reconnu et soutenu,Institutions muséales,Musée,Histoire ethonologie et archéologie,"Institutions muséales (musées, centres d'exposition et lieux d'interprétation)","100, 4e Avenue",La Pocatière ,1,Bas Saint-Laurent,Québec,Canada,G0R 1Z0,http://www.mqaa.ca,-70.0427027,47.3669821
Musée Redpath,Université McGill,"Institution muséale (musée, centre d'exposition, lieu d'interprétation)",Reconnu,,Musée,,"Institutions muséales (musées, centres d'exposition et lieux d'interprétation)","859, rue Sherbrooke Ouest",Montréal ,6,Montréal,Québec,Canada,H3A 2K6,http://www.mcgill.ca/redpath/,-73.57689745102806,45.505187282479923
Musée régional de Kamouraska,Le Musée régional de Kamouraska inc.,"Institution muséale (musée, centre d'exposition, lieu d'interprétation)",Reconnu,,Musée,,"Institutions muséales (musées, centres d'exposition et lieux d'interprétation)","69, avenue Morel C.P. 99",Kamouraska ,1,Bas Saint-Laurent,Québec,Canada,G0L 1M0,http://www.kamouraska.ca/histoire/le-musee/,-69.868366704029569,47.566126900929632
Musée régional de la Côte-Nord,Musée régional de la Côte-Nord inc.,"Institution muséale (musée, centre d'exposition, lieu d'interprétation)",Reconnu et soutenu,Institutions muséales,Musée,Histoire et ethnologie,"Institutions muséales (musées, centres d'exposition et lieux d'interprétation)","500, boulevard Laure",Sept-Îles,9,Côte-Nord,Québec,Canada,G4R 1X7, http://www.mrcn.qc.ca ,-66.375621056163595,50.213908933134547
Musée régional de Rimouski,La Corporation du Musée régional de Rimouski inc.,"Institution muséale (musée, centre d'exposition, lieu d'interprétation)",Reconnu et soutenu,Institutions muséales,Centre d'exposition,Arts,"Institutions muséales (musées, centres d'exposition et lieux d'interprétation)","35, rue Saint-Germain Ouest",Rimouski ,1,Bas Saint-Laurent,Québec,Canada,G5L 4B4, http://www.museerimouski.qc.ca ,-68.529100661002502,48.450440993255448
Musée régional de Vaudreuil-Soulanges,,"Institution muséale (musée, centre d'exposition, lieu d'interprétation)",Reconnu et soutenu,Institutions muséales,Musée,Histoire et ethnologie,"Institutions muséales (musées, centres d'exposition et lieux d'interprétation)","431, avenue Saint-Charles",Vaudreuil-Dorion,16,Montérégie,Québec,Canada,J7V 2N3, http://www.mrvs.qc.ca ,-74.027002938103436,45.400343546083349
Parc de l'aventure basque en Amérique,Centre international du Loisir culturel de Trois-Pistoles,"Institution muséale (musée, centre d'exposition, lieu d'interprétation)",Reconnu,,Lieu d'interprétation,,"Institutions muséales (musées, centres d'exposition et lieux d'interprétation)","66, rue du Parc",Trois-Pistoles,1,Bas Saint-Laurent,Québec,Canada,G0L 4K0,,-69.184036525673449,48.126780816638465
Parc historique de la Poudrière de Windsor,Parc historique de la Poudrière de Windsor,"Institution muséale (musée, centre d'exposition, lieu d'interprétation)",Reconnu,,Lieu d'interprétation,,"Institutions muséales (musées, centres d'exposition et lieux d'interprétation)","342, rue Saint-Georges",Windsor ,5,Estrie,Québec,Canada,J1S 2Z5,http://www.poudriere-windsor.com/,-71.990851756972432,45.577451964029116
Parc maritime de Saint-Laurent-de-l'Île-d'Orléans,"Corporation du Parc maritime de Saint-Laurent, I.O.","Institution muséale (musée, centre d'exposition, lieu d'interprétation)",Reconnu et soutenu,Institutions muséales,Lieu d'interprétation,Histoire et ethnologie,"Institutions muséales (musées, centres d'exposition et lieux d'interprétation)","120, chemin de la Chalouperie",Saint-Laurent-de-l'Ïle-d'Orléans ,3,Québec,Québec,Canada,G0A 3Z0, http://www.parcmaritime.ca/ ,-71.013677938752977,46.859084555380107
Patrimoine de Berthier (Chapelle des Cuthbert),Corporation du patrimoine de Berthier,"Institution muséale (musée, centre d'exposition, lieu d'interprétation)",Reconnu et soutenu,Institutions muséales,Lieu d'interprétation,Histoire et ethnologie,"Institutions muséales (musées, centres d'exposition et lieux d'interprétation)","750, rue Lambert",Berthierville,14,Lanaudière,Québec,Canada,J0K 1A0,http://www.lachapelledescuthbert.com/,-73.187463499517264,46.084066123133695
Phare historique de Pointe-des-Monts,Corporation de promotion et de développement du site du phare historique de Pointe-des-Monts,"Institution muséale (musée, centre d'exposition, lieu d'interprétation)",Reconnu et soutenu,Institutions muséales,Lieu d'interprétation,"Histoire,ethnologie et archéologie","Institutions muséales (musées, centres d'exposition et lieux d'interprétation)","1830, chemin du Vieux Phare",Baie-Trinité,9,Côte-Nord,Québec,Canada,G0H 1A0,http://tourismecote-nord.com/membres/culture-et-decouverte/musees-et-centres-dinterpretation/phare-de-pointe-des-monts/,-67.321356154327574,49.407863591367217
Planétarium de Montréal,Ville de Montréal,"Institution muséale (musée, centre d'exposition, lieu d'interprétation)",Reconnu,,Musée,,"Institutions muséales (musées, centres d'exposition et lieux d'interprétation)","1000,rue Saint-Jacques",Montréal ,6,Montréal,Québec,Canada,H1V 3V4,http://espacepourlavie.ca/planetarium?lang=fr,-73.564071786910475,45.496170424623884
"Plein sud, centre d'exposition en art actuel à Longueuil","Plein Sud, centre d'exposition et d'animation en art actuel à Longueuil","Institution muséale (musée, centre d'exposition, lieu d'interprétation)",Reconnu,,Centre d'exposition,,"Institutions muséales (musées, centres d'exposition et lieux d'interprétation)","150, rue De Gentilly Est,  Local D-0626",Longueuil,16,Montérégie,Québec,Canada,J4H 4A9, http://www.plein-sud.org ,-73.493943684212297,45.535942518806515
"Pointe-à-Callière, musée d'archéologie et d'histoire de Montréal",Société du musée d'archéologie et d'histoire de Montréal  Pointe-à-Callière,"Institution muséale (musée, centre d'exposition, lieu d'interprétation)",Reconnu,,Musée,,"Institutions muséales (musées, centres d'exposition et lieux d'interprétation)","350, place Royale",Montréal ,6,Montréal,Québec,Canada,H2Y 3Y5,http://www.pacmusee.qc.ca/,-73.554172269916322,45.502600925196262
"Pointe-du-Buisson, Musée québécois d'archéologie",Parc archéologique de la Pointe-du-Buisson inc.,"Institution muséale (musée, centre d'exposition, lieu d'interprétation)",Reconnu et soutenu,Institutions muséales,Lieu d'interprétation,Archéologie,"Institutions muséales (musées, centres d'exposition et lieux d'interprétation)","333, rue Émond","Beauharnois, secteur Melocheville",16,Montérégie,Québec,Canada,J0S 1J0, http://www.pointedubuisson.com ,-73.966051407182547,45.315340356379842
Poste Chauvin,Municipalité du village de Tadoussac,"Institution muséale (musée, centre d'exposition, lieu d'interprétation)",Reconnu,,Lieu d'interprétation,,"Institutions muséales (musées, centres d'exposition et lieux d'interprétation)","157, rue Bord-de-l'Eau",Tadoussac,9,Côte-Nord,Québec,Canada,G0T 2A0,http://parcmarin.qc.ca/page_details/poste-de-traite-chauvin/,-69.716671537524064,48.140816076127528
Salle Alfred-Pellan,,"Institution muséale (musée, centre d'exposition, lieu d'interprétation)",Reconnu,,Centre d'exposition,,"Institutions muséales (musées, centres d'exposition et lieux d'interprétation)","1395, boulevard de la Concorde Ouest",Laval,13,Laval,Québec,Canada,H7N 5W1,https://www.laval.ca/maisondesarts/Pages/Fr/expositions.aspx,-73.716537812665024,45.558675162254914
SBC Galerie d'art contemporain ,SBC Galerie d'art contemporain,"Institution muséale (musée, centre d'exposition, lieu d'interprétation)",Reconnu,,Centre d'exposition,Muséologie/multiple,"Institutions muséales (musées, centres d'exposition et lieux d'interprétation)","372, rue Sainte-Catherine Ouest, Espace 507",Montréal ,6,Montréal,Québec,Canada,H3B 1A2,http://www.sbcgallery.ca/,-73.567115567800101,45.505607993702661
Site historique de l'île-des-Moulins,Société de développement culturel de Terrebonne,"Institution muséale (musée, centre d'exposition, lieu d'interprétation)",Reconnu et soutenu,Institutions muséales,Lieu d'interprétation,Histoire et ethnologie,"Institutions muséales (musées, centres d'exposition et lieux d'interprétation)","866, rue St-Pierre",Terrebonne,14,Lanaudière,Québec,Canada,J6W 1E5, http://www.ile-des-moulins.qc.ca ,-73.635496385922522,45.692153016716588
Site historique de la Maison Lamontagne ,Société rimouskoise du patrimoine,"Institution muséale (musée, centre d'exposition, lieu d'interprétation)",Reconnu et soutenu,Institutions muséales,Lieu d'interprétation,Histoire et ethnologie,"Institutions muséales (musées, centres d'exposition et lieux d'interprétation)","707, boulevard du Rivage",Rimouski ,1,Bas Saint-Laurent,Québec,Canada,G5L 1H2, http://www.maisonlamontagne.com ,-68.495202407879376,48.48414254630525
Site historique du Banc-de-Paspébiac,Site historique du Banc-de-Paspébiac inc.,"Institution muséale (musée, centre d'exposition, lieu d'interprétation)",Reconnu et soutenu,Institutions muséales,Lieu d'interprétation,Histoire et ethnologie,"Institutions muséales (musées, centres d'exposition et lieux d'interprétation)","76, 3eRue76, 3eRue76, 3eRue",Paspébiac,11,Gaspésie-Iles-de-la-Madeleine,Québec,Canada,G0C 2K0, http://www.shbp.ca ,-65.243446467038467,48.036358913115969
Site historique maritime de la Pointe-au-Père,,"Institution muséale (musée, centre d'exposition, lieu d'interprétation)",Reconnu et soutenu,Institutions muséales,Lieu d'interprétation,,"Institutions muséales (musées, centres d'exposition et lieux d'interprétation)","1000, rue du Phare",Rimouski ,1,Bas Saint-Laurent,Québec,Canada,G5M 1L8,http://www.shmp.qc.ca/,-68.469725478372837,48.517319146616259
Site historique Matamajaw,"Corporation de développement faunique touristique et culturelle ""FAUCUS""","Institution muséale (musée, centre d'exposition, lieu d'interprétation)",Reconnu,,Lieu d'interprétation,,"Institutions muséales (musées, centres d'exposition et lieux d'interprétation)","53, rue Saint-Jacques Sud",Causapscal ,1,Bas Saint-Laurent,Québec,Canada,G0J 1J0,www.sitehistoriquematamajaw.com,-67.222168577230278,48.352266358719916
Site historique T.E. Draper,Les Promoteurs d'Angliers inc.,"Institution muséale (musée, centre d'exposition, lieu d'interprétation)",Reconnu et soutenu,Institutions muséales,Lieu d'interprétation,Histoire et ethnologie,"Institutions muséales (musées, centres d'exposition et lieux d'interprétation)","11, rue du T.-E.-Draper (C.P. 82)",Angliers,8,Abitibi-Témiscamingue,Québec,Canada,J0Z 1A0,http://www.tedraper.ca/,-79.232499719063526,47.550255773838394
Site Madeleine de Verchères. Domaine seigneurial Sainte-Anne  ,Société du site Madeleine de Verchères ,"Institution muséale (musée, centre d'exposition, lieu d'interprétation)",Reconnu,,Lieu d'interprétation,,"Institutions muséales (musées, centres d'exposition et lieux d'interprétation)",200 rue Principale,Sainte-Anne-de-la-Pérade ,4,Mauricie,Québec,Canada,G0X 2J0, www.domaine-steanne.com ,-72.211206470525042,46.568893309164544
Site Mary Travers dite : « La Bolduc » ,Site Mary Travers dite : « La Bolduc » inc.,"Institution muséale (musée, centre d'exposition, lieu d'interprétation)",Reconnu,,Lieu d'interprétation,,"Institutions muséales (musées, centres d'exposition et lieux d'interprétation)","342, route 132",Newport,11,Gaspésie-Iles-de-la-Madeleine,Québec,Canada,G0C 2A0,http://www.labolduc.qc.ca/,-64.75113733681404,48.256807709640398
"Uplands, Centre culturel et du patrimoine","Uplands, Centre culturel et du patrimoine","Institution muséale (musée, centre d'exposition, lieu d'interprétation)",Reconnu,,Lieu d'interprétation,,"Institutions muséales (musées, centres d'exposition et lieux d'interprétation)","9, rue Speid",Sherbrooke ,5,Estrie,Québec,Canada,J1M 1R9, http://www.uplands.ca ,-71.860528413756683,45.36865279064591
Vieille fromagerie Perron,Corporation de la vieille fromagerie Perron de Saint-Prime,"Institution muséale (musée, centre d'exposition, lieu d'interprétation)",Reconnu et soutenu,Institutions muséales,Lieu d'interprétation,Histoire et ethnologie,"Institutions muséales (musées, centres d'exposition et lieux d'interprétation)","148, avenue Albert-Perron",Saint-Prime ,2,Saguenay-Lac-Saint-Jean,Québec,Canada,G8J 1L4, http://museecheddar.org ,-72.338006101313439,48.592500711412498
Vieux presbytère de Batiscan,La Fondation des amis du vieux presbytère de Batiscan,"Institution muséale (musée, centre d'exposition, lieu d'interprétation)",Reconnu et soutenu,Institutions muséales,Lieu d'interprétation,Histoire et ethnologie,"Institutions muséales (musées, centres d'exposition et lieux d'interprétation)","340, rue Principale",Batiscan ,4,Mauricie,Québec,Canada,G0X 1A0,www.presbytere-batiscan.com,-72.258219715395214,46.482107890942359
Vieux Presbytère de Deschambault,Culture et patrimoine Deschambault-Grondines,"Institution muséale (musée, centre d'exposition, lieu d'interprétation)",Reconnu et soutenu,Institutions muséales,Lieu d'interprétation,Histoire et ethnologie,"Institutions muséales (musées, centres d'exposition et lieux d'interprétation)","117, rue Saint-Joseph",Deschambault ,3,Québec,Québec,Canada,G0A 1S0,http://www.culture-patrimoine-deschambault-grondines.ca/,-71.92646218128715,46.648506311859272
Villa Bagatelle,Ville de Québec,"Institution muséale (musée, centre d'exposition, lieu d'interprétation)",Reconnu,,Lieu d'interprétation,,"Institutions muséales (musées, centres d'exposition et lieux d'interprétation)","1563, chemin Saint-Louis",Québec ,3,Québec,Québec,Canada,G1S 1G1,http://www.maisonsdupatrimoine.com/fr/membres-du-reseau/villa-bagatelle.html,-71.246831067951817,46.788443421099515
Village historique de Val-Jalbert,Corporation du Parc régional de Val-Jalbert,"Institution muséale (musée, centre d'exposition, lieu d'interprétation)",Reconnu et soutenu,Institutions muséales,Lieu d'interprétation,Histoire et ethnologie,"Institutions muséales (musées, centres d'exposition et lieux d'interprétation)","95, rue saint-Georges",Chambord,2,Saguenay-Lac-Saint-Jean,Québec,Canada,G0W 1G0,www.valjalbert.com,-72.167163073944153,48.435840390470915
